[{"stateName":"AL","trendName":"#MilanJuve","placeID":"2364559","placeName":"Birmingham","searchUrl":"http:\/\/twitter.com\/search?q=%23MilanJuve","trendMapped":"milan+juve","trendVolume":66399},{"stateName":"AL","trendName":"#VampsFoundAGirl","placeID":"2364559","placeName":"Birmingham","searchUrl":"http:\/\/twitter.com\/search?q=%23VampsFoundAGirl","trendMapped":"vamps+found+a+girl","trendVolume":245470},{"stateName":"AL","trendName":"American Idol","placeID":"2364559","placeName":"Birmingham","searchUrl":"http:\/\/twitter.com\/search?q=%22American+Idol%22","trendMapped":"American+Idol","trendVolume":133041},{"stateName":"AL","trendName":"Arsenal","placeID":"2364559","placeName":"Birmingham","searchUrl":"http:\/\/twitter.com\/search?q=Arsenal","trendMapped":"arsenal","trendVolume":379887},{"stateName":"AL","trendName":"Bill Clinton","placeID":"2364559","placeName":"Birmingham","searchUrl":"http:\/\/twitter.com\/search?q=%22Bill+Clinton%22","trendMapped":"Bill+Clinton","trendVolume":89206},{"stateName":"AL","trendName":"Bruce Springsteen","placeID":"2364559","placeName":"Birmingham","searchUrl":"http:\/\/twitter.com\/search?q=%22Bruce+Springsteen%22","trendMapped":"Bruce+Springsteen","trendVolume":96341},{"stateName":"AZ","trendName":"#EndCyBernBullying","placeID":"2508428","placeName":"Tucson","searchUrl":"http:\/\/twitter.com\/search?q=%23EndCyBernBullying","trendMapped":"end+cy+bern+bullying","trendVolume":36210},{"stateName":"AZ","trendName":"#FridayFeeling","placeID":"2471390","placeName":"Phoenix","searchUrl":"http:\/\/twitter.com\/search?q=%23FridayFeeling","trendMapped":"friday+feeling","trendVolume":122228},{"stateName":"AZ","trendName":"#IdolFinale","placeID":"2471390","placeName":"Phoenix","searchUrl":"http:\/\/twitter.com\/search?q=%23IdolFinale","trendMapped":"idol+finale","trendVolume":225881},{"stateName":"AZ","trendName":"#MilanJuve","placeID":"2449808","placeName":"Mesa","searchUrl":"http:\/\/twitter.com\/search?q=%23MilanJuve","trendMapped":"milan+juve","trendVolume":68170},{"stateName":"AZ","trendName":"#N1CanalFiesta15","placeID":"2508428","placeName":"Tucson","searchUrl":"http:\/\/twitter.com\/search?q=%23N1CanalFiesta15","trendMapped":"n1+canal+fiesta15","trendVolume":88787},{"stateName":"AZ","trendName":"#VampsFoundAGirl","placeID":"2508428","placeName":"Tucson","searchUrl":"http:\/\/twitter.com\/search?q=%23VampsFoundAGirl","trendMapped":"vamps+found+a+girl","trendVolume":245486},{"stateName":"AZ","trendName":"A-Day","placeID":"2471390","placeName":"Phoenix","searchUrl":"http:\/\/twitter.com\/search?q=A-Day","trendMapped":"a-+day","trendVolume":693745},{"stateName":"AZ","trendName":"Ahmed","placeID":"2471390","placeName":"Phoenix","searchUrl":"http:\/\/twitter.com\/search?q=Ahmed","trendMapped":"ahmed","trendVolume":74679},{"stateName":"AZ","trendName":"Anthony Joshua","placeID":"2471390","placeName":"Phoenix","searchUrl":"http:\/\/twitter.com\/search?q=%22Anthony+Joshua%22","trendMapped":"Anthony+Joshua","trendVolume":75729},{"stateName":"AZ","trendName":"Arsenal","placeID":"2508428","placeName":"Tucson","searchUrl":"http:\/\/twitter.com\/search?q=Arsenal","trendMapped":"arsenal","trendVolume":384125},{"stateName":"AZ","trendName":"Bruce Springsteen","placeID":"2508428","placeName":"Tucson","searchUrl":"http:\/\/twitter.com\/search?q=%22Bruce+Springsteen%22","trendMapped":"Bruce+Springsteen","trendVolume":96557},{"stateName":"CA","trendName":"#EndCyBernBullying","placeID":"2488042","placeName":"San Jose","searchUrl":"http:\/\/twitter.com\/search?q=%23EndCyBernBullying","trendMapped":"end+cy+bern+bullying","trendVolume":38147},{"stateName":"CA","trendName":"#FridayFeeling","placeID":"2487889","placeName":"San Diego","searchUrl":"http:\/\/twitter.com\/search?q=%23FridayFeeling","trendMapped":"friday+feeling","trendVolume":123559},{"stateName":"CA","trendName":"#MilanJuve","placeID":"2441472","placeName":"Long Beach","searchUrl":"http:\/\/twitter.com\/search?q=%23MilanJuve","trendMapped":"milan+juve","trendVolume":67431},{"stateName":"CA","trendName":"#N1CanalFiesta15","placeID":"2441472","placeName":"Long Beach","searchUrl":"http:\/\/twitter.com\/search?q=%23N1CanalFiesta15","trendMapped":"n1+canal+fiesta15","trendVolume":88787},{"stateName":"CA","trendName":"#SleepyHollow","placeID":"2488042","placeName":"San Jose","searchUrl":"http:\/\/twitter.com\/search?q=%23SleepyHollow","trendMapped":"sleepy+hollow","trendVolume":35164},{"stateName":"CA","trendName":"#SpaceX","placeID":"2487956","placeName":"San Francisco","searchUrl":"http:\/\/twitter.com\/search?q=%23SpaceX","trendMapped":"space+x","trendVolume":33687},{"stateName":"CA","trendName":"#VampsFoundAGirl","placeID":"2487956","placeName":"San Francisco","searchUrl":"http:\/\/twitter.com\/search?q=%23VampsFoundAGirl","trendMapped":"vamps+found+a+girl","trendVolume":245578},{"stateName":"CA","trendName":"A-Day","placeID":"2488042","placeName":"San Jose","searchUrl":"http:\/\/twitter.com\/search?q=A-Day","trendMapped":"a-+day","trendVolume":708733},{"stateName":"CA","trendName":"Anthony Joshua","placeID":"2488042","placeName":"San Jose","searchUrl":"http:\/\/twitter.com\/search?q=%22Anthony+Joshua%22","trendMapped":"Anthony+Joshua","trendVolume":71491},{"stateName":"CA","trendName":"Arsenal","placeID":"2488042","placeName":"San Jose","searchUrl":"http:\/\/twitter.com\/search?q=Arsenal","trendMapped":"arsenal","trendVolume":386050},{"stateName":"CA","trendName":"Bruce Springsteen","placeID":"2488042","placeName":"San Jose","searchUrl":"http:\/\/twitter.com\/search?q=%22Bruce+Springsteen%22","trendMapped":"Bruce+Springsteen","trendVolume":96557},{"stateName":"CA","trendName":"Giants","placeID":"2487889","placeName":"San Diego","searchUrl":"http:\/\/twitter.com\/search?q=Giants","trendMapped":"giants","trendVolume":85738},{"stateName":"CA","trendName":"La Liga","placeID":"2488042","placeName":"San Jose","searchUrl":"http:\/\/twitter.com\/search?q=%22La+Liga%22","trendMapped":"La+Liga","trendVolume":75826},{"stateName":"CA","trendName":"Masters","placeID":"2486340","placeName":"Sacramento","searchUrl":"http:\/\/twitter.com\/search?q=Masters","trendMapped":"masters","trendVolume":195681},{"stateName":"CA","trendName":"Real Sociedad","placeID":"2487956","placeName":"San Francisco","searchUrl":"http:\/\/twitter.com\/search?q=%22Real+Sociedad%22","trendMapped":"Real+Sociedad","trendVolume":72577},{"stateName":"CA","trendName":"Schwarber","placeID":"2487956","placeName":"San Francisco","searchUrl":"http:\/\/twitter.com\/search?q=Schwarber","trendMapped":"schwarber","trendVolume":50618},{"stateName":"CA","trendName":"Star Wars","placeID":"2488042","placeName":"San Jose","searchUrl":"http:\/\/twitter.com\/search?q=%22Star+Wars%22","trendMapped":"Star+Wars","trendVolume":109901},{"stateName":"CA","trendName":"Trevor Story","placeID":"2487956","placeName":"San Francisco","searchUrl":"http:\/\/twitter.com\/search?q=%22Trevor+Story%22","trendMapped":"Trevor+Story","trendVolume":32190},{"stateName":"CA","trendName":"West Ham","placeID":"2442047","placeName":"Los Angeles","searchUrl":"http:\/\/twitter.com\/search?q=%22West+Ham%22","trendMapped":"West+Ham","trendVolume":93963},{"stateName":"CO","trendName":"#FridayFeeling","placeID":"2391279","placeName":"Denver","searchUrl":"http:\/\/twitter.com\/search?q=%23FridayFeeling","trendMapped":"friday+feeling","trendVolume":122836},{"stateName":"CO","trendName":"#MilanJuve","placeID":"2391279","placeName":"Denver","searchUrl":"http:\/\/twitter.com\/search?q=%23MilanJuve","trendMapped":"milan+juve","trendVolume":66672},{"stateName":"CO","trendName":"#VampsFoundAGirl","placeID":"2391279","placeName":"Denver","searchUrl":"http:\/\/twitter.com\/search?q=%23VampsFoundAGirl","trendMapped":"vamps+found+a+girl","trendVolume":245486},{"stateName":"CO","trendName":"A-Day","placeID":"2391279","placeName":"Denver","searchUrl":"http:\/\/twitter.com\/search?q=A-Day","trendMapped":"a-+day","trendVolume":690394},{"stateName":"CO","trendName":"Arsenal","placeID":"2391279","placeName":"Denver","searchUrl":"http:\/\/twitter.com\/search?q=Arsenal","trendMapped":"arsenal","trendVolume":386050},{"stateName":"CO","trendName":"Bruce Springsteen","placeID":"2391279","placeName":"Denver","searchUrl":"http:\/\/twitter.com\/search?q=%22Bruce+Springsteen%22","trendMapped":"Bruce+Springsteen","trendVolume":95733},{"stateName":"CO","trendName":"La Liga","placeID":"2391279","placeName":"Denver","searchUrl":"http:\/\/twitter.com\/search?q=%22La+Liga%22","trendMapped":"La+Liga","trendVolume":75826},{"stateName":"CO","trendName":"Real Sociedad","placeID":"2391279","placeName":"Denver","searchUrl":"http:\/\/twitter.com\/search?q=%22Real+Sociedad%22","trendMapped":"Real+Sociedad","trendVolume":72061},{"stateName":"CT","trendName":"#IdolFinale","placeID":"2458410","placeName":"New Haven","searchUrl":"http:\/\/twitter.com\/search?q=%23IdolFinale","trendMapped":"idol+finale","trendVolume":273957},{"stateName":"CT","trendName":"#MilanJuve","placeID":"2458410","placeName":"New Haven","searchUrl":"http:\/\/twitter.com\/search?q=%23MilanJuve","trendMapped":"milan+juve","trendVolume":67431},{"stateName":"CT","trendName":"A-Day","placeID":"2458410","placeName":"New Haven","searchUrl":"http:\/\/twitter.com\/search?q=A-Day","trendMapped":"a-+day","trendVolume":687785},{"stateName":"CT","trendName":"Anthony Joshua","placeID":"2458410","placeName":"New Haven","searchUrl":"http:\/\/twitter.com\/search?q=%22Anthony+Joshua%22","trendMapped":"Anthony+Joshua","trendVolume":71491},{"stateName":"CT","trendName":"Arsenal","placeID":"2458410","placeName":"New Haven","searchUrl":"http:\/\/twitter.com\/search?q=Arsenal","trendMapped":"arsenal","trendVolume":387302},{"stateName":"CT","trendName":"Bruce Springsteen","placeID":"2458410","placeName":"New Haven","searchUrl":"http:\/\/twitter.com\/search?q=%22Bruce+Springsteen%22","trendMapped":"Bruce+Springsteen","trendVolume":95997},{"stateName":"CT","trendName":"Real Sociedad","placeID":"2458410","placeName":"New Haven","searchUrl":"http:\/\/twitter.com\/search?q=%22Real+Sociedad%22","trendMapped":"Real+Sociedad","trendVolume":71338},{"stateName":"CT","trendName":"Toronto","placeID":"2458410","placeName":"New Haven","searchUrl":"http:\/\/twitter.com\/search?q=Toronto","trendMapped":"toronto","trendVolume":61969},{"stateName":"DC","trendName":"#EndCyBernBullying","placeID":"2514815","placeName":"Washington","searchUrl":"http:\/\/twitter.com\/search?q=%23EndCyBernBullying","trendMapped":"end+cy+bern+bullying","trendVolume":37459},{"stateName":"DC","trendName":"#MilanJuve","placeID":"2514815","placeName":"Washington","searchUrl":"http:\/\/twitter.com\/search?q=%23MilanJuve","trendMapped":"milan+juve","trendVolume":68170},{"stateName":"DC","trendName":"#SleepyHollow","placeID":"2514815","placeName":"Washington","searchUrl":"http:\/\/twitter.com\/search?q=%23SleepyHollow","trendMapped":"sleepy+hollow","trendVolume":34863},{"stateName":"DC","trendName":"#VampsFoundAGirl","placeID":"2514815","placeName":"Washington","searchUrl":"http:\/\/twitter.com\/search?q=%23VampsFoundAGirl","trendMapped":"vamps+found+a+girl","trendVolume":245452},{"stateName":"DC","trendName":"#resigncameron","placeID":"2514815","placeName":"Washington","searchUrl":"http:\/\/twitter.com\/search?q=%23resigncameron","trendMapped":"resigncameron","trendVolume":191340},{"stateName":"DC","trendName":"Arsenal","placeID":"2514815","placeName":"Washington","searchUrl":"http:\/\/twitter.com\/search?q=Arsenal","trendMapped":"arsenal","trendVolume":368000},{"stateName":"DC","trendName":"Bruce Springsteen","placeID":"2514815","placeName":"Washington","searchUrl":"http:\/\/twitter.com\/search?q=%22Bruce+Springsteen%22","trendMapped":"Bruce+Springsteen","trendVolume":69886},{"stateName":"DC","trendName":"Trevor Story","placeID":"2514815","placeName":"Washington","searchUrl":"http:\/\/twitter.com\/search?q=%22Trevor+Story%22","trendMapped":"Trevor+Story","trendVolume":32888},{"stateName":"FL","trendName":"#EndCyBernBullying","placeID":"2466256","placeName":"Orlando","searchUrl":"http:\/\/twitter.com\/search?q=%23EndCyBernBullying","trendMapped":"end+cy+bern+bullying","trendVolume":38147},{"stateName":"FL","trendName":"#FridayFeeling","placeID":"2503863","placeName":"Tampa","searchUrl":"http:\/\/twitter.com\/search?q=%23FridayFeeling","trendMapped":"friday+feeling","trendVolume":123559},{"stateName":"FL","trendName":"#IdolFinale","placeID":"2503863","placeName":"Tampa","searchUrl":"http:\/\/twitter.com\/search?q=%23IdolFinale","trendMapped":"idol+finale","trendVolume":225963},{"stateName":"FL","trendName":"#MilanJuve","placeID":"2503863","placeName":"Tampa","searchUrl":"http:\/\/twitter.com\/search?q=%23MilanJuve","trendMapped":"milan+juve","trendVolume":67700},{"stateName":"FL","trendName":"#N1CanalFiesta15","placeID":"2450022","placeName":"Miami","searchUrl":"http:\/\/twitter.com\/search?q=%23N1CanalFiesta15","trendMapped":"n1+canal+fiesta15","trendVolume":86952},{"stateName":"FL","trendName":"#Periscope","placeID":"2503713","placeName":"Tallahassee","searchUrl":"http:\/\/twitter.com\/search?q=%23Periscope","trendMapped":"periscope","trendVolume":225940},{"stateName":"FL","trendName":"#ResignDavidCameron","placeID":"2450022","placeName":"Miami","searchUrl":"http:\/\/twitter.com\/search?q=%23ResignDavidCameron","trendMapped":"resign+david+cameron","trendVolume":90302},{"stateName":"FL","trendName":"#ResistCapitalism","placeID":"2503863","placeName":"Tampa","searchUrl":"http:\/\/twitter.com\/search?q=%23ResistCapitalism","trendMapped":"resist+capitalism","trendVolume":67624},{"stateName":"FL","trendName":"#SpaceX","placeID":"2466256","placeName":"Orlando","searchUrl":"http:\/\/twitter.com\/search?q=%23SpaceX","trendMapped":"space+x","trendVolume":35787},{"stateName":"FL","trendName":"#VampsFoundAGirl","placeID":"2450022","placeName":"Miami","searchUrl":"http:\/\/twitter.com\/search?q=%23VampsFoundAGirl","trendMapped":"vamps+found+a+girl","trendVolume":245486},{"stateName":"FL","trendName":"A-Day","placeID":"2503863","placeName":"Tampa","searchUrl":"http:\/\/twitter.com\/search?q=A-Day","trendMapped":"a-+day","trendVolume":708733},{"stateName":"FL","trendName":"Arsenal","placeID":"2503863","placeName":"Tampa","searchUrl":"http:\/\/twitter.com\/search?q=Arsenal","trendMapped":"arsenal","trendVolume":382864},{"stateName":"FL","trendName":"Bar\u00e7a","placeID":"2450022","placeName":"Miami","searchUrl":"http:\/\/twitter.com\/search?q=Bar%C3%A7a","trendMapped":"bar\u00e7a","trendVolume":172373},{"stateName":"FL","trendName":"Bruce Springsteen","placeID":"2503863","placeName":"Tampa","searchUrl":"http:\/\/twitter.com\/search?q=%22Bruce+Springsteen%22","trendMapped":"Bruce+Springsteen","trendVolume":95048},{"stateName":"FL","trendName":"Cruz","placeID":"2503713","placeName":"Tallahassee","searchUrl":"http:\/\/twitter.com\/search?q=Cruz","trendMapped":"cruz","trendVolume":292374},{"stateName":"FL","trendName":"Earth","placeID":"2428344","placeName":"Jacksonville","searchUrl":"http:\/\/twitter.com\/search?q=Earth","trendMapped":"earth","trendVolume":154922},{"stateName":"FL","trendName":"La Liga","placeID":"2503863","placeName":"Tampa","searchUrl":"http:\/\/twitter.com\/search?q=%22La+Liga%22","trendMapped":"La+Liga","trendVolume":73480},{"stateName":"FL","trendName":"Muslims","placeID":"2428344","placeName":"Jacksonville","searchUrl":"http:\/\/twitter.com\/search?q=Muslims","trendMapped":"muslims","trendVolume":40384},{"stateName":"FL","trendName":"Selena","placeID":"2450022","placeName":"Miami","searchUrl":"http:\/\/twitter.com\/search?q=Selena","trendMapped":"selena","trendVolume":100872},{"stateName":"FL","trendName":"Trump","placeID":"2503713","placeName":"Tallahassee","searchUrl":"http:\/\/twitter.com\/search?q=Trump","trendMapped":"trump","trendVolume":565690},{"stateName":"GA","trendName":"#FridayFeeling","placeID":"2357024","placeName":"Atlanta","searchUrl":"http:\/\/twitter.com\/search?q=%23FridayFeeling","trendMapped":"friday+feeling","trendVolume":122936},{"stateName":"GA","trendName":"#IdolFinale","placeID":"2357024","placeName":"Atlanta","searchUrl":"http:\/\/twitter.com\/search?q=%23IdolFinale","trendMapped":"idol+finale","trendVolume":284738},{"stateName":"GA","trendName":"#N1CanalFiesta15","placeID":"2357024","placeName":"Atlanta","searchUrl":"http:\/\/twitter.com\/search?q=%23N1CanalFiesta15","trendMapped":"n1+canal+fiesta15","trendVolume":88544},{"stateName":"GA","trendName":"#VampsFoundAGirl","placeID":"2357024","placeName":"Atlanta","searchUrl":"http:\/\/twitter.com\/search?q=%23VampsFoundAGirl","trendMapped":"vamps+found+a+girl","trendVolume":245290},{"stateName":"GA","trendName":"Arsenal","placeID":"2357024","placeName":"Atlanta","searchUrl":"http:\/\/twitter.com\/search?q=Arsenal","trendMapped":"arsenal","trendVolume":276517},{"stateName":"GA","trendName":"Star Wars","placeID":"2357024","placeName":"Atlanta","searchUrl":"http:\/\/twitter.com\/search?q=%22Star+Wars%22","trendMapped":"Star+Wars","trendVolume":109406},{"stateName":"HI","trendName":"#VampsFoundAGirl","placeID":"2423945","placeName":"Honolulu","searchUrl":"http:\/\/twitter.com\/search?q=%23VampsFoundAGirl","trendMapped":"vamps+found+a+girl","trendVolume":245486},{"stateName":"HI","trendName":"America","placeID":"2423945","placeName":"Honolulu","searchUrl":"http:\/\/twitter.com\/search?q=America","trendMapped":"america","trendVolume":317797},{"stateName":"HI","trendName":"Arsenal","placeID":"2423945","placeName":"Honolulu","searchUrl":"http:\/\/twitter.com\/search?q=Arsenal","trendMapped":"arsenal","trendVolume":382864},{"stateName":"HI","trendName":"Bruce Springsteen","placeID":"2423945","placeName":"Honolulu","searchUrl":"http:\/\/twitter.com\/search?q=%22Bruce+Springsteen%22","trendMapped":"Bruce+Springsteen","trendVolume":95048},{"stateName":"HI","trendName":"West Ham","placeID":"2423945","placeName":"Honolulu","searchUrl":"http:\/\/twitter.com\/search?q=%22West+Ham%22","trendMapped":"West+Ham","trendVolume":74433},{"stateName":"IL","trendName":"#VampsFoundAGirl","placeID":"2379574","placeName":"Chicago","searchUrl":"http:\/\/twitter.com\/search?q=%23VampsFoundAGirl","trendMapped":"vamps+found+a+girl","trendVolume":245193},{"stateName":"IL","trendName":"A-Day","placeID":"2379574","placeName":"Chicago","searchUrl":"http:\/\/twitter.com\/search?q=A-Day","trendMapped":"a-+day","trendVolume":702236},{"stateName":"IL","trendName":"Anthony Joshua","placeID":"2379574","placeName":"Chicago","searchUrl":"http:\/\/twitter.com\/search?q=%22Anthony+Joshua%22","trendMapped":"Anthony+Joshua","trendVolume":75729},{"stateName":"IL","trendName":"Arsenal","placeID":"2379574","placeName":"Chicago","searchUrl":"http:\/\/twitter.com\/search?q=Arsenal","trendMapped":"arsenal","trendVolume":379887},{"stateName":"IL","trendName":"Bruce Springsteen","placeID":"2379574","placeName":"Chicago","searchUrl":"http:\/\/twitter.com\/search?q=%22Bruce+Springsteen%22","trendMapped":"Bruce+Springsteen","trendVolume":96557},{"stateName":"IL","trendName":"La Liga","placeID":"2379574","placeName":"Chicago","searchUrl":"http:\/\/twitter.com\/search?q=%22La+Liga%22","trendMapped":"La+Liga","trendVolume":74115},{"stateName":"IL","trendName":"Star Wars","placeID":"2379574","placeName":"Chicago","searchUrl":"http:\/\/twitter.com\/search?q=%22Star+Wars%22","trendMapped":"Star+Wars","trendVolume":109901},{"stateName":"IN","trendName":"#FridayFeeling","placeID":"2427032","placeName":"Indianapolis","searchUrl":"http:\/\/twitter.com\/search?q=%23FridayFeeling","trendMapped":"friday+feeling","trendVolume":121746},{"stateName":"IN","trendName":"#N1CanalFiesta15","placeID":"2427032","placeName":"Indianapolis","searchUrl":"http:\/\/twitter.com\/search?q=%23N1CanalFiesta15","trendMapped":"n1+canal+fiesta15","trendVolume":88247},{"stateName":"IN","trendName":"#ResistCapitalism","placeID":"2427032","placeName":"Indianapolis","searchUrl":"http:\/\/twitter.com\/search?q=%23ResistCapitalism","trendMapped":"resist+capitalism","trendVolume":58090},{"stateName":"IN","trendName":"#VampsFoundAGirl","placeID":"2427032","placeName":"Indianapolis","searchUrl":"http:\/\/twitter.com\/search?q=%23VampsFoundAGirl","trendMapped":"vamps+found+a+girl","trendVolume":245290},{"stateName":"IN","trendName":"Anthony Joshua","placeID":"2427032","placeName":"Indianapolis","searchUrl":"http:\/\/twitter.com\/search?q=%22Anthony+Joshua%22","trendMapped":"Anthony+Joshua","trendVolume":75729},{"stateName":"IN","trendName":"Arsenal","placeID":"2427032","placeName":"Indianapolis","searchUrl":"http:\/\/twitter.com\/search?q=Arsenal","trendMapped":"arsenal","trendVolume":327677},{"stateName":"KY","trendName":"#FridayFeeling","placeID":"2442327","placeName":"Louisville","searchUrl":"http:\/\/twitter.com\/search?q=%23FridayFeeling","trendMapped":"friday+feeling","trendVolume":122081},{"stateName":"KY","trendName":"#N1CanalFiesta15","placeID":"2442327","placeName":"Louisville","searchUrl":"http:\/\/twitter.com\/search?q=%23N1CanalFiesta15","trendMapped":"n1+canal+fiesta15","trendVolume":88544},{"stateName":"KY","trendName":"Anthony Joshua","placeID":"2442327","placeName":"Louisville","searchUrl":"http:\/\/twitter.com\/search?q=%22Anthony+Joshua%22","trendMapped":"Anthony+Joshua","trendVolume":73461},{"stateName":"KY","trendName":"Arsenal","placeID":"2442327","placeName":"Louisville","searchUrl":"http:\/\/twitter.com\/search?q=Arsenal","trendMapped":"arsenal","trendVolume":384125},{"stateName":"KY","trendName":"Bruce Springsteen","placeID":"2442327","placeName":"Louisville","searchUrl":"http:\/\/twitter.com\/search?q=%22Bruce+Springsteen%22","trendMapped":"Bruce+Springsteen","trendVolume":95048},{"stateName":"KY","trendName":"La Liga","placeID":"2442327","placeName":"Louisville","searchUrl":"http:\/\/twitter.com\/search?q=%22La+Liga%22","trendMapped":"La+Liga","trendVolume":72134},{"stateName":"LA","trendName":"#SleepyHollow","placeID":"2458833","placeName":"New Orleans","searchUrl":"http:\/\/twitter.com\/search?q=%23SleepyHollow","trendMapped":"sleepy+hollow","trendVolume":35982},{"stateName":"LA","trendName":"A-Day","placeID":"2359991","placeName":"Baton Rouge","searchUrl":"http:\/\/twitter.com\/search?q=A-Day","trendMapped":"a-+day","trendVolume":687785},{"stateName":"LA","trendName":"Anthony Joshua","placeID":"2458833","placeName":"New Orleans","searchUrl":"http:\/\/twitter.com\/search?q=%22Anthony+Joshua%22","trendMapped":"Anthony+Joshua","trendVolume":73461},{"stateName":"LA","trendName":"Arsenal","placeID":"2458833","placeName":"New Orleans","searchUrl":"http:\/\/twitter.com\/search?q=Arsenal","trendMapped":"arsenal","trendVolume":380679},{"stateName":"LA","trendName":"Bruce Springsteen","placeID":"2458833","placeName":"New Orleans","searchUrl":"http:\/\/twitter.com\/search?q=%22Bruce+Springsteen%22","trendMapped":"Bruce+Springsteen","trendVolume":75293},{"stateName":"LA","trendName":"Kobe","placeID":"2359991","placeName":"Baton Rouge","searchUrl":"http:\/\/twitter.com\/search?q=Kobe","trendMapped":"kobe","trendVolume":115578},{"stateName":"LA","trendName":"Masters","placeID":"2359991","placeName":"Baton Rouge","searchUrl":"http:\/\/twitter.com\/search?q=Masters","trendMapped":"masters","trendVolume":143890},{"stateName":"LA","trendName":"Vatican","placeID":"2458833","placeName":"New Orleans","searchUrl":"http:\/\/twitter.com\/search?q=Vatican","trendMapped":"vatican","trendVolume":116893},{"stateName":"LA","trendName":"Vice","placeID":"2359991","placeName":"Baton Rouge","searchUrl":"http:\/\/twitter.com\/search?q=Vice","trendMapped":"vice","trendVolume":72378},{"stateName":"MA","trendName":"#FridayFeeling","placeID":"2367105","placeName":"Boston","searchUrl":"http:\/\/twitter.com\/search?q=%23FridayFeeling","trendMapped":"friday+feeling","trendVolume":122771},{"stateName":"MA","trendName":"A-Day","placeID":"2367105","placeName":"Boston","searchUrl":"http:\/\/twitter.com\/search?q=A-Day","trendMapped":"a-+day","trendVolume":687785},{"stateName":"MA","trendName":"Arsenal","placeID":"2367105","placeName":"Boston","searchUrl":"http:\/\/twitter.com\/search?q=Arsenal","trendMapped":"arsenal","trendVolume":379887},{"stateName":"MA","trendName":"Bruce Springsteen","placeID":"2367105","placeName":"Boston","searchUrl":"http:\/\/twitter.com\/search?q=%22Bruce+Springsteen%22","trendMapped":"Bruce+Springsteen","trendVolume":96341},{"stateName":"MA","trendName":"Schwarber","placeID":"2367105","placeName":"Boston","searchUrl":"http:\/\/twitter.com\/search?q=Schwarber","trendMapped":"schwarber","trendVolume":53758},{"stateName":"MA","trendName":"Trevor Story","placeID":"2367105","placeName":"Boston","searchUrl":"http:\/\/twitter.com\/search?q=%22Trevor+Story%22","trendMapped":"Trevor+Story","trendVolume":32888},{"stateName":"MD","trendName":"#FridayFeeling","placeID":"2358820","placeName":"Baltimore","searchUrl":"http:\/\/twitter.com\/search?q=%23FridayFeeling","trendMapped":"friday+feeling","trendVolume":123166},{"stateName":"MD","trendName":"#IdolFinale","placeID":"2358820","placeName":"Baltimore","searchUrl":"http:\/\/twitter.com\/search?q=%23IdolFinale","trendMapped":"idol+finale","trendVolume":225453},{"stateName":"MD","trendName":"#VampsFoundAGirl","placeID":"2358820","placeName":"Baltimore","searchUrl":"http:\/\/twitter.com\/search?q=%23VampsFoundAGirl","trendMapped":"vamps+found+a+girl","trendVolume":245486},{"stateName":"MD","trendName":"Arsenal","placeID":"2358820","placeName":"Baltimore","searchUrl":"http:\/\/twitter.com\/search?q=Arsenal","trendMapped":"arsenal","trendVolume":373033},{"stateName":"MD","trendName":"Paris","placeID":"2358820","placeName":"Baltimore","searchUrl":"http:\/\/twitter.com\/search?q=Paris","trendMapped":"paris","trendVolume":211047},{"stateName":"MI","trendName":"#IdolFinale","placeID":"2391585","placeName":"Detroit","searchUrl":"http:\/\/twitter.com\/search?q=%23IdolFinale","trendMapped":"idol+finale","trendVolume":273957},{"stateName":"MI","trendName":"#N1CanalFiesta15","placeID":"2391585","placeName":"Detroit","searchUrl":"http:\/\/twitter.com\/search?q=%23N1CanalFiesta15","trendMapped":"n1+canal+fiesta15","trendVolume":88247},{"stateName":"MI","trendName":"#VampsFoundAGirl","placeID":"2391585","placeName":"Detroit","searchUrl":"http:\/\/twitter.com\/search?q=%23VampsFoundAGirl","trendMapped":"vamps+found+a+girl","trendVolume":245470},{"stateName":"MI","trendName":"Arsenal","placeID":"2391585","placeName":"Detroit","searchUrl":"http:\/\/twitter.com\/search?q=Arsenal","trendMapped":"arsenal","trendVolume":379727},{"stateName":"MI","trendName":"Bruce Springsteen","placeID":"2391585","placeName":"Detroit","searchUrl":"http:\/\/twitter.com\/search?q=%22Bruce+Springsteen%22","trendMapped":"Bruce+Springsteen","trendVolume":76851},{"stateName":"MI","trendName":"Real Sociedad","placeID":"2391585","placeName":"Detroit","searchUrl":"http:\/\/twitter.com\/search?q=%22Real+Sociedad%22","trendMapped":"Real+Sociedad","trendVolume":72577},{"stateName":"MN","trendName":"#FridayFeeling","placeID":"2452078","placeName":"Minneapolis","searchUrl":"http:\/\/twitter.com\/search?q=%23FridayFeeling","trendMapped":"friday+feeling","trendVolume":122844},{"stateName":"MN","trendName":"#IdolFinale","placeID":"2452078","placeName":"Minneapolis","searchUrl":"http:\/\/twitter.com\/search?q=%23IdolFinale","trendMapped":"idol+finale","trendVolume":225963},{"stateName":"MN","trendName":"#VampsFoundAGirl","placeID":"2452078","placeName":"Minneapolis","searchUrl":"http:\/\/twitter.com\/search?q=%23VampsFoundAGirl","trendMapped":"vamps+found+a+girl","trendVolume":245193},{"stateName":"MN","trendName":"A-Day","placeID":"2452078","placeName":"Minneapolis","searchUrl":"http:\/\/twitter.com\/search?q=A-Day","trendMapped":"a-+day","trendVolume":711503},{"stateName":"MN","trendName":"Arsenal","placeID":"2452078","placeName":"Minneapolis","searchUrl":"http:\/\/twitter.com\/search?q=Arsenal","trendMapped":"arsenal","trendVolume":386050},{"stateName":"MN","trendName":"La Liga","placeID":"2452078","placeName":"Minneapolis","searchUrl":"http:\/\/twitter.com\/search?q=%22La+Liga%22","trendMapped":"La+Liga","trendVolume":75826},{"stateName":"MN","trendName":"North Carolina","placeID":"2452078","placeName":"Minneapolis","searchUrl":"http:\/\/twitter.com\/search?q=%22North+Carolina%22","trendMapped":"North+Carolina","trendVolume":98503},{"stateName":"MN","trendName":"Star Wars","placeID":"2452078","placeName":"Minneapolis","searchUrl":"http:\/\/twitter.com\/search?q=%22Star+Wars%22","trendMapped":"Star+Wars","trendVolume":110159},{"stateName":"MN","trendName":"Vatican","placeID":"2452078","placeName":"Minneapolis","searchUrl":"http:\/\/twitter.com\/search?q=Vatican","trendMapped":"vatican","trendVolume":119927},{"stateName":"MO","trendName":"#FridayFeeling","placeID":"2486982","placeName":"St. Louis","searchUrl":"http:\/\/twitter.com\/search?q=%23FridayFeeling","trendMapped":"friday+feeling","trendVolume":122639},{"stateName":"MO","trendName":"#GOT7","placeID":"2430683","placeName":"Kansas City","searchUrl":"http:\/\/twitter.com\/search?q=%23GOT7","trendMapped":"got7","trendVolume":366216},{"stateName":"MO","trendName":"#IdolFinale","placeID":"2486982","placeName":"St. Louis","searchUrl":"http:\/\/twitter.com\/search?q=%23IdolFinale","trendMapped":"idol+finale","trendVolume":225796},{"stateName":"MO","trendName":"#VampsFoundAGirl","placeID":"2486982","placeName":"St. Louis","searchUrl":"http:\/\/twitter.com\/search?q=%23VampsFoundAGirl","trendMapped":"vamps+found+a+girl","trendVolume":245193},{"stateName":"MO","trendName":"Anthony Joshua","placeID":"2486982","placeName":"St. Louis","searchUrl":"http:\/\/twitter.com\/search?q=%22Anthony+Joshua%22","trendMapped":"Anthony+Joshua","trendVolume":70312},{"stateName":"MO","trendName":"Arsenal","placeID":"2486982","placeName":"St. Louis","searchUrl":"http:\/\/twitter.com\/search?q=Arsenal","trendMapped":"arsenal","trendVolume":386050},{"stateName":"MO","trendName":"Bill Clinton","placeID":"2486982","placeName":"St. Louis","searchUrl":"http:\/\/twitter.com\/search?q=%22Bill+Clinton%22","trendMapped":"Bill+Clinton","trendVolume":82441},{"stateName":"MO","trendName":"Bruce Springsteen","placeID":"2430683","placeName":"Kansas City","searchUrl":"http:\/\/twitter.com\/search?q=%22Bruce+Springsteen%22","trendMapped":"Bruce+Springsteen","trendVolume":77636},{"stateName":"MO","trendName":"Twins","placeID":"2430683","placeName":"Kansas City","searchUrl":"http:\/\/twitter.com\/search?q=Twins","trendMapped":"twins","trendVolume":46245},{"stateName":"MO","trendName":"Vatican","placeID":"2486982","placeName":"St. Louis","searchUrl":"http:\/\/twitter.com\/search?q=Vatican","trendMapped":"vatican","trendVolume":111953},{"stateName":"MS","trendName":"#IdolFinale","placeID":"2428184","placeName":"Jackson","searchUrl":"http:\/\/twitter.com\/search?q=%23IdolFinale","trendMapped":"idol+finale","trendVolume":225963},{"stateName":"MS","trendName":"#SleepyHollow","placeID":"2428184","placeName":"Jackson","searchUrl":"http:\/\/twitter.com\/search?q=%23SleepyHollow","trendMapped":"sleepy+hollow","trendVolume":33480},{"stateName":"MS","trendName":"#VampsFoundAGirl","placeID":"2428184","placeName":"Jackson","searchUrl":"http:\/\/twitter.com\/search?q=%23VampsFoundAGirl","trendMapped":"vamps+found+a+girl","trendVolume":245501},{"stateName":"MS","trendName":"A-Day","placeID":"2428184","placeName":"Jackson","searchUrl":"http:\/\/twitter.com\/search?q=A-Day","trendMapped":"a-+day","trendVolume":687785},{"stateName":"MS","trendName":"Arsenal","placeID":"2428184","placeName":"Jackson","searchUrl":"http:\/\/twitter.com\/search?q=Arsenal","trendMapped":"arsenal","trendVolume":384125},{"stateName":"MS","trendName":"Bruce Springsteen","placeID":"2428184","placeName":"Jackson","searchUrl":"http:\/\/twitter.com\/search?q=%22Bruce+Springsteen%22","trendMapped":"Bruce+Springsteen","trendVolume":93430},{"stateName":"NC","trendName":"#EndCyBernBullying","placeID":"2378426","placeName":"Charlotte","searchUrl":"http:\/\/twitter.com\/search?q=%23EndCyBernBullying","trendMapped":"end+cy+bern+bullying","trendVolume":37087},{"stateName":"NC","trendName":"#FridayFeeling","placeID":"2478307","placeName":"Raleigh","searchUrl":"http:\/\/twitter.com\/search?q=%23FridayFeeling","trendMapped":"friday+feeling","trendVolume":123010},{"stateName":"NC","trendName":"#IdolFinale","placeID":"2478307","placeName":"Raleigh","searchUrl":"http:\/\/twitter.com\/search?q=%23IdolFinale","trendMapped":"idol+finale","trendVolume":284738},{"stateName":"NC","trendName":"#SleepyHollow","placeID":"2378426","placeName":"Charlotte","searchUrl":"http:\/\/twitter.com\/search?q=%23SleepyHollow","trendMapped":"sleepy+hollow","trendVolume":35164},{"stateName":"NC","trendName":"#VampsFoundAGirl","placeID":"2414469","placeName":"Greensboro","searchUrl":"http:\/\/twitter.com\/search?q=%23VampsFoundAGirl","trendMapped":"vamps+found+a+girl","trendVolume":245469},{"stateName":"NC","trendName":"A-Day","placeID":"2378426","placeName":"Charlotte","searchUrl":"http:\/\/twitter.com\/search?q=A-Day","trendMapped":"a-+day","trendVolume":708733},{"stateName":"NC","trendName":"Anthony Joshua","placeID":"2378426","placeName":"Charlotte","searchUrl":"http:\/\/twitter.com\/search?q=%22Anthony+Joshua%22","trendMapped":"Anthony+Joshua","trendVolume":75729},{"stateName":"NC","trendName":"Arsenal","placeID":"2478307","placeName":"Raleigh","searchUrl":"http:\/\/twitter.com\/search?q=Arsenal","trendMapped":"arsenal","trendVolume":386050},{"stateName":"NC","trendName":"Bruce Springsteen","placeID":"2478307","placeName":"Raleigh","searchUrl":"http:\/\/twitter.com\/search?q=%22Bruce+Springsteen%22","trendMapped":"Bruce+Springsteen","trendVolume":95733},{"stateName":"NC","trendName":"La Liga","placeID":"2478307","placeName":"Raleigh","searchUrl":"http:\/\/twitter.com\/search?q=%22La+Liga%22","trendMapped":"La+Liga","trendVolume":75966},{"stateName":"NC","trendName":"Real Sociedad","placeID":"2378426","placeName":"Charlotte","searchUrl":"http:\/\/twitter.com\/search?q=%22Real+Sociedad%22","trendMapped":"Real+Sociedad","trendVolume":71338},{"stateName":"NE","trendName":"#IdolFinale","placeID":"2465512","placeName":"Omaha","searchUrl":"http:\/\/twitter.com\/search?q=%23IdolFinale","trendMapped":"idol+finale","trendVolume":85091},{"stateName":"NE","trendName":"#MilanJuve","placeID":"2465512","placeName":"Omaha","searchUrl":"http:\/\/twitter.com\/search?q=%23MilanJuve","trendMapped":"milan+juve","trendVolume":68112},{"stateName":"NE","trendName":"#VampsFoundAGirl","placeID":"2465512","placeName":"Omaha","searchUrl":"http:\/\/twitter.com\/search?q=%23VampsFoundAGirl","trendMapped":"vamps+found+a+girl","trendVolume":245013},{"stateName":"NE","trendName":"Arsenal","placeID":"2465512","placeName":"Omaha","searchUrl":"http:\/\/twitter.com\/search?q=Arsenal","trendMapped":"arsenal","trendVolume":386050},{"stateName":"NE","trendName":"La Liga","placeID":"2465512","placeName":"Omaha","searchUrl":"http:\/\/twitter.com\/search?q=%22La+Liga%22","trendMapped":"La+Liga","trendVolume":75826},{"stateName":"NE","trendName":"Masters","placeID":"2465512","placeName":"Omaha","searchUrl":"http:\/\/twitter.com\/search?q=Masters","trendMapped":"masters","trendVolume":195252},{"stateName":"NM","trendName":"#VampsFoundAGirl","placeID":"2352824","placeName":"Albuquerque","searchUrl":"http:\/\/twitter.com\/search?q=%23VampsFoundAGirl","trendMapped":"vamps+found+a+girl","trendVolume":245470},{"stateName":"NM","trendName":"A-Day","placeID":"2352824","placeName":"Albuquerque","searchUrl":"http:\/\/twitter.com\/search?q=A-Day","trendMapped":"a-+day","trendVolume":702236},{"stateName":"NM","trendName":"Arsenal","placeID":"2352824","placeName":"Albuquerque","searchUrl":"http:\/\/twitter.com\/search?q=Arsenal","trendMapped":"arsenal","trendVolume":386050},{"stateName":"NM","trendName":"Bruce Springsteen","placeID":"2352824","placeName":"Albuquerque","searchUrl":"http:\/\/twitter.com\/search?q=%22Bruce+Springsteen%22","trendMapped":"Bruce+Springsteen","trendVolume":74564},{"stateName":"NV","trendName":"#FridayFeeling","placeID":"2436704","placeName":"Las Vegas","searchUrl":"http:\/\/twitter.com\/search?q=%23FridayFeeling","trendMapped":"friday+feeling","trendVolume":121009},{"stateName":"NV","trendName":"#IdolFinale","placeID":"2436704","placeName":"Las Vegas","searchUrl":"http:\/\/twitter.com\/search?q=%23IdolFinale","trendMapped":"idol+finale","trendVolume":225796},{"stateName":"NV","trendName":"#MilanJuve","placeID":"2436704","placeName":"Las Vegas","searchUrl":"http:\/\/twitter.com\/search?q=%23MilanJuve","trendMapped":"milan+juve","trendVolume":68170},{"stateName":"NV","trendName":"#N1CanalFiesta15","placeID":"2436704","placeName":"Las Vegas","searchUrl":"http:\/\/twitter.com\/search?q=%23N1CanalFiesta15","trendMapped":"n1+canal+fiesta15","trendVolume":88544},{"stateName":"NV","trendName":"#VampsFoundAGirl","placeID":"2436704","placeName":"Las Vegas","searchUrl":"http:\/\/twitter.com\/search?q=%23VampsFoundAGirl","trendMapped":"vamps+found+a+girl","trendVolume":245242},{"stateName":"NV","trendName":"Arsenal","placeID":"2436704","placeName":"Las Vegas","searchUrl":"http:\/\/twitter.com\/search?q=Arsenal","trendMapped":"arsenal","trendVolume":386050},{"stateName":"NV","trendName":"La Liga","placeID":"2436704","placeName":"Las Vegas","searchUrl":"http:\/\/twitter.com\/search?q=%22La+Liga%22","trendMapped":"La+Liga","trendVolume":71359},{"stateName":"NV","trendName":"West Ham","placeID":"2436704","placeName":"Las Vegas","searchUrl":"http:\/\/twitter.com\/search?q=%22West+Ham%22","trendMapped":"West+Ham","trendVolume":74433},{"stateName":"NY","trendName":"#SleepyHollow","placeID":"2459115","placeName":"New York","searchUrl":"http:\/\/twitter.com\/search?q=%23SleepyHollow","trendMapped":"sleepy+hollow","trendVolume":34088},{"stateName":"NY","trendName":"#VampsFoundAGirl","placeID":"2459115","placeName":"New York","searchUrl":"http:\/\/twitter.com\/search?q=%23VampsFoundAGirl","trendMapped":"vamps+found+a+girl","trendVolume":245452},{"stateName":"NY","trendName":"A-Day","placeID":"2459115","placeName":"New York","searchUrl":"http:\/\/twitter.com\/search?q=A-Day","trendMapped":"a-+day","trendVolume":702236},{"stateName":"NY","trendName":"Arsenal","placeID":"2459115","placeName":"New York","searchUrl":"http:\/\/twitter.com\/search?q=Arsenal","trendMapped":"arsenal","trendVolume":386050},{"stateName":"NY","trendName":"Bruce Springsteen","placeID":"2459115","placeName":"New York","searchUrl":"http:\/\/twitter.com\/search?q=%22Bruce+Springsteen%22","trendMapped":"Bruce+Springsteen","trendVolume":74937},{"stateName":"NY","trendName":"Eibar","placeID":"2459115","placeName":"New York","searchUrl":"http:\/\/twitter.com\/search?q=Eibar","trendMapped":"eibar","trendVolume":99063},{"stateName":"NY","trendName":"La Liga","placeID":"2459115","placeName":"New York","searchUrl":"http:\/\/twitter.com\/search?q=%22La+Liga%22","trendMapped":"La+Liga","trendVolume":75826},{"stateName":"NY","trendName":"Star Wars","placeID":"2459115","placeName":"New York","searchUrl":"http:\/\/twitter.com\/search?q=%22Star+Wars%22","trendMapped":"Star+Wars","trendVolume":110159},{"stateName":"OH","trendName":"#FridayFeeling","placeID":"2381475","placeName":"Cleveland","searchUrl":"http:\/\/twitter.com\/search?q=%23FridayFeeling","trendMapped":"friday+feeling","trendVolume":123166},{"stateName":"OH","trendName":"#IdolFinale","placeID":"2381475","placeName":"Cleveland","searchUrl":"http:\/\/twitter.com\/search?q=%23IdolFinale","trendMapped":"idol+finale","trendVolume":225453},{"stateName":"OH","trendName":"#MilanJuve","placeID":"2383660","placeName":"Columbus","searchUrl":"http:\/\/twitter.com\/search?q=%23MilanJuve","trendMapped":"milan+juve","trendVolume":68112},{"stateName":"OH","trendName":"#N1CanalFiesta15","placeID":"2383660","placeName":"Columbus","searchUrl":"http:\/\/twitter.com\/search?q=%23N1CanalFiesta15","trendMapped":"n1+canal+fiesta15","trendVolume":88155},{"stateName":"OH","trendName":"#VampsFoundAGirl","placeID":"2383660","placeName":"Columbus","searchUrl":"http:\/\/twitter.com\/search?q=%23VampsFoundAGirl","trendMapped":"vamps+found+a+girl","trendVolume":245470},{"stateName":"OH","trendName":"A-Day","placeID":"2381475","placeName":"Cleveland","searchUrl":"http:\/\/twitter.com\/search?q=A-Day","trendMapped":"a-+day","trendVolume":687785},{"stateName":"OH","trendName":"Anthony Joshua","placeID":"2381475","placeName":"Cleveland","searchUrl":"http:\/\/twitter.com\/search?q=%22Anthony+Joshua%22","trendMapped":"Anthony+Joshua","trendVolume":74349},{"stateName":"OH","trendName":"Arsenal","placeID":"2383660","placeName":"Columbus","searchUrl":"http:\/\/twitter.com\/search?q=Arsenal","trendMapped":"arsenal","trendVolume":383396},{"stateName":"OH","trendName":"Bruce Springsteen","placeID":"2383660","placeName":"Columbus","searchUrl":"http:\/\/twitter.com\/search?q=%22Bruce+Springsteen%22","trendMapped":"Bruce+Springsteen","trendVolume":94589},{"stateName":"OH","trendName":"La Liga","placeID":"2381475","placeName":"Cleveland","searchUrl":"http:\/\/twitter.com\/search?q=%22La+Liga%22","trendMapped":"La+Liga","trendVolume":75826},{"stateName":"OH","trendName":"Schwarber","placeID":"2383660","placeName":"Columbus","searchUrl":"http:\/\/twitter.com\/search?q=Schwarber","trendMapped":"schwarber","trendVolume":41443},{"stateName":"OK","trendName":"#N1CanalFiesta15","placeID":"2464592","placeName":"Oklahoma City","searchUrl":"http:\/\/twitter.com\/search?q=%23N1CanalFiesta15","trendMapped":"n1+canal+fiesta15","trendVolume":88544},{"stateName":"OK","trendName":"#SleepyHollow","placeID":"2464592","placeName":"Oklahoma City","searchUrl":"http:\/\/twitter.com\/search?q=%23SleepyHollow","trendMapped":"sleepy+hollow","trendVolume":34863},{"stateName":"OK","trendName":"#VampsFoundAGirl","placeID":"2464592","placeName":"Oklahoma City","searchUrl":"http:\/\/twitter.com\/search?q=%23VampsFoundAGirl","trendMapped":"vamps+found+a+girl","trendVolume":245290},{"stateName":"OK","trendName":"A-Day","placeID":"2464592","placeName":"Oklahoma City","searchUrl":"http:\/\/twitter.com\/search?q=A-Day","trendMapped":"a-+day","trendVolume":711503},{"stateName":"OK","trendName":"Anthony Joshua","placeID":"2464592","placeName":"Oklahoma City","searchUrl":"http:\/\/twitter.com\/search?q=%22Anthony+Joshua%22","trendMapped":"Anthony+Joshua","trendVolume":75729},{"stateName":"OK","trendName":"Arsenal","placeID":"2464592","placeName":"Oklahoma City","searchUrl":"http:\/\/twitter.com\/search?q=Arsenal","trendMapped":"arsenal","trendVolume":376422},{"stateName":"OK","trendName":"Bruce Springsteen","placeID":"2464592","placeName":"Oklahoma City","searchUrl":"http:\/\/twitter.com\/search?q=%22Bruce+Springsteen%22","trendMapped":"Bruce+Springsteen","trendVolume":95733},{"stateName":"OR","trendName":"#VampsFoundAGirl","placeID":"2475687","placeName":"Portland","searchUrl":"http:\/\/twitter.com\/search?q=%23VampsFoundAGirl","trendMapped":"vamps+found+a+girl","trendVolume":245290},{"stateName":"OR","trendName":"Anthony Joshua","placeID":"2475687","placeName":"Portland","searchUrl":"http:\/\/twitter.com\/search?q=%22Anthony+Joshua%22","trendMapped":"Anthony+Joshua","trendVolume":75729},{"stateName":"OR","trendName":"Arsenal","placeID":"2475687","placeName":"Portland","searchUrl":"http:\/\/twitter.com\/search?q=Arsenal","trendMapped":"arsenal","trendVolume":382864},{"stateName":"OR","trendName":"La Liga","placeID":"2475687","placeName":"Portland","searchUrl":"http:\/\/twitter.com\/search?q=%22La+Liga%22","trendMapped":"La+Liga","trendVolume":75826},{"stateName":"OR","trendName":"Real Sociedad","placeID":"2475687","placeName":"Portland","searchUrl":"http:\/\/twitter.com\/search?q=%22Real+Sociedad%22","trendMapped":"Real+Sociedad","trendVolume":72577},{"stateName":"OR","trendName":"Vatican","placeID":"2475687","placeName":"Portland","searchUrl":"http:\/\/twitter.com\/search?q=Vatican","trendMapped":"vatican","trendVolume":116780},{"stateName":"PA","trendName":"#EndCyBernBullying","placeID":"2418046","placeName":"Harrisburg","searchUrl":"http:\/\/twitter.com\/search?q=%23EndCyBernBullying","trendMapped":"end+cy+bern+bullying","trendVolume":38970},{"stateName":"PA","trendName":"#FeelTheBern","placeID":"2418046","placeName":"Harrisburg","searchUrl":"http:\/\/twitter.com\/search?q=%23FeelTheBern","trendMapped":"feel+the+bern","trendVolume":101459},{"stateName":"PA","trendName":"#FridayFeeling","placeID":"2473224","placeName":"Pittsburgh","searchUrl":"http:\/\/twitter.com\/search?q=%23FridayFeeling","trendMapped":"friday+feeling","trendVolume":123559},{"stateName":"PA","trendName":"#IdolFinale","placeID":"2473224","placeName":"Pittsburgh","searchUrl":"http:\/\/twitter.com\/search?q=%23IdolFinale","trendMapped":"idol+finale","trendVolume":225453},{"stateName":"PA","trendName":"#SleepyHollow","placeID":"2471217","placeName":"Philadelphia","searchUrl":"http:\/\/twitter.com\/search?q=%23SleepyHollow","trendMapped":"sleepy+hollow","trendVolume":35164},{"stateName":"PA","trendName":"#StarWars","placeID":"2418046","placeName":"Harrisburg","searchUrl":"http:\/\/twitter.com\/search?q=%23StarWars","trendMapped":"star+wars","trendVolume":33935},{"stateName":"PA","trendName":"#VampsFoundAGirl","placeID":"2473224","placeName":"Pittsburgh","searchUrl":"http:\/\/twitter.com\/search?q=%23VampsFoundAGirl","trendMapped":"vamps+found+a+girl","trendVolume":245578},{"stateName":"PA","trendName":"A-Day","placeID":"2471217","placeName":"Philadelphia","searchUrl":"http:\/\/twitter.com\/search?q=A-Day","trendMapped":"a-+day","trendVolume":705988},{"stateName":"PA","trendName":"Anthony Joshua","placeID":"2473224","placeName":"Pittsburgh","searchUrl":"http:\/\/twitter.com\/search?q=%22Anthony+Joshua%22","trendMapped":"Anthony+Joshua","trendVolume":71491},{"stateName":"PA","trendName":"Arsenal","placeID":"2473224","placeName":"Pittsburgh","searchUrl":"http:\/\/twitter.com\/search?q=Arsenal","trendMapped":"arsenal","trendVolume":384125},{"stateName":"PA","trendName":"Bruce Springsteen","placeID":"2473224","placeName":"Pittsburgh","searchUrl":"http:\/\/twitter.com\/search?q=%22Bruce+Springsteen%22","trendMapped":"Bruce+Springsteen","trendVolume":95997},{"stateName":"PA","trendName":"La Liga","placeID":"2473224","placeName":"Pittsburgh","searchUrl":"http:\/\/twitter.com\/search?q=%22La+Liga%22","trendMapped":"La+Liga","trendVolume":75826},{"stateName":"RI","trendName":"#IdolFinale","placeID":"2477058","placeName":"Providence","searchUrl":"http:\/\/twitter.com\/search?q=%23IdolFinale","trendMapped":"idol+finale","trendVolume":225701},{"stateName":"RI","trendName":"Anthony Joshua","placeID":"2477058","placeName":"Providence","searchUrl":"http:\/\/twitter.com\/search?q=%22Anthony+Joshua%22","trendMapped":"Anthony+Joshua","trendVolume":71491},{"stateName":"RI","trendName":"Arsenal","placeID":"2477058","placeName":"Providence","searchUrl":"http:\/\/twitter.com\/search?q=Arsenal","trendMapped":"arsenal","trendVolume":370775},{"stateName":"RI","trendName":"Real Sociedad","placeID":"2477058","placeName":"Providence","searchUrl":"http:\/\/twitter.com\/search?q=%22Real+Sociedad%22","trendMapped":"Real+Sociedad","trendVolume":71338},{"stateName":"TN","trendName":"#FridayFeeling","placeID":"2457170","placeName":"Nashville","searchUrl":"http:\/\/twitter.com\/search?q=%23FridayFeeling","trendMapped":"friday+feeling","trendVolume":120948},{"stateName":"TN","trendName":"#IdolFinale","placeID":"2457170","placeName":"Nashville","searchUrl":"http:\/\/twitter.com\/search?q=%23IdolFinale","trendMapped":"idol+finale","trendVolume":273957},{"stateName":"TN","trendName":"#ResistCapitalism","placeID":"2449323","placeName":"Memphis","searchUrl":"http:\/\/twitter.com\/search?q=%23ResistCapitalism","trendMapped":"resist+capitalism","trendVolume":55457},{"stateName":"TN","trendName":"#VampsFoundAGirl","placeID":"2449323","placeName":"Memphis","searchUrl":"http:\/\/twitter.com\/search?q=%23VampsFoundAGirl","trendMapped":"vamps+found+a+girl","trendVolume":245469},{"stateName":"TN","trendName":"Anthony Joshua","placeID":"2449323","placeName":"Memphis","searchUrl":"http:\/\/twitter.com\/search?q=%22Anthony+Joshua%22","trendMapped":"Anthony+Joshua","trendVolume":74349},{"stateName":"TN","trendName":"Arsenal","placeID":"2457170","placeName":"Nashville","searchUrl":"http:\/\/twitter.com\/search?q=Arsenal","trendMapped":"arsenal","trendVolume":379887},{"stateName":"TN","trendName":"Bruce Springsteen","placeID":"2449323","placeName":"Memphis","searchUrl":"http:\/\/twitter.com\/search?q=%22Bruce+Springsteen%22","trendMapped":"Bruce+Springsteen","trendVolume":75293},{"stateName":"TN","trendName":"Check","placeID":"2457170","placeName":"Nashville","searchUrl":"http:\/\/twitter.com\/search?q=Check","trendMapped":"check","trendVolume":740780},{"stateName":"TN","trendName":"Scene","placeID":"2457170","placeName":"Nashville","searchUrl":"http:\/\/twitter.com\/search?q=Scene","trendMapped":"scene","trendVolume":122602},{"stateName":"TN","trendName":"Tigers","placeID":"2449323","placeName":"Memphis","searchUrl":"http:\/\/twitter.com\/search?q=Tigers","trendMapped":"tigers","trendVolume":70655},{"stateName":"TN","trendName":"West Ham","placeID":"2449323","placeName":"Memphis","searchUrl":"http:\/\/twitter.com\/search?q=%22West+Ham%22","trendMapped":"West+Ham","trendVolume":90308},{"stateName":"TX","trendName":"#EndCyBernBullying","placeID":"2388929","placeName":"Dallas-Ft. Worth","searchUrl":"http:\/\/twitter.com\/search?q=%23EndCyBernBullying","trendMapped":"end+cy+bern+bullying","trendVolume":37459},{"stateName":"TX","trendName":"#FridayFeeling","placeID":"2424766","placeName":"Houston","searchUrl":"http:\/\/twitter.com\/search?q=%23FridayFeeling","trendMapped":"friday+feeling","trendVolume":123491},{"stateName":"TX","trendName":"#IdolFinale","placeID":"2424766","placeName":"Houston","searchUrl":"http:\/\/twitter.com\/search?q=%23IdolFinale","trendMapped":"idol+finale","trendVolume":273957},{"stateName":"TX","trendName":"#MilanJuve","placeID":"2487796","placeName":"San Antonio","searchUrl":"http:\/\/twitter.com\/search?q=%23MilanJuve","trendMapped":"milan+juve","trendVolume":68170},{"stateName":"TX","trendName":"#N1CanalFiesta15","placeID":"2487796","placeName":"San Antonio","searchUrl":"http:\/\/twitter.com\/search?q=%23N1CanalFiesta15","trendMapped":"n1+canal+fiesta15","trendVolume":88544},{"stateName":"TX","trendName":"#SleepyHollow","placeID":"2388929","placeName":"Dallas-Ft. Worth","searchUrl":"http:\/\/twitter.com\/search?q=%23SleepyHollow","trendMapped":"sleepy+hollow","trendVolume":34863},{"stateName":"TX","trendName":"#VampsFoundAGirl","placeID":"2397816","placeName":"El Paso","searchUrl":"http:\/\/twitter.com\/search?q=%23VampsFoundAGirl","trendMapped":"vamps+found+a+girl","trendVolume":245470},{"stateName":"TX","trendName":"A-Day","placeID":"2487796","placeName":"San Antonio","searchUrl":"http:\/\/twitter.com\/search?q=A-Day","trendMapped":"a-+day","trendVolume":711503},{"stateName":"TX","trendName":"Anthony Joshua","placeID":"2357536","placeName":"Austin","searchUrl":"http:\/\/twitter.com\/search?q=%22Anthony+Joshua%22","trendMapped":"Anthony+Joshua","trendVolume":73461},{"stateName":"TX","trendName":"Arsenal","placeID":"2487796","placeName":"San Antonio","searchUrl":"http:\/\/twitter.com\/search?q=Arsenal","trendMapped":"arsenal","trendVolume":387639},{"stateName":"TX","trendName":"Bernie Sanders","placeID":"2397816","placeName":"El Paso","searchUrl":"http:\/\/twitter.com\/search?q=%22Bernie+Sanders%22","trendMapped":"Bernie+Sanders","trendVolume":127282},{"stateName":"TX","trendName":"Bill Clinton","placeID":"2487796","placeName":"San Antonio","searchUrl":"http:\/\/twitter.com\/search?q=%22Bill+Clinton%22","trendMapped":"Bill+Clinton","trendVolume":97540},{"stateName":"TX","trendName":"Bruce Springsteen","placeID":"2424766","placeName":"Houston","searchUrl":"http:\/\/twitter.com\/search?q=%22Bruce+Springsteen%22","trendMapped":"Bruce+Springsteen","trendVolume":95733},{"stateName":"TX","trendName":"Dodgers","placeID":"2388929","placeName":"Dallas-Ft. Worth","searchUrl":"http:\/\/twitter.com\/search?q=Dodgers","trendMapped":"dodgers","trendVolume":44592},{"stateName":"TX","trendName":"Donald Trump","placeID":"2397816","placeName":"El Paso","searchUrl":"http:\/\/twitter.com\/search?q=%22Donald+Trump%22","trendMapped":"Donald+Trump","trendVolume":151495},{"stateName":"TX","trendName":"La Liga","placeID":"2487796","placeName":"San Antonio","searchUrl":"http:\/\/twitter.com\/search?q=%22La+Liga%22","trendMapped":"La+Liga","trendVolume":75826},{"stateName":"TX","trendName":"Real Sociedad","placeID":"2388929","placeName":"Dallas-Ft. Worth","searchUrl":"http:\/\/twitter.com\/search?q=%22Real+Sociedad%22","trendMapped":"Real+Sociedad","trendVolume":71338},{"stateName":"TX","trendName":"Star Wars","placeID":"2487796","placeName":"San Antonio","searchUrl":"http:\/\/twitter.com\/search?q=%22Star+Wars%22","trendMapped":"Star+Wars","trendVolume":143582},{"stateName":"TX","trendName":"West Ham","placeID":"2424766","placeName":"Houston","searchUrl":"http:\/\/twitter.com\/search?q=%22West+Ham%22","trendMapped":"West+Ham","trendVolume":83960},{"stateName":"UT","trendName":"#FridayFeeling","placeID":"2487610","placeName":"Salt Lake City","searchUrl":"http:\/\/twitter.com\/search?q=%23FridayFeeling","trendMapped":"friday+feeling","trendVolume":122960},{"stateName":"UT","trendName":"#IdolFinale","placeID":"2487610","placeName":"Salt Lake City","searchUrl":"http:\/\/twitter.com\/search?q=%23IdolFinale","trendMapped":"idol+finale","trendVolume":149245},{"stateName":"UT","trendName":"#VampsFoundAGirl","placeID":"2487610","placeName":"Salt Lake City","searchUrl":"http:\/\/twitter.com\/search?q=%23VampsFoundAGirl","trendMapped":"vamps+found+a+girl","trendVolume":245501},{"stateName":"UT","trendName":"Anthony Joshua","placeID":"2487610","placeName":"Salt Lake City","searchUrl":"http:\/\/twitter.com\/search?q=%22Anthony+Joshua%22","trendMapped":"Anthony+Joshua","trendVolume":73461},{"stateName":"UT","trendName":"Arsenal","placeID":"2487610","placeName":"Salt Lake City","searchUrl":"http:\/\/twitter.com\/search?q=Arsenal","trendMapped":"arsenal","trendVolume":378489},{"stateName":"UT","trendName":"Bruce Springsteen","placeID":"2487610","placeName":"Salt Lake City","searchUrl":"http:\/\/twitter.com\/search?q=%22Bruce+Springsteen%22","trendMapped":"Bruce+Springsteen","trendVolume":76392},{"stateName":"VA","trendName":"#VampsFoundAGirl","placeID":"2480894","placeName":"Richmond","searchUrl":"http:\/\/twitter.com\/search?q=%23VampsFoundAGirl","trendMapped":"vamps+found+a+girl","trendVolume":245469},{"stateName":"VA","trendName":"A-Day","placeID":"2512636","placeName":"Virginia Beach","searchUrl":"http:\/\/twitter.com\/search?q=A-Day","trendMapped":"a-+day","trendVolume":711503},{"stateName":"VA","trendName":"American Idol","placeID":"2480894","placeName":"Richmond","searchUrl":"http:\/\/twitter.com\/search?q=%22American+Idol%22","trendMapped":"American+Idol","trendVolume":133674},{"stateName":"VA","trendName":"Anthony Joshua","placeID":"2512636","placeName":"Virginia Beach","searchUrl":"http:\/\/twitter.com\/search?q=%22Anthony+Joshua%22","trendMapped":"Anthony+Joshua","trendVolume":75729},{"stateName":"VA","trendName":"Arsenal","placeID":"2512636","placeName":"Virginia Beach","searchUrl":"http:\/\/twitter.com\/search?q=Arsenal","trendMapped":"arsenal","trendVolume":379727},{"stateName":"VA","trendName":"Bill Clinton","placeID":"2460389","placeName":"Norfolk","searchUrl":"http:\/\/twitter.com\/search?q=%22Bill+Clinton%22","trendMapped":"Bill+Clinton","trendVolume":117621},{"stateName":"VA","trendName":"Black","placeID":"2480894","placeName":"Richmond","searchUrl":"http:\/\/twitter.com\/search?q=Black","trendMapped":"black","trendVolume":904335},{"stateName":"VA","trendName":"Bruce Springsteen","placeID":"2512636","placeName":"Virginia Beach","searchUrl":"http:\/\/twitter.com\/search?q=%22Bruce+Springsteen%22","trendMapped":"Bruce+Springsteen","trendVolume":74024},{"stateName":"VA","trendName":"Real Sociedad","placeID":"2512636","placeName":"Virginia Beach","searchUrl":"http:\/\/twitter.com\/search?q=%22Real+Sociedad%22","trendMapped":"Real+Sociedad","trendVolume":71338},{"stateName":"VA","trendName":"Vatican","placeID":"2460389","placeName":"Norfolk","searchUrl":"http:\/\/twitter.com\/search?q=Vatican","trendMapped":"vatican","trendVolume":111666},{"stateName":"WA","trendName":"#FridayFeeling","placeID":"2490383","placeName":"Seattle","searchUrl":"http:\/\/twitter.com\/search?q=%23FridayFeeling","trendMapped":"friday+feeling","trendVolume":123559},{"stateName":"WA","trendName":"#VampsFoundAGirl","placeID":"2490383","placeName":"Seattle","searchUrl":"http:\/\/twitter.com\/search?q=%23VampsFoundAGirl","trendMapped":"vamps+found+a+girl","trendVolume":245290},{"stateName":"WA","trendName":"Anthony Joshua","placeID":"2490383","placeName":"Seattle","searchUrl":"http:\/\/twitter.com\/search?q=%22Anthony+Joshua%22","trendMapped":"Anthony+Joshua","trendVolume":76340},{"stateName":"WA","trendName":"Arsenal","placeID":"2490383","placeName":"Seattle","searchUrl":"http:\/\/twitter.com\/search?q=Arsenal","trendMapped":"arsenal","trendVolume":384125},{"stateName":"WA","trendName":"Bruce Springsteen","placeID":"2490383","placeName":"Seattle","searchUrl":"http:\/\/twitter.com\/search?q=%22Bruce+Springsteen%22","trendMapped":"Bruce+Springsteen","trendVolume":98035},{"stateName":"WA","trendName":"Star Wars","placeID":"2490383","placeName":"Seattle","searchUrl":"http:\/\/twitter.com\/search?q=%22Star+Wars%22","trendMapped":"Star+Wars","trendVolume":110600},{"stateName":"WI","trendName":"#IdolFinale","placeID":"2451822","placeName":"Milwaukee","searchUrl":"http:\/\/twitter.com\/search?q=%23IdolFinale","trendMapped":"idol+finale","trendVolume":273957},{"stateName":"WI","trendName":"#MilanJuve","placeID":"2451822","placeName":"Milwaukee","searchUrl":"http:\/\/twitter.com\/search?q=%23MilanJuve","trendMapped":"milan+juve","trendVolume":66672},{"stateName":"WI","trendName":"#N1CanalFiesta15","placeID":"2451822","placeName":"Milwaukee","searchUrl":"http:\/\/twitter.com\/search?q=%23N1CanalFiesta15","trendMapped":"n1+canal+fiesta15","trendVolume":86952},{"stateName":"WI","trendName":"#VampsFoundAGirl","placeID":"2451822","placeName":"Milwaukee","searchUrl":"http:\/\/twitter.com\/search?q=%23VampsFoundAGirl","trendMapped":"vamps+found+a+girl","trendVolume":245578},{"stateName":"WI","trendName":"Arsenal","placeID":"2451822","placeName":"Milwaukee","searchUrl":"http:\/\/twitter.com\/search?q=Arsenal","trendMapped":"arsenal","trendVolume":353943},{"stateName":"WI","trendName":"Bruce Springsteen","placeID":"2451822","placeName":"Milwaukee","searchUrl":"http:\/\/twitter.com\/search?q=%22Bruce+Springsteen%22","trendMapped":"Bruce+Springsteen","trendVolume":93430},{"stateName":"WI","trendName":"La Liga","placeID":"2451822","placeName":"Milwaukee","searchUrl":"http:\/\/twitter.com\/search?q=%22La+Liga%22","trendMapped":"La+Liga","trendVolume":74115},{"stateName":"XX","trendName":"#EndCyBernBullying","placeID":"23424977","placeName":"United States","searchUrl":"http:\/\/twitter.com\/search?q=%23EndCyBernBullying","trendMapped":"end+cy+bern+bullying","trendVolume":37459},{"stateName":"XX","trendName":"#N1CanalFiesta15","placeID":"23424977","placeName":"United States","searchUrl":"http:\/\/twitter.com\/search?q=%23N1CanalFiesta15","trendMapped":"n1+canal+fiesta15","trendVolume":88544},{"stateName":"XX","trendName":"#SleepyHollow","placeID":"23424977","placeName":"United States","searchUrl":"http:\/\/twitter.com\/search?q=%23SleepyHollow","trendMapped":"sleepy+hollow","trendVolume":32963},{"stateName":"XX","trendName":"A-Day","placeID":"23424977","placeName":"United States","searchUrl":"http:\/\/twitter.com\/search?q=A-Day","trendMapped":"a-+day","trendVolume":711088},{"stateName":"XX","trendName":"Arsenal","placeID":"23424977","placeName":"United States","searchUrl":"http:\/\/twitter.com\/search?q=Arsenal","trendMapped":"arsenal","trendVolume":384125},{"stateName":"XX","trendName":"Bruce Springsteen","placeID":"23424977","placeName":"United States","searchUrl":"http:\/\/twitter.com\/search?q=%22Bruce+Springsteen%22","trendMapped":"Bruce+Springsteen","trendVolume":95997}]