[{"stateName":"AL","trendName":"#AprilFools","placeID":"2364559","placeName":"Birmingham","searchUrl":"http:\/\/twitter.com\/search?q=%23AprilFools","trendMapped":"april+fools","trendVolume":696010},{"stateName":"AL","trendName":"5SOSFAM NEVER QUIT","placeID":"2364559","placeName":"Birmingham","searchUrl":"http:\/\/twitter.com\/search?q=%225SOSFAM+NEVER+QUIT%22","trendMapped":"5SOSFAM+NEVER+QUIT","trendVolume":4273233},{"stateName":"AL","trendName":"April Fools","placeID":"2364559","placeName":"Birmingham","searchUrl":"http:\/\/twitter.com\/search?q=%22April+Fools%22","trendMapped":"April+Fools","trendVolume":2465100},{"stateName":"AL","trendName":"GO DIRECTIONERS GO","placeID":"2364559","placeName":"Birmingham","searchUrl":"http:\/\/twitter.com\/search?q=%22GO+DIRECTIONERS+GO%22","trendMapped":"GO+DIRECTIONERS+GO","trendVolume":1391745},{"stateName":"AZ","trendName":"#AprilFools","placeID":"2471390","placeName":"Phoenix","searchUrl":"http:\/\/twitter.com\/search?q=%23AprilFools","trendMapped":"april+fools","trendVolume":727293},{"stateName":"AZ","trendName":"#NXTTakeOver","placeID":"2508428","placeName":"Tucson","searchUrl":"http:\/\/twitter.com\/search?q=%23NXTTakeOver","trendMapped":"nxt+take+over","trendVolume":212016},{"stateName":"AZ","trendName":"#NashsNewVideo","placeID":"2508428","placeName":"Tucson","searchUrl":"http:\/\/twitter.com\/search?q=%23NashsNewVideo","trendMapped":"nashs+new+video","trendVolume":145892},{"stateName":"AZ","trendName":"5SOSFAM NEVER QUIT","placeID":"2508428","placeName":"Tucson","searchUrl":"http:\/\/twitter.com\/search?q=%225SOSFAM+NEVER+QUIT%22","trendMapped":"5SOSFAM+NEVER+QUIT","trendVolume":4273233},{"stateName":"AZ","trendName":"GO DIRECTIONERS GO","placeID":"2508428","placeName":"Tucson","searchUrl":"http:\/\/twitter.com\/search?q=%22GO+DIRECTIONERS+GO%22","trendMapped":"GO+DIRECTIONERS+GO","trendVolume":1579368},{"stateName":"AZ","trendName":"Hamburger Helper","placeID":"2508428","placeName":"Tucson","searchUrl":"http:\/\/twitter.com\/search?q=%22Hamburger+Helper%22","trendMapped":"Hamburger+Helper","trendVolume":41013},{"stateName":"AZ","trendName":"UNITE 5SOSFAM","placeID":"2508428","placeName":"Tucson","searchUrl":"http:\/\/twitter.com\/search?q=%22UNITE+5SOSFAM%22","trendMapped":"UNITE+5SOSFAM","trendVolume":1757924},{"stateName":"AZ","trendName":"Warriors","placeID":"2508428","placeName":"Tucson","searchUrl":"http:\/\/twitter.com\/search?q=Warriors","trendMapped":"warriors","trendVolume":230722},{"stateName":"CA","trendName":"#AprilFools","placeID":"2487956","placeName":"San Francisco","searchUrl":"http:\/\/twitter.com\/search?q=%23AprilFools","trendMapped":"april+fools","trendVolume":745311},{"stateName":"CA","trendName":"#BestFanArmy","placeID":"2486340","placeName":"Sacramento","searchUrl":"http:\/\/twitter.com\/search?q=%23BestFanArmy","trendMapped":"best+fan+army","trendVolume":20336081},{"stateName":"CA","trendName":"#FridayFeeling","placeID":"2442047","placeName":"Los Angeles","searchUrl":"http:\/\/twitter.com\/search?q=%23FridayFeeling","trendMapped":"friday+feeling","trendVolume":81352},{"stateName":"CA","trendName":"#NXTTakeOver","placeID":"2488042","placeName":"San Jose","searchUrl":"http:\/\/twitter.com\/search?q=%23NXTTakeOver","trendMapped":"nxt+take+over","trendVolume":202359},{"stateName":"CA","trendName":"#NashsNewVideo","placeID":"2488042","placeName":"San Jose","searchUrl":"http:\/\/twitter.com\/search?q=%23NashsNewVideo","trendMapped":"nashs+new+video","trendVolume":150660},{"stateName":"CA","trendName":"5SOSFAM NEVER QUIT","placeID":"2488042","placeName":"San Jose","searchUrl":"http:\/\/twitter.com\/search?q=%225SOSFAM+NEVER+QUIT%22","trendMapped":"5SOSFAM+NEVER+QUIT","trendVolume":4301769},{"stateName":"CA","trendName":"Birthday","placeID":"2486340","placeName":"Sacramento","searchUrl":"http:\/\/twitter.com\/search?q=Birthday","trendMapped":"birthday","trendVolume":941983},{"stateName":"CA","trendName":"GO DIRECTIONERS GO","placeID":"2488042","placeName":"San Jose","searchUrl":"http:\/\/twitter.com\/search?q=%22GO+DIRECTIONERS+GO%22","trendMapped":"GO+DIRECTIONERS+GO","trendVolume":1489547},{"stateName":"CA","trendName":"Hamburger Helper","placeID":"2442047","placeName":"Los Angeles","searchUrl":"http:\/\/twitter.com\/search?q=%22Hamburger+Helper%22","trendMapped":"Hamburger+Helper","trendVolume":41013},{"stateName":"CA","trendName":"UNITE 5SOSFAM","placeID":"2488042","placeName":"San Jose","searchUrl":"http:\/\/twitter.com\/search?q=%22UNITE+5SOSFAM%22","trendMapped":"UNITE+5SOSFAM","trendVolume":1822846},{"stateName":"CA","trendName":"VOTE HARD FOR 5H","placeID":"2441472","placeName":"Long Beach","searchUrl":"http:\/\/twitter.com\/search?q=%22VOTE+HARD+FOR+5H%22","trendMapped":"VOTE+HARD+FOR+5H","trendVolume":1327377},{"stateName":"CA","trendName":"Warriors","placeID":"2488042","placeName":"San Jose","searchUrl":"http:\/\/twitter.com\/search?q=Warriors","trendMapped":"warriors","trendVolume":239282},{"stateName":"CO","trendName":"#AprilFools","placeID":"2391279","placeName":"Denver","searchUrl":"http:\/\/twitter.com\/search?q=%23AprilFools","trendMapped":"april+fools","trendVolume":745311},{"stateName":"CO","trendName":"#NXTTakeOver","placeID":"2383489","placeName":"Colorado Springs","searchUrl":"http:\/\/twitter.com\/search?q=%23NXTTakeOver","trendMapped":"nxt+take+over","trendVolume":191530},{"stateName":"CO","trendName":"#NashsNewVideo","placeID":"2383489","placeName":"Colorado Springs","searchUrl":"http:\/\/twitter.com\/search?q=%23NashsNewVideo","trendMapped":"nashs+new+video","trendVolume":142435},{"stateName":"CO","trendName":"5SOSFAM NEVER QUIT","placeID":"2391279","placeName":"Denver","searchUrl":"http:\/\/twitter.com\/search?q=%225SOSFAM+NEVER+QUIT%22","trendMapped":"5SOSFAM+NEVER+QUIT","trendVolume":4189112},{"stateName":"CO","trendName":"GO DIRECTIONERS GO","placeID":"2383489","placeName":"Colorado Springs","searchUrl":"http:\/\/twitter.com\/search?q=%22GO+DIRECTIONERS+GO%22","trendMapped":"GO+DIRECTIONERS+GO","trendVolume":1371383},{"stateName":"CO","trendName":"Hamburger Helper","placeID":"2383489","placeName":"Colorado Springs","searchUrl":"http:\/\/twitter.com\/search?q=%22Hamburger+Helper%22","trendMapped":"Hamburger+Helper","trendVolume":40390},{"stateName":"CO","trendName":"VOTE HARD FOR 5H","placeID":"2383489","placeName":"Colorado Springs","searchUrl":"http:\/\/twitter.com\/search?q=%22VOTE+HARD+FOR+5H%22","trendMapped":"VOTE+HARD+FOR+5H","trendVolume":1327377},{"stateName":"CO","trendName":"Warriors","placeID":"2383489","placeName":"Colorado Springs","searchUrl":"http:\/\/twitter.com\/search?q=Warriors","trendMapped":"warriors","trendVolume":236916},{"stateName":"CT","trendName":"#AprilFools","placeID":"2458410","placeName":"New Haven","searchUrl":"http:\/\/twitter.com\/search?q=%23AprilFools","trendMapped":"april+fools","trendVolume":733137},{"stateName":"CT","trendName":"#NXTTakeOver","placeID":"2458410","placeName":"New Haven","searchUrl":"http:\/\/twitter.com\/search?q=%23NXTTakeOver","trendMapped":"nxt+take+over","trendVolume":198559},{"stateName":"CT","trendName":"5SOSFAM NEVER QUIT","placeID":"2458410","placeName":"New Haven","searchUrl":"http:\/\/twitter.com\/search?q=%225SOSFAM+NEVER+QUIT%22","trendMapped":"5SOSFAM+NEVER+QUIT","trendVolume":4091588},{"stateName":"CT","trendName":"GO DIRECTIONERS GO","placeID":"2458410","placeName":"New Haven","searchUrl":"http:\/\/twitter.com\/search?q=%22GO+DIRECTIONERS+GO%22","trendMapped":"GO+DIRECTIONERS+GO","trendVolume":1160273},{"stateName":"DC","trendName":"#NashsNewVideo","placeID":"2514815","placeName":"Washington","searchUrl":"http:\/\/twitter.com\/search?q=%23NashsNewVideo","trendMapped":"nashs+new+video","trendVolume":145892},{"stateName":"DC","trendName":"5SOSFAM NEVER QUIT","placeID":"2514815","placeName":"Washington","searchUrl":"http:\/\/twitter.com\/search?q=%225SOSFAM+NEVER+QUIT%22","trendMapped":"5SOSFAM+NEVER+QUIT","trendVolume":4301769},{"stateName":"DC","trendName":"GO DIRECTIONERS GO","placeID":"2514815","placeName":"Washington","searchUrl":"http:\/\/twitter.com\/search?q=%22GO+DIRECTIONERS+GO%22","trendMapped":"GO+DIRECTIONERS+GO","trendVolume":1489547},{"stateName":"DC","trendName":"Hamburger Helper","placeID":"2514815","placeName":"Washington","searchUrl":"http:\/\/twitter.com\/search?q=%22Hamburger+Helper%22","trendMapped":"Hamburger+Helper","trendVolume":40062},{"stateName":"DC","trendName":"Warriors","placeID":"2514815","placeName":"Washington","searchUrl":"http:\/\/twitter.com\/search?q=Warriors","trendMapped":"warriors","trendVolume":221218},{"stateName":"FL","trendName":"#AprilFools","placeID":"2503863","placeName":"Tampa","searchUrl":"http:\/\/twitter.com\/search?q=%23AprilFools","trendMapped":"april+fools","trendVolume":749355},{"stateName":"FL","trendName":"#Harmonizers","placeID":"2503863","placeName":"Tampa","searchUrl":"http:\/\/twitter.com\/search?q=%23Harmonizers","trendMapped":"harmonizers","trendVolume":7222713},{"stateName":"FL","trendName":"#NXTTakeOver","placeID":"2450022","placeName":"Miami","searchUrl":"http:\/\/twitter.com\/search?q=%23NXTTakeOver","trendMapped":"nxt+take+over","trendVolume":201531},{"stateName":"FL","trendName":"#NashsNewVideo","placeID":"2450022","placeName":"Miami","searchUrl":"http:\/\/twitter.com\/search?q=%23NashsNewVideo","trendMapped":"nashs+new+video","trendVolume":70547},{"stateName":"FL","trendName":"5SOSFAM NEVER QUIT","placeID":"2503863","placeName":"Tampa","searchUrl":"http:\/\/twitter.com\/search?q=%225SOSFAM+NEVER+QUIT%22","trendMapped":"5SOSFAM+NEVER+QUIT","trendVolume":4282660},{"stateName":"FL","trendName":"April Fools","placeID":"2503713","placeName":"Tallahassee","searchUrl":"http:\/\/twitter.com\/search?q=%22April+Fools%22","trendMapped":"April+Fools","trendVolume":2470232},{"stateName":"FL","trendName":"GO DIRECTIONERS GO","placeID":"2503713","placeName":"Tallahassee","searchUrl":"http:\/\/twitter.com\/search?q=%22GO+DIRECTIONERS+GO%22","trendMapped":"GO+DIRECTIONERS+GO","trendVolume":1579368},{"stateName":"FL","trendName":"UNITE 5SOSFAM","placeID":"2466256","placeName":"Orlando","searchUrl":"http:\/\/twitter.com\/search?q=%22UNITE+5SOSFAM%22","trendMapped":"UNITE+5SOSFAM","trendVolume":1660254},{"stateName":"GA","trendName":"#NashsNewVideo","placeID":"2357024","placeName":"Atlanta","searchUrl":"http:\/\/twitter.com\/search?q=%23NashsNewVideo","trendMapped":"nashs+new+video","trendVolume":142435},{"stateName":"GA","trendName":"5SOSFAM NEVER QUIT","placeID":"2357024","placeName":"Atlanta","searchUrl":"http:\/\/twitter.com\/search?q=%225SOSFAM+NEVER+QUIT%22","trendMapped":"5SOSFAM+NEVER+QUIT","trendVolume":4249455},{"stateName":"GA","trendName":"GO DIRECTIONERS GO","placeID":"2357024","placeName":"Atlanta","searchUrl":"http:\/\/twitter.com\/search?q=%22GO+DIRECTIONERS+GO%22","trendMapped":"GO+DIRECTIONERS+GO","trendVolume":1579368},{"stateName":"GA","trendName":"Warriors","placeID":"2357024","placeName":"Atlanta","searchUrl":"http:\/\/twitter.com\/search?q=Warriors","trendMapped":"warriors","trendVolume":239596},{"stateName":"HI","trendName":"#AprilFools","placeID":"2423945","placeName":"Honolulu","searchUrl":"http:\/\/twitter.com\/search?q=%23AprilFools","trendMapped":"april+fools","trendVolume":702081},{"stateName":"HI","trendName":"5SOSFAM NEVER QUIT","placeID":"2423945","placeName":"Honolulu","searchUrl":"http:\/\/twitter.com\/search?q=%225SOSFAM+NEVER+QUIT%22","trendMapped":"5SOSFAM+NEVER+QUIT","trendVolume":2734808},{"stateName":"IL","trendName":"#AprilFools","placeID":"2379574","placeName":"Chicago","searchUrl":"http:\/\/twitter.com\/search?q=%23AprilFools","trendMapped":"april+fools","trendVolume":743943},{"stateName":"IL","trendName":"#NashsNewVideo","placeID":"2379574","placeName":"Chicago","searchUrl":"http:\/\/twitter.com\/search?q=%23NashsNewVideo","trendMapped":"nashs+new+video","trendVolume":132213},{"stateName":"IL","trendName":"5SOSFAM NEVER QUIT","placeID":"2379574","placeName":"Chicago","searchUrl":"http:\/\/twitter.com\/search?q=%225SOSFAM+NEVER+QUIT%22","trendMapped":"5SOSFAM+NEVER+QUIT","trendVolume":4148512},{"stateName":"IL","trendName":"GO DIRECTIONERS GO","placeID":"2379574","placeName":"Chicago","searchUrl":"http:\/\/twitter.com\/search?q=%22GO+DIRECTIONERS+GO%22","trendMapped":"GO+DIRECTIONERS+GO","trendVolume":1431004},{"stateName":"IL","trendName":"Warriors","placeID":"2379574","placeName":"Chicago","searchUrl":"http:\/\/twitter.com\/search?q=Warriors","trendMapped":"warriors","trendVolume":242913},{"stateName":"IN","trendName":"#AprilFools","placeID":"2427032","placeName":"Indianapolis","searchUrl":"http:\/\/twitter.com\/search?q=%23AprilFools","trendMapped":"april+fools","trendVolume":702081},{"stateName":"IN","trendName":"5SOSFAM NEVER QUIT","placeID":"2427032","placeName":"Indianapolis","searchUrl":"http:\/\/twitter.com\/search?q=%225SOSFAM+NEVER+QUIT%22","trendMapped":"5SOSFAM+NEVER+QUIT","trendVolume":3959965},{"stateName":"IN","trendName":"GO DIRECTIONERS GO","placeID":"2427032","placeName":"Indianapolis","searchUrl":"http:\/\/twitter.com\/search?q=%22GO+DIRECTIONERS+GO%22","trendMapped":"GO+DIRECTIONERS+GO","trendVolume":1431004},{"stateName":"KY","trendName":"#AprilFools","placeID":"2442327","placeName":"Louisville","searchUrl":"http:\/\/twitter.com\/search?q=%23AprilFools","trendMapped":"april+fools","trendVolume":742370},{"stateName":"KY","trendName":"5SOSFAM NEVER QUIT","placeID":"2442327","placeName":"Louisville","searchUrl":"http:\/\/twitter.com\/search?q=%225SOSFAM+NEVER+QUIT%22","trendMapped":"5SOSFAM+NEVER+QUIT","trendVolume":4189112},{"stateName":"KY","trendName":"GO DIRECTIONERS GO","placeID":"2442327","placeName":"Louisville","searchUrl":"http:\/\/twitter.com\/search?q=%22GO+DIRECTIONERS+GO%22","trendMapped":"GO+DIRECTIONERS+GO","trendVolume":1330557},{"stateName":"LA","trendName":"#AprilFools","placeID":"2359991","placeName":"Baton Rouge","searchUrl":"http:\/\/twitter.com\/search?q=%23AprilFools","trendMapped":"april+fools","trendVolume":748100},{"stateName":"LA","trendName":"5SOSFAM NEVER QUIT","placeID":"2458833","placeName":"New Orleans","searchUrl":"http:\/\/twitter.com\/search?q=%225SOSFAM+NEVER+QUIT%22","trendMapped":"5SOSFAM+NEVER+QUIT","trendVolume":4249455},{"stateName":"LA","trendName":"April Fools","placeID":"2458833","placeName":"New Orleans","searchUrl":"http:\/\/twitter.com\/search?q=%22April+Fools%22","trendMapped":"April+Fools","trendVolume":2433119},{"stateName":"LA","trendName":"GO DIRECTIONERS GO","placeID":"2458833","placeName":"New Orleans","searchUrl":"http:\/\/twitter.com\/search?q=%22GO+DIRECTIONERS+GO%22","trendMapped":"GO+DIRECTIONERS+GO","trendVolume":1213357},{"stateName":"LA","trendName":"UNITE 5SOSFAM","placeID":"2458833","placeName":"New Orleans","searchUrl":"http:\/\/twitter.com\/search?q=%22UNITE+5SOSFAM%22","trendMapped":"UNITE+5SOSFAM","trendVolume":1660254},{"stateName":"MA","trendName":"#AprilFools","placeID":"2367105","placeName":"Boston","searchUrl":"http:\/\/twitter.com\/search?q=%23AprilFools","trendMapped":"april+fools","trendVolume":662588},{"stateName":"MA","trendName":"#NXTTakeOver","placeID":"2367105","placeName":"Boston","searchUrl":"http:\/\/twitter.com\/search?q=%23NXTTakeOver","trendMapped":"nxt+take+over","trendVolume":204280},{"stateName":"MA","trendName":"#NashsNewVideo","placeID":"2367105","placeName":"Boston","searchUrl":"http:\/\/twitter.com\/search?q=%23NashsNewVideo","trendMapped":"nashs+new+video","trendVolume":143795},{"stateName":"MA","trendName":"GO DIRECTIONERS GO","placeID":"2367105","placeName":"Boston","searchUrl":"http:\/\/twitter.com\/search?q=%22GO+DIRECTIONERS+GO%22","trendMapped":"GO+DIRECTIONERS+GO","trendVolume":1160273},{"stateName":"MA","trendName":"HARMONIZERS UNITE","placeID":"2367105","placeName":"Boston","searchUrl":"http:\/\/twitter.com\/search?q=%22HARMONIZERS+UNITE%22","trendMapped":"HARMONIZERS+UNITE","trendVolume":1235236},{"stateName":"MA","trendName":"HARMOS BETTER TOGETHER","placeID":"2367105","placeName":"Boston","searchUrl":"http:\/\/twitter.com\/search?q=%22HARMOS+BETTER+TOGETHER%22","trendMapped":"HARMOS+BETTER+TOGETHER","trendVolume":930292},{"stateName":"MD","trendName":"#AprilFools","placeID":"2358820","placeName":"Baltimore","searchUrl":"http:\/\/twitter.com\/search?q=%23AprilFools","trendMapped":"april+fools","trendVolume":741298},{"stateName":"MD","trendName":"5SOSFAM NEVER QUIT","placeID":"2358820","placeName":"Baltimore","searchUrl":"http:\/\/twitter.com\/search?q=%225SOSFAM+NEVER+QUIT%22","trendMapped":"5SOSFAM+NEVER+QUIT","trendVolume":4249455},{"stateName":"MD","trendName":"April Fools","placeID":"2358820","placeName":"Baltimore","searchUrl":"http:\/\/twitter.com\/search?q=%22April+Fools%22","trendMapped":"April+Fools","trendVolume":2277748},{"stateName":"MD","trendName":"GO DIRECTIONERS GO","placeID":"2358820","placeName":"Baltimore","searchUrl":"http:\/\/twitter.com\/search?q=%22GO+DIRECTIONERS+GO%22","trendMapped":"GO+DIRECTIONERS+GO","trendVolume":1431004},{"stateName":"MI","trendName":"#AprilFools","placeID":"2391585","placeName":"Detroit","searchUrl":"http:\/\/twitter.com\/search?q=%23AprilFools","trendMapped":"april+fools","trendVolume":708635},{"stateName":"MI","trendName":"5SOSFAM NEVER QUIT","placeID":"2391585","placeName":"Detroit","searchUrl":"http:\/\/twitter.com\/search?q=%225SOSFAM+NEVER+QUIT%22","trendMapped":"5SOSFAM+NEVER+QUIT","trendVolume":3915422},{"stateName":"MI","trendName":"Blue","placeID":"2391585","placeName":"Detroit","searchUrl":"http:\/\/twitter.com\/search?q=Blue","trendMapped":"blue","trendVolume":414612},{"stateName":"MI","trendName":"GO DIRECTIONERS GO","placeID":"2391585","placeName":"Detroit","searchUrl":"http:\/\/twitter.com\/search?q=%22GO+DIRECTIONERS+GO%22","trendMapped":"GO+DIRECTIONERS+GO","trendVolume":1351643},{"stateName":"MN","trendName":"#AprilFools","placeID":"2452078","placeName":"Minneapolis","searchUrl":"http:\/\/twitter.com\/search?q=%23AprilFools","trendMapped":"april+fools","trendVolume":749355},{"stateName":"MN","trendName":"5SOSFAM NEVER QUIT","placeID":"2452078","placeName":"Minneapolis","searchUrl":"http:\/\/twitter.com\/search?q=%225SOSFAM+NEVER+QUIT%22","trendMapped":"5SOSFAM+NEVER+QUIT","trendVolume":4223978},{"stateName":"MN","trendName":"GO DIRECTIONERS GO","placeID":"2452078","placeName":"Minneapolis","searchUrl":"http:\/\/twitter.com\/search?q=%22GO+DIRECTIONERS+GO%22","trendMapped":"GO+DIRECTIONERS+GO","trendVolume":1269371},{"stateName":"MN","trendName":"UNITE 5SOSFAM","placeID":"2452078","placeName":"Minneapolis","searchUrl":"http:\/\/twitter.com\/search?q=%22UNITE+5SOSFAM%22","trendMapped":"UNITE+5SOSFAM","trendVolume":1822846},{"stateName":"MO","trendName":"#AprilFools","placeID":"2486982","placeName":"St. Louis","searchUrl":"http:\/\/twitter.com\/search?q=%23AprilFools","trendMapped":"april+fools","trendVolume":749355},{"stateName":"MO","trendName":"#BestFanArmy","placeID":"2486982","placeName":"St. Louis","searchUrl":"http:\/\/twitter.com\/search?q=%23BestFanArmy","trendMapped":"best+fan+army","trendVolume":19706090},{"stateName":"MO","trendName":"5SOSFAM NEVER QUIT","placeID":"2486982","placeName":"St. Louis","searchUrl":"http:\/\/twitter.com\/search?q=%225SOSFAM+NEVER+QUIT%22","trendMapped":"5SOSFAM+NEVER+QUIT","trendVolume":4273233},{"stateName":"MO","trendName":"GO DIRECTIONERS GO","placeID":"2486982","placeName":"St. Louis","searchUrl":"http:\/\/twitter.com\/search?q=%22GO+DIRECTIONERS+GO%22","trendMapped":"GO+DIRECTIONERS+GO","trendVolume":1579368},{"stateName":"MS","trendName":"5SOSFAM NEVER QUIT","placeID":"2428184","placeName":"Jackson","searchUrl":"http:\/\/twitter.com\/search?q=%225SOSFAM+NEVER+QUIT%22","trendMapped":"5SOSFAM+NEVER+QUIT","trendVolume":4212838},{"stateName":"MS","trendName":"April Fools","placeID":"2428184","placeName":"Jackson","searchUrl":"http:\/\/twitter.com\/search?q=%22April+Fools%22","trendMapped":"April+Fools","trendVolume":2421212},{"stateName":"MS","trendName":"GO DIRECTIONERS GO","placeID":"2428184","placeName":"Jackson","searchUrl":"http:\/\/twitter.com\/search?q=%22GO+DIRECTIONERS+GO%22","trendMapped":"GO+DIRECTIONERS+GO","trendVolume":1330557},{"stateName":"MS","trendName":"UNITE 5SOSFAM","placeID":"2428184","placeName":"Jackson","searchUrl":"http:\/\/twitter.com\/search?q=%22UNITE+5SOSFAM%22","trendMapped":"UNITE+5SOSFAM","trendVolume":1660254},{"stateName":"NC","trendName":"#AprilFools","placeID":"2414469","placeName":"Greensboro","searchUrl":"http:\/\/twitter.com\/search?q=%23AprilFools","trendMapped":"april+fools","trendVolume":748100},{"stateName":"NC","trendName":"#BestFanArmy","placeID":"2478307","placeName":"Raleigh","searchUrl":"http:\/\/twitter.com\/search?q=%23BestFanArmy","trendMapped":"best+fan+army","trendVolume":17479533},{"stateName":"NC","trendName":"5SOSFAM NEVER QUIT","placeID":"2478307","placeName":"Raleigh","searchUrl":"http:\/\/twitter.com\/search?q=%225SOSFAM+NEVER+QUIT%22","trendMapped":"5SOSFAM+NEVER+QUIT","trendVolume":4176982},{"stateName":"NC","trendName":"April Fools","placeID":"2478307","placeName":"Raleigh","searchUrl":"http:\/\/twitter.com\/search?q=%22April+Fools%22","trendMapped":"April+Fools","trendVolume":2161742},{"stateName":"NC","trendName":"GO DIRECTIONERS GO","placeID":"2478307","placeName":"Raleigh","searchUrl":"http:\/\/twitter.com\/search?q=%22GO+DIRECTIONERS+GO%22","trendMapped":"GO+DIRECTIONERS+GO","trendVolume":1391745},{"stateName":"NC","trendName":"UNITE 5SOSFAM","placeID":"2414469","placeName":"Greensboro","searchUrl":"http:\/\/twitter.com\/search?q=%22UNITE+5SOSFAM%22","trendMapped":"UNITE+5SOSFAM","trendVolume":1798157},{"stateName":"NE","trendName":"#AprilFools","placeID":"2465512","placeName":"Omaha","searchUrl":"http:\/\/twitter.com\/search?q=%23AprilFools","trendMapped":"april+fools","trendVolume":728489},{"stateName":"NE","trendName":"5SOSFAM NEVER QUIT","placeID":"2465512","placeName":"Omaha","searchUrl":"http:\/\/twitter.com\/search?q=%225SOSFAM+NEVER+QUIT%22","trendMapped":"5SOSFAM+NEVER+QUIT","trendVolume":4282660},{"stateName":"NE","trendName":"GO DIRECTIONERS GO","placeID":"2465512","placeName":"Omaha","searchUrl":"http:\/\/twitter.com\/search?q=%22GO+DIRECTIONERS+GO%22","trendMapped":"GO+DIRECTIONERS+GO","trendVolume":1579368},{"stateName":"NM","trendName":"#NXTTakeOver","placeID":"2352824","placeName":"Albuquerque","searchUrl":"http:\/\/twitter.com\/search?q=%23NXTTakeOver","trendMapped":"nxt+take+over","trendVolume":191530},{"stateName":"NM","trendName":"#NashsNewVideo","placeID":"2352824","placeName":"Albuquerque","searchUrl":"http:\/\/twitter.com\/search?q=%23NashsNewVideo","trendMapped":"nashs+new+video","trendVolume":103067},{"stateName":"NM","trendName":"5SOSFAM NEVER QUIT","placeID":"2352824","placeName":"Albuquerque","searchUrl":"http:\/\/twitter.com\/search?q=%225SOSFAM+NEVER+QUIT%22","trendMapped":"5SOSFAM+NEVER+QUIT","trendVolume":4301769},{"stateName":"NM","trendName":"GO DIRECTIONERS GO","placeID":"2352824","placeName":"Albuquerque","searchUrl":"http:\/\/twitter.com\/search?q=%22GO+DIRECTIONERS+GO%22","trendMapped":"GO+DIRECTIONERS+GO","trendVolume":1160273},{"stateName":"NM","trendName":"Warriors","placeID":"2352824","placeName":"Albuquerque","searchUrl":"http:\/\/twitter.com\/search?q=Warriors","trendMapped":"warriors","trendVolume":236916},{"stateName":"NV","trendName":"#AprilFools","placeID":"2436704","placeName":"Las Vegas","searchUrl":"http:\/\/twitter.com\/search?q=%23AprilFools","trendMapped":"april+fools","trendVolume":742370},{"stateName":"NV","trendName":"#BestFanArmy","placeID":"2436704","placeName":"Las Vegas","searchUrl":"http:\/\/twitter.com\/search?q=%23BestFanArmy","trendMapped":"best+fan+army","trendVolume":20555733},{"stateName":"NV","trendName":"#NXTTakeOver","placeID":"2436704","placeName":"Las Vegas","searchUrl":"http:\/\/twitter.com\/search?q=%23NXTTakeOver","trendMapped":"nxt+take+over","trendVolume":210961},{"stateName":"NV","trendName":"5SOSFAM NEVER QUIT","placeID":"2436704","placeName":"Las Vegas","searchUrl":"http:\/\/twitter.com\/search?q=%225SOSFAM+NEVER+QUIT%22","trendMapped":"5SOSFAM+NEVER+QUIT","trendVolume":2680552},{"stateName":"NY","trendName":"#AprilFools","placeID":"2459115","placeName":"New York","searchUrl":"http:\/\/twitter.com\/search?q=%23AprilFools","trendMapped":"april+fools","trendVolume":662588},{"stateName":"NY","trendName":"5SOSFAM NEVER QUIT","placeID":"2459115","placeName":"New York","searchUrl":"http:\/\/twitter.com\/search?q=%225SOSFAM+NEVER+QUIT%22","trendMapped":"5SOSFAM+NEVER+QUIT","trendVolume":4301769},{"stateName":"NY","trendName":"GO DIRECTIONERS GO","placeID":"2459115","placeName":"New York","searchUrl":"http:\/\/twitter.com\/search?q=%22GO+DIRECTIONERS+GO%22","trendMapped":"GO+DIRECTIONERS+GO","trendVolume":1269371},{"stateName":"NY","trendName":"Hamburger Helper","placeID":"2459115","placeName":"New York","searchUrl":"http:\/\/twitter.com\/search?q=%22Hamburger+Helper%22","trendMapped":"Hamburger+Helper","trendVolume":40062},{"stateName":"NY","trendName":"Warriors","placeID":"2459115","placeName":"New York","searchUrl":"http:\/\/twitter.com\/search?q=Warriors","trendMapped":"warriors","trendVolume":239282},{"stateName":"OH","trendName":"#AprilFools","placeID":"2383660","placeName":"Columbus","searchUrl":"http:\/\/twitter.com\/search?q=%23AprilFools","trendMapped":"april+fools","trendVolume":735919},{"stateName":"OH","trendName":"#NashsNewVideo","placeID":"2381475","placeName":"Cleveland","searchUrl":"http:\/\/twitter.com\/search?q=%23NashsNewVideo","trendMapped":"nashs+new+video","trendVolume":137971},{"stateName":"OH","trendName":"5SOSFAM NEVER QUIT","placeID":"2383660","placeName":"Columbus","searchUrl":"http:\/\/twitter.com\/search?q=%225SOSFAM+NEVER+QUIT%22","trendMapped":"5SOSFAM+NEVER+QUIT","trendVolume":4249455},{"stateName":"OH","trendName":"April Fools","placeID":"2380358","placeName":"Cincinnati","searchUrl":"http:\/\/twitter.com\/search?q=%22April+Fools%22","trendMapped":"April+Fools","trendVolume":2421212},{"stateName":"OH","trendName":"GO DIRECTIONERS GO","placeID":"2383660","placeName":"Columbus","searchUrl":"http:\/\/twitter.com\/search?q=%22GO+DIRECTIONERS+GO%22","trendMapped":"GO+DIRECTIONERS+GO","trendVolume":1213357},{"stateName":"OH","trendName":"UNITE 5SOSFAM","placeID":"2383660","placeName":"Columbus","searchUrl":"http:\/\/twitter.com\/search?q=%22UNITE+5SOSFAM%22","trendMapped":"UNITE+5SOSFAM","trendVolume":1822846},{"stateName":"OH","trendName":"Warriors","placeID":"2381475","placeName":"Cleveland","searchUrl":"http:\/\/twitter.com\/search?q=Warriors","trendMapped":"warriors","trendVolume":237772},{"stateName":"OK","trendName":"#AprilFools","placeID":"2464592","placeName":"Oklahoma City","searchUrl":"http:\/\/twitter.com\/search?q=%23AprilFools","trendMapped":"april+fools","trendVolume":745311},{"stateName":"OK","trendName":"5SOSFAM NEVER QUIT","placeID":"2464592","placeName":"Oklahoma City","searchUrl":"http:\/\/twitter.com\/search?q=%225SOSFAM+NEVER+QUIT%22","trendMapped":"5SOSFAM+NEVER+QUIT","trendVolume":2836450},{"stateName":"OK","trendName":"GO DIRECTIONERS GO","placeID":"2464592","placeName":"Oklahoma City","searchUrl":"http:\/\/twitter.com\/search?q=%22GO+DIRECTIONERS+GO%22","trendMapped":"GO+DIRECTIONERS+GO","trendVolume":1431004},{"stateName":"OR","trendName":"#AprilFools","placeID":"2475687","placeName":"Portland","searchUrl":"http:\/\/twitter.com\/search?q=%23AprilFools","trendMapped":"april+fools","trendVolume":748100},{"stateName":"OR","trendName":"5SOSFAM NEVER QUIT","placeID":"2475687","placeName":"Portland","searchUrl":"http:\/\/twitter.com\/search?q=%225SOSFAM+NEVER+QUIT%22","trendMapped":"5SOSFAM+NEVER+QUIT","trendVolume":2004515},{"stateName":"OR","trendName":"GO DIRECTIONERS GO","placeID":"2475687","placeName":"Portland","searchUrl":"http:\/\/twitter.com\/search?q=%22GO+DIRECTIONERS+GO%22","trendMapped":"GO+DIRECTIONERS+GO","trendVolume":1391745},{"stateName":"OR","trendName":"UNITE 5SOSFAM","placeID":"2475687","placeName":"Portland","searchUrl":"http:\/\/twitter.com\/search?q=%22UNITE+5SOSFAM%22","trendMapped":"UNITE+5SOSFAM","trendVolume":1688595},{"stateName":"PA","trendName":"#AprilFools","placeID":"2473224","placeName":"Pittsburgh","searchUrl":"http:\/\/twitter.com\/search?q=%23AprilFools","trendMapped":"april+fools","trendVolume":749355},{"stateName":"PA","trendName":"#NXTTakeOver","placeID":"2471217","placeName":"Philadelphia","searchUrl":"http:\/\/twitter.com\/search?q=%23NXTTakeOver","trendMapped":"nxt+take+over","trendVolume":210096},{"stateName":"PA","trendName":"5SOSFAM NEVER QUIT","placeID":"2473224","placeName":"Pittsburgh","searchUrl":"http:\/\/twitter.com\/search?q=%225SOSFAM+NEVER+QUIT%22","trendMapped":"5SOSFAM+NEVER+QUIT","trendVolume":4282660},{"stateName":"PA","trendName":"April Fools","placeID":"2473224","placeName":"Pittsburgh","searchUrl":"http:\/\/twitter.com\/search?q=%22April+Fools%22","trendMapped":"April+Fools","trendVolume":2206685},{"stateName":"PA","trendName":"GO DIRECTIONERS GO","placeID":"2473224","placeName":"Pittsburgh","searchUrl":"http:\/\/twitter.com\/search?q=%22GO+DIRECTIONERS+GO%22","trendMapped":"GO+DIRECTIONERS+GO","trendVolume":1431004},{"stateName":"RI","trendName":"5SOSFAM NEVER QUIT","placeID":"2477058","placeName":"Providence","searchUrl":"http:\/\/twitter.com\/search?q=%225SOSFAM+NEVER+QUIT%22","trendMapped":"5SOSFAM+NEVER+QUIT","trendVolume":4249455},{"stateName":"RI","trendName":"April Fools","placeID":"2477058","placeName":"Providence","searchUrl":"http:\/\/twitter.com\/search?q=%22April+Fools%22","trendMapped":"April+Fools","trendVolume":2405542},{"stateName":"RI","trendName":"UNITE 5SOSFAM","placeID":"2477058","placeName":"Providence","searchUrl":"http:\/\/twitter.com\/search?q=%22UNITE+5SOSFAM%22","trendMapped":"UNITE+5SOSFAM","trendVolume":1822846},{"stateName":"TN","trendName":"#AprilFools","placeID":"2457170","placeName":"Nashville","searchUrl":"http:\/\/twitter.com\/search?q=%23AprilFools","trendMapped":"april+fools","trendVolume":749355},{"stateName":"TN","trendName":"5SOSFAM NEVER QUIT","placeID":"2457170","placeName":"Nashville","searchUrl":"http:\/\/twitter.com\/search?q=%225SOSFAM+NEVER+QUIT%22","trendMapped":"5SOSFAM+NEVER+QUIT","trendVolume":4273233},{"stateName":"TN","trendName":"Black","placeID":"2449323","placeName":"Memphis","searchUrl":"http:\/\/twitter.com\/search?q=Black","trendMapped":"black","trendVolume":811948},{"stateName":"TN","trendName":"UNITE 5SOSFAM","placeID":"2449323","placeName":"Memphis","searchUrl":"http:\/\/twitter.com\/search?q=%22UNITE+5SOSFAM%22","trendMapped":"UNITE+5SOSFAM","trendVolume":1822846},{"stateName":"TX","trendName":"#AprilFools","placeID":"2487796","placeName":"San Antonio","searchUrl":"http:\/\/twitter.com\/search?q=%23AprilFools","trendMapped":"april+fools","trendVolume":741298},{"stateName":"TX","trendName":"#NXTTakeOver","placeID":"2424766","placeName":"Houston","searchUrl":"http:\/\/twitter.com\/search?q=%23NXTTakeOver","trendMapped":"nxt+take+over","trendVolume":196113},{"stateName":"TX","trendName":"#NashsNewVideo","placeID":"2388929","placeName":"Dallas-Ft. Worth","searchUrl":"http:\/\/twitter.com\/search?q=%23NashsNewVideo","trendMapped":"nashs+new+video","trendVolume":114939},{"stateName":"TX","trendName":"5SOSFAM NEVER QUIT","placeID":"2487796","placeName":"San Antonio","searchUrl":"http:\/\/twitter.com\/search?q=%225SOSFAM+NEVER+QUIT%22","trendMapped":"5SOSFAM+NEVER+QUIT","trendVolume":4249455},{"stateName":"TX","trendName":"April Fools","placeID":"2424766","placeName":"Houston","searchUrl":"http:\/\/twitter.com\/search?q=%22April+Fools%22","trendMapped":"April+Fools","trendVolume":2271655},{"stateName":"TX","trendName":"GO DIRECTIONERS GO","placeID":"2487796","placeName":"San Antonio","searchUrl":"http:\/\/twitter.com\/search?q=%22GO+DIRECTIONERS+GO%22","trendMapped":"GO+DIRECTIONERS+GO","trendVolume":1431004},{"stateName":"TX","trendName":"Trump","placeID":"2397816","placeName":"El Paso","searchUrl":"http:\/\/twitter.com\/search?q=Trump","trendMapped":"trump","trendVolume":928587},{"stateName":"TX","trendName":"UNITE 5SOSFAM","placeID":"2397816","placeName":"El Paso","searchUrl":"http:\/\/twitter.com\/search?q=%22UNITE+5SOSFAM%22","trendMapped":"UNITE+5SOSFAM","trendVolume":1822846},{"stateName":"TX","trendName":"Warriors","placeID":"2424766","placeName":"Houston","searchUrl":"http:\/\/twitter.com\/search?q=Warriors","trendMapped":"warriors","trendVolume":239282},{"stateName":"UT","trendName":"#AprilFools","placeID":"2487610","placeName":"Salt Lake City","searchUrl":"http:\/\/twitter.com\/search?q=%23AprilFools","trendMapped":"april+fools","trendVolume":733179},{"stateName":"UT","trendName":"5SOSFAM NEVER QUIT","placeID":"2487610","placeName":"Salt Lake City","searchUrl":"http:\/\/twitter.com\/search?q=%225SOSFAM+NEVER+QUIT%22","trendMapped":"5SOSFAM+NEVER+QUIT","trendVolume":4282660},{"stateName":"UT","trendName":"GO DIRECTIONERS GO","placeID":"2487610","placeName":"Salt Lake City","searchUrl":"http:\/\/twitter.com\/search?q=%22GO+DIRECTIONERS+GO%22","trendMapped":"GO+DIRECTIONERS+GO","trendVolume":1351643},{"stateName":"VA","trendName":"#NXTTakeOver","placeID":"2512636","placeName":"Virginia Beach","searchUrl":"http:\/\/twitter.com\/search?q=%23NXTTakeOver","trendMapped":"nxt+take+over","trendVolume":158407},{"stateName":"VA","trendName":"#NashsNewVideo","placeID":"2512636","placeName":"Virginia Beach","searchUrl":"http:\/\/twitter.com\/search?q=%23NashsNewVideo","trendMapped":"nashs+new+video","trendVolume":132213},{"stateName":"VA","trendName":"5SOSFAM NEVER QUIT","placeID":"2512636","placeName":"Virginia Beach","searchUrl":"http:\/\/twitter.com\/search?q=%225SOSFAM+NEVER+QUIT%22","trendMapped":"5SOSFAM+NEVER+QUIT","trendVolume":4249455},{"stateName":"VA","trendName":"April Fools","placeID":"2480894","placeName":"Richmond","searchUrl":"http:\/\/twitter.com\/search?q=%22April+Fools%22","trendMapped":"April+Fools","trendVolume":2421212},{"stateName":"VA","trendName":"GO DIRECTIONERS GO","placeID":"2512636","placeName":"Virginia Beach","searchUrl":"http:\/\/twitter.com\/search?q=%22GO+DIRECTIONERS+GO%22","trendMapped":"GO+DIRECTIONERS+GO","trendVolume":1489547},{"stateName":"VA","trendName":"UNITE 5SOSFAM","placeID":"2512636","placeName":"Virginia Beach","searchUrl":"http:\/\/twitter.com\/search?q=%22UNITE+5SOSFAM%22","trendMapped":"UNITE+5SOSFAM","trendVolume":1822846},{"stateName":"VA","trendName":"Warriors","placeID":"2512636","placeName":"Virginia Beach","searchUrl":"http:\/\/twitter.com\/search?q=Warriors","trendMapped":"warriors","trendVolume":229421},{"stateName":"WA","trendName":"#AprilFools","placeID":"2490383","placeName":"Seattle","searchUrl":"http:\/\/twitter.com\/search?q=%23AprilFools","trendMapped":"april+fools","trendVolume":739953},{"stateName":"WA","trendName":"5SOSFAM NEVER QUIT","placeID":"2490383","placeName":"Seattle","searchUrl":"http:\/\/twitter.com\/search?q=%225SOSFAM+NEVER+QUIT%22","trendMapped":"5SOSFAM+NEVER+QUIT","trendVolume":4273233},{"stateName":"WA","trendName":"GO DIRECTIONERS GO","placeID":"2490383","placeName":"Seattle","searchUrl":"http:\/\/twitter.com\/search?q=%22GO+DIRECTIONERS+GO%22","trendMapped":"GO+DIRECTIONERS+GO","trendVolume":1431004},{"stateName":"WA","trendName":"UNITE 5SOSFAM","placeID":"2490383","placeName":"Seattle","searchUrl":"http:\/\/twitter.com\/search?q=%22UNITE+5SOSFAM%22","trendMapped":"UNITE+5SOSFAM","trendVolume":1822846},{"stateName":"WA","trendName":"Warriors","placeID":"2490383","placeName":"Seattle","searchUrl":"http:\/\/twitter.com\/search?q=Warriors","trendMapped":"warriors","trendVolume":221218},{"stateName":"WI","trendName":"#AprilFools","placeID":"2451822","placeName":"Milwaukee","searchUrl":"http:\/\/twitter.com\/search?q=%23AprilFools","trendMapped":"april+fools","trendVolume":748100},{"stateName":"WI","trendName":"5SOSFAM NEVER QUIT","placeID":"2451822","placeName":"Milwaukee","searchUrl":"http:\/\/twitter.com\/search?q=%225SOSFAM+NEVER+QUIT%22","trendMapped":"5SOSFAM+NEVER+QUIT","trendVolume":4212838},{"stateName":"WI","trendName":"GO DIRECTIONERS GO","placeID":"2451822","placeName":"Milwaukee","searchUrl":"http:\/\/twitter.com\/search?q=%22GO+DIRECTIONERS+GO%22","trendMapped":"GO+DIRECTIONERS+GO","trendVolume":1579368},{"stateName":"XX","trendName":"#NXTTakeOver","placeID":"23424977","placeName":"United States","searchUrl":"http:\/\/twitter.com\/search?q=%23NXTTakeOver","trendMapped":"nxt+take+over","trendVolume":198559},{"stateName":"XX","trendName":"#NashsNewVideo","placeID":"23424977","placeName":"United States","searchUrl":"http:\/\/twitter.com\/search?q=%23NashsNewVideo","trendMapped":"nashs+new+video","trendVolume":145892},{"stateName":"XX","trendName":"5SOSFAM NEVER QUIT","placeID":"23424977","placeName":"United States","searchUrl":"http:\/\/twitter.com\/search?q=%225SOSFAM+NEVER+QUIT%22","trendMapped":"5SOSFAM+NEVER+QUIT","trendVolume":4282660},{"stateName":"XX","trendName":"GO DIRECTIONERS GO","placeID":"23424977","placeName":"United States","searchUrl":"http:\/\/twitter.com\/search?q=%22GO+DIRECTIONERS+GO%22","trendMapped":"GO+DIRECTIONERS+GO","trendVolume":1431004},{"stateName":"XX","trendName":"UNITE 5SOSFAM","placeID":"23424977","placeName":"United States","searchUrl":"http:\/\/twitter.com\/search?q=%22UNITE+5SOSFAM%22","trendMapped":"UNITE+5SOSFAM","trendVolume":1757924},{"stateName":"XX","trendName":"Warriors","placeID":"23424977","placeName":"United States","searchUrl":"http:\/\/twitter.com\/search?q=Warriors","trendMapped":"warriors","trendVolume":237772}]