[{"stateName":"AL","trendName":"#NationalSiblingsDay","placeID":"2364559","placeName":"Birmingham","searchUrl":"http:\/\/twitter.com\/search?q=%23NationalSiblingsDay","trendMapped":"national+siblings+day","trendVolume":347639},{"stateName":"AL","trendName":"Spurs","placeID":"2364559","placeName":"Birmingham","searchUrl":"http:\/\/twitter.com\/search?q=Spurs","trendMapped":"spurs","trendVolume":311453},{"stateName":"AL","trendName":"Warriors","placeID":"2364559","placeName":"Birmingham","searchUrl":"http:\/\/twitter.com\/search?q=Warriors","trendMapped":"warriors","trendVolume":406720},{"stateName":"AZ","trendName":"#BBMAs","placeID":"2508428","placeName":"Tucson","searchUrl":"http:\/\/twitter.com\/search?q=%23BBMAs","trendMapped":"bbm+as","trendVolume":188512},{"stateName":"AZ","trendName":"#FearTWD","placeID":"2449808","placeName":"Mesa","searchUrl":"http:\/\/twitter.com\/search?q=%23FearTWD","trendMapped":"fear+twd","trendVolume":146221},{"stateName":"AZ","trendName":"#FelizLunes","placeID":"2449808","placeName":"Mesa","searchUrl":"http:\/\/twitter.com\/search?q=%23FelizLunes","trendMapped":"feliz+lunes","trendVolume":32701},{"stateName":"AZ","trendName":"#Hearties","placeID":"2471390","placeName":"Phoenix","searchUrl":"http:\/\/twitter.com\/search?q=%23Hearties","trendMapped":"hearties","trendVolume":203156},{"stateName":"AZ","trendName":"#MovieAwards","placeID":"2449808","placeName":"Mesa","searchUrl":"http:\/\/twitter.com\/search?q=%23MovieAwards","trendMapped":"movie+awards","trendVolume":137994},{"stateName":"AZ","trendName":"#NationalSiblingsDay","placeID":"2471390","placeName":"Phoenix","searchUrl":"http:\/\/twitter.com\/search?q=%23NationalSiblingsDay","trendMapped":"national+siblings+day","trendVolume":357942},{"stateName":"AZ","trendName":"#SuicideSquad","placeID":"2471390","placeName":"Phoenix","searchUrl":"http:\/\/twitter.com\/search?q=%23SuicideSquad","trendMapped":"suicide+squad","trendVolume":168633},{"stateName":"AZ","trendName":"#TheMasters","placeID":"2508428","placeName":"Tucson","searchUrl":"http:\/\/twitter.com\/search?q=%23TheMasters","trendMapped":"the+masters","trendVolume":137224},{"stateName":"AZ","trendName":"#mondaymotivation","placeID":"2508428","placeName":"Tucson","searchUrl":"http:\/\/twitter.com\/search?q=%23mondaymotivation","trendMapped":"mondaymotivation","trendVolume":83501},{"stateName":"AZ","trendName":"Hiroshima","placeID":"2449808","placeName":"Mesa","searchUrl":"http:\/\/twitter.com\/search?q=Hiroshima","trendMapped":"hiroshima","trendVolume":55854},{"stateName":"AZ","trendName":"House","placeID":"2471390","placeName":"Phoenix","searchUrl":"http:\/\/twitter.com\/search?q=House","trendMapped":"house","trendVolume":468944},{"stateName":"AZ","trendName":"Make Me","placeID":"2508428","placeName":"Tucson","searchUrl":"http:\/\/twitter.com\/search?q=%22Make+Me%22","trendMapped":"Make+Me","trendVolume":172132},{"stateName":"AZ","trendName":"Spurs","placeID":"2508428","placeName":"Tucson","searchUrl":"http:\/\/twitter.com\/search?q=Spurs","trendMapped":"spurs","trendVolume":339252},{"stateName":"AZ","trendName":"Warriors","placeID":"2508428","placeName":"Tucson","searchUrl":"http:\/\/twitter.com\/search?q=Warriors","trendMapped":"warriors","trendVolume":376810},{"stateName":"CA","trendName":"#BBMAs","placeID":"2488042","placeName":"San Jose","searchUrl":"http:\/\/twitter.com\/search?q=%23BBMAs","trendMapped":"bbm+as","trendVolume":204496},{"stateName":"CA","trendName":"#FelizLunes","placeID":"2407517","placeName":"Fresno","searchUrl":"http:\/\/twitter.com\/search?q=%23FelizLunes","trendMapped":"feliz+lunes","trendVolume":32701},{"stateName":"CA","trendName":"#Hearties","placeID":"2488042","placeName":"San Jose","searchUrl":"http:\/\/twitter.com\/search?q=%23Hearties","trendMapped":"hearties","trendVolume":229109},{"stateName":"CA","trendName":"#MTVMovieAwards","placeID":"2488042","placeName":"San Jose","searchUrl":"http:\/\/twitter.com\/search?q=%23MTVMovieAwards","trendMapped":"mtv+movie+awards","trendVolume":108294},{"stateName":"CA","trendName":"#MovieAwards","placeID":"2487956","placeName":"San Francisco","searchUrl":"http:\/\/twitter.com\/search?q=%23MovieAwards","trendMapped":"movie+awards","trendVolume":248086},{"stateName":"CA","trendName":"#NationalSiblingsDay","placeID":"2487956","placeName":"San Francisco","searchUrl":"http:\/\/twitter.com\/search?q=%23NationalSiblingsDay","trendMapped":"national+siblings+day","trendVolume":359208},{"stateName":"CA","trendName":"#TheMasters","placeID":"2441472","placeName":"Long Beach","searchUrl":"http:\/\/twitter.com\/search?q=%23TheMasters","trendMapped":"the+masters","trendVolume":136471},{"stateName":"CA","trendName":"#mondaymotivation","placeID":"2488042","placeName":"San Jose","searchUrl":"http:\/\/twitter.com\/search?q=%23mondaymotivation","trendMapped":"mondaymotivation","trendVolume":81357},{"stateName":"CA","trendName":"Hiroshima","placeID":"2488042","placeName":"San Jose","searchUrl":"http:\/\/twitter.com\/search?q=Hiroshima","trendMapped":"hiroshima","trendVolume":57590},{"stateName":"CA","trendName":"Make Me","placeID":"2488042","placeName":"San Jose","searchUrl":"http:\/\/twitter.com\/search?q=%22Make+Me%22","trendMapped":"Make+Me","trendVolume":171329},{"stateName":"CA","trendName":"Spieth","placeID":"2487889","placeName":"San Diego","searchUrl":"http:\/\/twitter.com\/search?q=Spieth","trendMapped":"spieth","trendVolume":266938},{"stateName":"CA","trendName":"Spurs","placeID":"2488042","placeName":"San Jose","searchUrl":"http:\/\/twitter.com\/search?q=Spurs","trendMapped":"spurs","trendVolume":341630},{"stateName":"CA","trendName":"Warriors","placeID":"2488042","placeName":"San Jose","searchUrl":"http:\/\/twitter.com\/search?q=Warriors","trendMapped":"warriors","trendVolume":411634},{"stateName":"CO","trendName":"#BBMAs","placeID":"2383489","placeName":"Colorado Springs","searchUrl":"http:\/\/twitter.com\/search?q=%23BBMAs","trendMapped":"bbm+as","trendVolume":140202},{"stateName":"CO","trendName":"#FelizLunes","placeID":"2383489","placeName":"Colorado Springs","searchUrl":"http:\/\/twitter.com\/search?q=%23FelizLunes","trendMapped":"feliz+lunes","trendVolume":32701},{"stateName":"CO","trendName":"#MTVMovieAwards","placeID":"2383489","placeName":"Colorado Springs","searchUrl":"http:\/\/twitter.com\/search?q=%23MTVMovieAwards","trendMapped":"mtv+movie+awards","trendVolume":108294},{"stateName":"CO","trendName":"Hiroshima","placeID":"2383489","placeName":"Colorado Springs","searchUrl":"http:\/\/twitter.com\/search?q=Hiroshima","trendMapped":"hiroshima","trendVolume":57590},{"stateName":"CO","trendName":"Jordan","placeID":"2391279","placeName":"Denver","searchUrl":"http:\/\/twitter.com\/search?q=Jordan","trendMapped":"jordan","trendVolume":344946},{"stateName":"CO","trendName":"Make Me","placeID":"2391279","placeName":"Denver","searchUrl":"http:\/\/twitter.com\/search?q=%22Make+Me%22","trendMapped":"Make+Me","trendVolume":166193},{"stateName":"CO","trendName":"Spurs","placeID":"2391279","placeName":"Denver","searchUrl":"http:\/\/twitter.com\/search?q=Spurs","trendMapped":"spurs","trendVolume":341630},{"stateName":"CO","trendName":"Suicide Squad","placeID":"2391279","placeName":"Denver","searchUrl":"http:\/\/twitter.com\/search?q=%22Suicide+Squad%22","trendMapped":"Suicide+Squad","trendVolume":153931},{"stateName":"CO","trendName":"Warriors","placeID":"2391279","placeName":"Denver","searchUrl":"http:\/\/twitter.com\/search?q=Warriors","trendMapped":"warriors","trendVolume":373755},{"stateName":"CT","trendName":"#BBMAs","placeID":"2458410","placeName":"New Haven","searchUrl":"http:\/\/twitter.com\/search?q=%23BBMAs","trendMapped":"bbm+as","trendVolume":201251},{"stateName":"CT","trendName":"#MTVMovieAwards","placeID":"2458410","placeName":"New Haven","searchUrl":"http:\/\/twitter.com\/search?q=%23MTVMovieAwards","trendMapped":"mtv+movie+awards","trendVolume":119958},{"stateName":"CT","trendName":"#NationalSiblingsDay","placeID":"2458410","placeName":"New Haven","searchUrl":"http:\/\/twitter.com\/search?q=%23NationalSiblingsDay","trendMapped":"national+siblings+day","trendVolume":347639},{"stateName":"CT","trendName":"Make Me","placeID":"2458410","placeName":"New Haven","searchUrl":"http:\/\/twitter.com\/search?q=%22Make+Me%22","trendMapped":"Make+Me","trendVolume":172132},{"stateName":"CT","trendName":"Warriors","placeID":"2458410","placeName":"New Haven","searchUrl":"http:\/\/twitter.com\/search?q=Warriors","trendMapped":"warriors","trendVolume":386539},{"stateName":"DC","trendName":"#BBMAs","placeID":"2514815","placeName":"Washington","searchUrl":"http:\/\/twitter.com\/search?q=%23BBMAs","trendMapped":"bbm+as","trendVolume":184453},{"stateName":"DC","trendName":"#Hearties","placeID":"2514815","placeName":"Washington","searchUrl":"http:\/\/twitter.com\/search?q=%23Hearties","trendMapped":"hearties","trendVolume":228056},{"stateName":"DC","trendName":"#mondaymotivation","placeID":"2514815","placeName":"Washington","searchUrl":"http:\/\/twitter.com\/search?q=%23mondaymotivation","trendMapped":"mondaymotivation","trendVolume":71596},{"stateName":"DC","trendName":"Spurs","placeID":"2514815","placeName":"Washington","searchUrl":"http:\/\/twitter.com\/search?q=Spurs","trendMapped":"spurs","trendVolume":303345},{"stateName":"DC","trendName":"Warriors","placeID":"2514815","placeName":"Washington","searchUrl":"http:\/\/twitter.com\/search?q=Warriors","trendMapped":"warriors","trendVolume":376810},{"stateName":"DC","trendName":"Will Smith","placeID":"2514815","placeName":"Washington","searchUrl":"http:\/\/twitter.com\/search?q=%22Will+Smith%22","trendMapped":"Will+Smith","trendVolume":274634},{"stateName":"FL","trendName":"#BBMAs","placeID":"2503863","placeName":"Tampa","searchUrl":"http:\/\/twitter.com\/search?q=%23BBMAs","trendMapped":"bbm+as","trendVolume":207664},{"stateName":"FL","trendName":"#MTVMovieAwards","placeID":"2503863","placeName":"Tampa","searchUrl":"http:\/\/twitter.com\/search?q=%23MTVMovieAwards","trendMapped":"mtv+movie+awards","trendVolume":126135},{"stateName":"FL","trendName":"#MovieAwards","placeID":"2503863","placeName":"Tampa","searchUrl":"http:\/\/twitter.com\/search?q=%23MovieAwards","trendMapped":"movie+awards","trendVolume":161457},{"stateName":"FL","trendName":"#NationalPetDay","placeID":"2450022","placeName":"Miami","searchUrl":"http:\/\/twitter.com\/search?q=%23NationalPetDay","trendMapped":"national+pet+day","trendVolume":198261},{"stateName":"FL","trendName":"#NationalSiblingsDay","placeID":"2503863","placeName":"Tampa","searchUrl":"http:\/\/twitter.com\/search?q=%23NationalSiblingsDay","trendMapped":"national+siblings+day","trendVolume":357353},{"stateName":"FL","trendName":"#SuicideSquad","placeID":"2466256","placeName":"Orlando","searchUrl":"http:\/\/twitter.com\/search?q=%23SuicideSquad","trendMapped":"suicide+squad","trendVolume":195089},{"stateName":"FL","trendName":"#TheMasters","placeID":"2503713","placeName":"Tallahassee","searchUrl":"http:\/\/twitter.com\/search?q=%23TheMasters","trendMapped":"the+masters","trendVolume":134725},{"stateName":"FL","trendName":"America","placeID":"2428344","placeName":"Jacksonville","searchUrl":"http:\/\/twitter.com\/search?q=America","trendMapped":"america","trendVolume":351402},{"stateName":"FL","trendName":"Make Me","placeID":"2503863","placeName":"Tampa","searchUrl":"http:\/\/twitter.com\/search?q=%22Make+Me%22","trendMapped":"Make+Me","trendVolume":164291},{"stateName":"FL","trendName":"Spieth","placeID":"2503863","placeName":"Tampa","searchUrl":"http:\/\/twitter.com\/search?q=Spieth","trendMapped":"spieth","trendVolume":265334},{"stateName":"FL","trendName":"Warriors","placeID":"2503863","placeName":"Tampa","searchUrl":"http:\/\/twitter.com\/search?q=Warriors","trendMapped":"warriors","trendVolume":408236},{"stateName":"FL","trendName":"Will Smith","placeID":"2428344","placeName":"Jacksonville","searchUrl":"http:\/\/twitter.com\/search?q=%22Will+Smith%22","trendMapped":"Will+Smith","trendVolume":308210},{"stateName":"GA","trendName":"#BBMAs","placeID":"2357024","placeName":"Atlanta","searchUrl":"http:\/\/twitter.com\/search?q=%23BBMAs","trendMapped":"bbm+as","trendVolume":197111},{"stateName":"GA","trendName":"#Hearties","placeID":"2357024","placeName":"Atlanta","searchUrl":"http:\/\/twitter.com\/search?q=%23Hearties","trendMapped":"hearties","trendVolume":175559},{"stateName":"GA","trendName":"#MTVMovieAwards","placeID":"2357024","placeName":"Atlanta","searchUrl":"http:\/\/twitter.com\/search?q=%23MTVMovieAwards","trendMapped":"mtv+movie+awards","trendVolume":121264},{"stateName":"GA","trendName":"#NationalPetDay","placeID":"2357024","placeName":"Atlanta","searchUrl":"http:\/\/twitter.com\/search?q=%23NationalPetDay","trendMapped":"national+pet+day","trendVolume":182510},{"stateName":"GA","trendName":"#NationalSiblingsDay","placeID":"2357024","placeName":"Atlanta","searchUrl":"http:\/\/twitter.com\/search?q=%23NationalSiblingsDay","trendMapped":"national+siblings+day","trendVolume":357428},{"stateName":"GA","trendName":"Make Me","placeID":"2357024","placeName":"Atlanta","searchUrl":"http:\/\/twitter.com\/search?q=%22Make+Me%22","trendMapped":"Make+Me","trendVolume":169236},{"stateName":"GA","trendName":"Spieth","placeID":"2357024","placeName":"Atlanta","searchUrl":"http:\/\/twitter.com\/search?q=Spieth","trendMapped":"spieth","trendVolume":242003},{"stateName":"GA","trendName":"Spurs","placeID":"2357024","placeName":"Atlanta","searchUrl":"http:\/\/twitter.com\/search?q=Spurs","trendMapped":"spurs","trendVolume":330116},{"stateName":"GA","trendName":"Warriors","placeID":"2357024","placeName":"Atlanta","searchUrl":"http:\/\/twitter.com\/search?q=Warriors","trendMapped":"warriors","trendVolume":370130},{"stateName":"GA","trendName":"Will Smith","placeID":"2357024","placeName":"Atlanta","searchUrl":"http:\/\/twitter.com\/search?q=%22Will+Smith%22","trendMapped":"Will+Smith","trendVolume":167466},{"stateName":"HI","trendName":"#Hearties","placeID":"2423945","placeName":"Honolulu","searchUrl":"http:\/\/twitter.com\/search?q=%23Hearties","trendMapped":"hearties","trendVolume":227267},{"stateName":"HI","trendName":"#MTVMovieAwards","placeID":"2423945","placeName":"Honolulu","searchUrl":"http:\/\/twitter.com\/search?q=%23MTVMovieAwards","trendMapped":"mtv+movie+awards","trendVolume":101975},{"stateName":"HI","trendName":"#NYPrimary","placeID":"2423945","placeName":"Honolulu","searchUrl":"http:\/\/twitter.com\/search?q=%23NYPrimary","trendMapped":"ny+primary","trendVolume":68757},{"stateName":"HI","trendName":"#NationalPetDay","placeID":"2423945","placeName":"Honolulu","searchUrl":"http:\/\/twitter.com\/search?q=%23NationalPetDay","trendMapped":"national+pet+day","trendVolume":182510},{"stateName":"HI","trendName":"Snapchat","placeID":"2423945","placeName":"Honolulu","searchUrl":"http:\/\/twitter.com\/search?q=Snapchat","trendMapped":"snapchat","trendVolume":483754},{"stateName":"HI","trendName":"Spurs","placeID":"2423945","placeName":"Honolulu","searchUrl":"http:\/\/twitter.com\/search?q=Spurs","trendMapped":"spurs","trendVolume":311722},{"stateName":"HI","trendName":"Warriors","placeID":"2423945","placeName":"Honolulu","searchUrl":"http:\/\/twitter.com\/search?q=Warriors","trendMapped":"warriors","trendVolume":342662},{"stateName":"IL","trendName":"#BBMAs","placeID":"2379574","placeName":"Chicago","searchUrl":"http:\/\/twitter.com\/search?q=%23BBMAs","trendMapped":"bbm+as","trendVolume":206747},{"stateName":"IL","trendName":"#NationalPetDay","placeID":"2379574","placeName":"Chicago","searchUrl":"http:\/\/twitter.com\/search?q=%23NationalPetDay","trendMapped":"national+pet+day","trendVolume":196347},{"stateName":"IL","trendName":"#NationalSiblingsDay","placeID":"2379574","placeName":"Chicago","searchUrl":"http:\/\/twitter.com\/search?q=%23NationalSiblingsDay","trendMapped":"national+siblings+day","trendVolume":357185},{"stateName":"IL","trendName":"#SuicideSquad","placeID":"2379574","placeName":"Chicago","searchUrl":"http:\/\/twitter.com\/search?q=%23SuicideSquad","trendMapped":"suicide+squad","trendVolume":159870},{"stateName":"IL","trendName":"Warriors","placeID":"2379574","placeName":"Chicago","searchUrl":"http:\/\/twitter.com\/search?q=Warriors","trendMapped":"warriors","trendVolume":376810},{"stateName":"IL","trendName":"Will Smith","placeID":"2379574","placeName":"Chicago","searchUrl":"http:\/\/twitter.com\/search?q=%22Will+Smith%22","trendMapped":"Will+Smith","trendVolume":244661},{"stateName":"IN","trendName":"#NationalPetDay","placeID":"2427032","placeName":"Indianapolis","searchUrl":"http:\/\/twitter.com\/search?q=%23NationalPetDay","trendMapped":"national+pet+day","trendVolume":192977},{"stateName":"IN","trendName":"#NationalSiblingsDay","placeID":"2427032","placeName":"Indianapolis","searchUrl":"http:\/\/twitter.com\/search?q=%23NationalSiblingsDay","trendMapped":"national+siblings+day","trendVolume":357050},{"stateName":"IN","trendName":"Spurs","placeID":"2427032","placeName":"Indianapolis","searchUrl":"http:\/\/twitter.com\/search?q=Spurs","trendMapped":"spurs","trendVolume":320057},{"stateName":"IN","trendName":"Warriors","placeID":"2427032","placeName":"Indianapolis","searchUrl":"http:\/\/twitter.com\/search?q=Warriors","trendMapped":"warriors","trendVolume":400446},{"stateName":"KY","trendName":"#NationalSiblingsDay","placeID":"2442327","placeName":"Louisville","searchUrl":"http:\/\/twitter.com\/search?q=%23NationalSiblingsDay","trendMapped":"national+siblings+day","trendVolume":240736},{"stateName":"KY","trendName":"Spurs","placeID":"2442327","placeName":"Louisville","searchUrl":"http:\/\/twitter.com\/search?q=Spurs","trendMapped":"spurs","trendVolume":283859},{"stateName":"KY","trendName":"Warriors","placeID":"2442327","placeName":"Louisville","searchUrl":"http:\/\/twitter.com\/search?q=Warriors","trendMapped":"warriors","trendVolume":408236},{"stateName":"LA","trendName":"#NationalPetDay","placeID":"2359991","placeName":"Baton Rouge","searchUrl":"http:\/\/twitter.com\/search?q=%23NationalPetDay","trendMapped":"national+pet+day","trendVolume":198261},{"stateName":"LA","trendName":"#NationalSiblingsDay","placeID":"2458833","placeName":"New Orleans","searchUrl":"http:\/\/twitter.com\/search?q=%23NationalSiblingsDay","trendMapped":"national+siblings+day","trendVolume":359821},{"stateName":"LA","trendName":"#SuicideSquad","placeID":"2458833","placeName":"New Orleans","searchUrl":"http:\/\/twitter.com\/search?q=%23SuicideSquad","trendMapped":"suicide+squad","trendVolume":192455},{"stateName":"LA","trendName":"Masters","placeID":"2359991","placeName":"Baton Rouge","searchUrl":"http:\/\/twitter.com\/search?q=Masters","trendMapped":"masters","trendVolume":299867},{"stateName":"LA","trendName":"Warriors","placeID":"2458833","placeName":"New Orleans","searchUrl":"http:\/\/twitter.com\/search?q=Warriors","trendMapped":"warriors","trendVolume":384764},{"stateName":"LA","trendName":"Will Smith","placeID":"2458833","placeName":"New Orleans","searchUrl":"http:\/\/twitter.com\/search?q=%22Will+Smith%22","trendMapped":"Will+Smith","trendVolume":299128},{"stateName":"MA","trendName":"#BBMAs","placeID":"2367105","placeName":"Boston","searchUrl":"http:\/\/twitter.com\/search?q=%23BBMAs","trendMapped":"bbm+as","trendVolume":197111},{"stateName":"MA","trendName":"#FearTWD","placeID":"2367105","placeName":"Boston","searchUrl":"http:\/\/twitter.com\/search?q=%23FearTWD","trendMapped":"fear+twd","trendVolume":149309},{"stateName":"MA","trendName":"#Hearties","placeID":"2367105","placeName":"Boston","searchUrl":"http:\/\/twitter.com\/search?q=%23Hearties","trendMapped":"hearties","trendVolume":164306},{"stateName":"MA","trendName":"#MTVMovieAwards","placeID":"2367105","placeName":"Boston","searchUrl":"http:\/\/twitter.com\/search?q=%23MTVMovieAwards","trendMapped":"mtv+movie+awards","trendVolume":125330},{"stateName":"MA","trendName":"#NationalPetDay","placeID":"2367105","placeName":"Boston","searchUrl":"http:\/\/twitter.com\/search?q=%23NationalPetDay","trendMapped":"national+pet+day","trendVolume":178350},{"stateName":"MA","trendName":"#NationalSiblingsDay","placeID":"2367105","placeName":"Boston","searchUrl":"http:\/\/twitter.com\/search?q=%23NationalSiblingsDay","trendMapped":"national+siblings+day","trendVolume":356090},{"stateName":"MA","trendName":"#mondaymotivation","placeID":"2367105","placeName":"Boston","searchUrl":"http:\/\/twitter.com\/search?q=%23mondaymotivation","trendMapped":"mondaymotivation","trendVolume":83501},{"stateName":"MA","trendName":"Make Me","placeID":"2367105","placeName":"Boston","searchUrl":"http:\/\/twitter.com\/search?q=%22Make+Me%22","trendMapped":"Make+Me","trendVolume":161524},{"stateName":"MA","trendName":"Spieth","placeID":"2367105","placeName":"Boston","searchUrl":"http:\/\/twitter.com\/search?q=Spieth","trendMapped":"spieth","trendVolume":231065},{"stateName":"MA","trendName":"Warriors","placeID":"2367105","placeName":"Boston","searchUrl":"http:\/\/twitter.com\/search?q=Warriors","trendMapped":"warriors","trendVolume":376810},{"stateName":"MD","trendName":"#BBMAs","placeID":"2358820","placeName":"Baltimore","searchUrl":"http:\/\/twitter.com\/search?q=%23BBMAs","trendMapped":"bbm+as","trendVolume":193566},{"stateName":"MD","trendName":"#NationalPetDay","placeID":"2358820","placeName":"Baltimore","searchUrl":"http:\/\/twitter.com\/search?q=%23NationalPetDay","trendMapped":"national+pet+day","trendVolume":192977},{"stateName":"MD","trendName":"Make Me","placeID":"2358820","placeName":"Baltimore","searchUrl":"http:\/\/twitter.com\/search?q=%22Make+Me%22","trendMapped":"Make+Me","trendVolume":172743},{"stateName":"MD","trendName":"Spurs","placeID":"2358820","placeName":"Baltimore","searchUrl":"http:\/\/twitter.com\/search?q=Spurs","trendMapped":"spurs","trendVolume":324095},{"stateName":"MD","trendName":"Warriors","placeID":"2358820","placeName":"Baltimore","searchUrl":"http:\/\/twitter.com\/search?q=Warriors","trendMapped":"warriors","trendVolume":372881},{"stateName":"MD","trendName":"Will Smith","placeID":"2358820","placeName":"Baltimore","searchUrl":"http:\/\/twitter.com\/search?q=%22Will+Smith%22","trendMapped":"Will+Smith","trendVolume":289677},{"stateName":"MI","trendName":"#Hearties","placeID":"2391585","placeName":"Detroit","searchUrl":"http:\/\/twitter.com\/search?q=%23Hearties","trendMapped":"hearties","trendVolume":195533},{"stateName":"MI","trendName":"#MovieAwards","placeID":"2391585","placeName":"Detroit","searchUrl":"http:\/\/twitter.com\/search?q=%23MovieAwards","trendMapped":"movie+awards","trendVolume":161457},{"stateName":"MI","trendName":"#NationalSiblingsDay","placeID":"2391585","placeName":"Detroit","searchUrl":"http:\/\/twitter.com\/search?q=%23NationalSiblingsDay","trendMapped":"national+siblings+day","trendVolume":346620},{"stateName":"MI","trendName":"Warriors","placeID":"2391585","placeName":"Detroit","searchUrl":"http:\/\/twitter.com\/search?q=Warriors","trendMapped":"warriors","trendVolume":411634},{"stateName":"MN","trendName":"#BBMAs","placeID":"2452078","placeName":"Minneapolis","searchUrl":"http:\/\/twitter.com\/search?q=%23BBMAs","trendMapped":"bbm+as","trendVolume":172211},{"stateName":"MN","trendName":"#FearTWD","placeID":"2452078","placeName":"Minneapolis","searchUrl":"http:\/\/twitter.com\/search?q=%23FearTWD","trendMapped":"fear+twd","trendVolume":149551},{"stateName":"MN","trendName":"#MTVMovieAwards","placeID":"2452078","placeName":"Minneapolis","searchUrl":"http:\/\/twitter.com\/search?q=%23MTVMovieAwards","trendMapped":"mtv+movie+awards","trendVolume":125897},{"stateName":"MN","trendName":"#NationalSiblingsDay","placeID":"2452078","placeName":"Minneapolis","searchUrl":"http:\/\/twitter.com\/search?q=%23NationalSiblingsDay","trendMapped":"national+siblings+day","trendVolume":358250},{"stateName":"MN","trendName":"Make Me","placeID":"2452078","placeName":"Minneapolis","searchUrl":"http:\/\/twitter.com\/search?q=%22Make+Me%22","trendMapped":"Make+Me","trendVolume":171329},{"stateName":"MN","trendName":"Warriors","placeID":"2452078","placeName":"Minneapolis","searchUrl":"http:\/\/twitter.com\/search?q=Warriors","trendMapped":"warriors","trendVolume":361181},{"stateName":"MO","trendName":"#BBMAs","placeID":"2486982","placeName":"St. Louis","searchUrl":"http:\/\/twitter.com\/search?q=%23BBMAs","trendMapped":"bbm+as","trendVolume":204496},{"stateName":"MO","trendName":"#NationalPetDay","placeID":"2486982","placeName":"St. Louis","searchUrl":"http:\/\/twitter.com\/search?q=%23NationalPetDay","trendMapped":"national+pet+day","trendVolume":192977},{"stateName":"MO","trendName":"#NationalSiblingsDay","placeID":"2486982","placeName":"St. Louis","searchUrl":"http:\/\/twitter.com\/search?q=%23NationalSiblingsDay","trendMapped":"national+siblings+day","trendVolume":359821},{"stateName":"MO","trendName":"Make Me","placeID":"2486982","placeName":"St. Louis","searchUrl":"http:\/\/twitter.com\/search?q=%22Make+Me%22","trendMapped":"Make+Me","trendVolume":168309},{"stateName":"MO","trendName":"Spurs","placeID":"2486982","placeName":"St. Louis","searchUrl":"http:\/\/twitter.com\/search?q=Spurs","trendMapped":"spurs","trendVolume":318147},{"stateName":"MO","trendName":"Warriors","placeID":"2486982","placeName":"St. Louis","searchUrl":"http:\/\/twitter.com\/search?q=Warriors","trendMapped":"warriors","trendVolume":376346},{"stateName":"MS","trendName":"#BBMAs","placeID":"2428184","placeName":"Jackson","searchUrl":"http:\/\/twitter.com\/search?q=%23BBMAs","trendMapped":"bbm+as","trendVolume":201251},{"stateName":"MS","trendName":"#NationalPetDay","placeID":"2428184","placeName":"Jackson","searchUrl":"http:\/\/twitter.com\/search?q=%23NationalPetDay","trendMapped":"national+pet+day","trendVolume":192977},{"stateName":"MS","trendName":"#NationalSiblingsDay","placeID":"2428184","placeName":"Jackson","searchUrl":"http:\/\/twitter.com\/search?q=%23NationalSiblingsDay","trendMapped":"national+siblings+day","trendVolume":359821},{"stateName":"MS","trendName":"Make Me","placeID":"2428184","placeName":"Jackson","searchUrl":"http:\/\/twitter.com\/search?q=%22Make+Me%22","trendMapped":"Make+Me","trendVolume":171329},{"stateName":"MS","trendName":"Warriors","placeID":"2428184","placeName":"Jackson","searchUrl":"http:\/\/twitter.com\/search?q=Warriors","trendMapped":"warriors","trendVolume":373003},{"stateName":"NC","trendName":"#BBMAs","placeID":"2378426","placeName":"Charlotte","searchUrl":"http:\/\/twitter.com\/search?q=%23BBMAs","trendMapped":"bbm+as","trendVolume":199961},{"stateName":"NC","trendName":"#MTVMovieAwards","placeID":"2478307","placeName":"Raleigh","searchUrl":"http:\/\/twitter.com\/search?q=%23MTVMovieAwards","trendMapped":"mtv+movie+awards","trendVolume":121264},{"stateName":"NC","trendName":"#NationalPetDay","placeID":"2378426","placeName":"Charlotte","searchUrl":"http:\/\/twitter.com\/search?q=%23NationalPetDay","trendMapped":"national+pet+day","trendVolume":198261},{"stateName":"NC","trendName":"Make Me","placeID":"2378426","placeName":"Charlotte","searchUrl":"http:\/\/twitter.com\/search?q=%22Make+Me%22","trendMapped":"Make+Me","trendVolume":166096},{"stateName":"NC","trendName":"Spieth","placeID":"2378426","placeName":"Charlotte","searchUrl":"http:\/\/twitter.com\/search?q=Spieth","trendMapped":"spieth","trendVolume":266625},{"stateName":"NC","trendName":"Spurs","placeID":"2478307","placeName":"Raleigh","searchUrl":"http:\/\/twitter.com\/search?q=Spurs","trendMapped":"spurs","trendVolume":303345},{"stateName":"NC","trendName":"Warriors","placeID":"2478307","placeName":"Raleigh","searchUrl":"http:\/\/twitter.com\/search?q=Warriors","trendMapped":"warriors","trendVolume":408521},{"stateName":"NE","trendName":"#NationalSiblingsDay","placeID":"2465512","placeName":"Omaha","searchUrl":"http:\/\/twitter.com\/search?q=%23NationalSiblingsDay","trendMapped":"national+siblings+day","trendVolume":349865},{"stateName":"NE","trendName":"Warriors","placeID":"2465512","placeName":"Omaha","searchUrl":"http:\/\/twitter.com\/search?q=Warriors","trendMapped":"warriors","trendVolume":411068},{"stateName":"NM","trendName":"#BBMAs","placeID":"2352824","placeName":"Albuquerque","searchUrl":"http:\/\/twitter.com\/search?q=%23BBMAs","trendMapped":"bbm+as","trendVolume":204496},{"stateName":"NM","trendName":"#MTVMovieAwards","placeID":"2352824","placeName":"Albuquerque","searchUrl":"http:\/\/twitter.com\/search?q=%23MTVMovieAwards","trendMapped":"mtv+movie+awards","trendVolume":110341},{"stateName":"NM","trendName":"#NationalPetDay","placeID":"2352824","placeName":"Albuquerque","searchUrl":"http:\/\/twitter.com\/search?q=%23NationalPetDay","trendMapped":"national+pet+day","trendVolume":187704},{"stateName":"NM","trendName":"#TheMasters","placeID":"2352824","placeName":"Albuquerque","searchUrl":"http:\/\/twitter.com\/search?q=%23TheMasters","trendMapped":"the+masters","trendVolume":136883},{"stateName":"NM","trendName":"#mondaymotivation","placeID":"2352824","placeName":"Albuquerque","searchUrl":"http:\/\/twitter.com\/search?q=%23mondaymotivation","trendMapped":"mondaymotivation","trendVolume":68351},{"stateName":"NM","trendName":"Hiroshima","placeID":"2352824","placeName":"Albuquerque","searchUrl":"http:\/\/twitter.com\/search?q=Hiroshima","trendMapped":"hiroshima","trendVolume":57276},{"stateName":"NM","trendName":"Make Me","placeID":"2352824","placeName":"Albuquerque","searchUrl":"http:\/\/twitter.com\/search?q=%22Make+Me%22","trendMapped":"Make+Me","trendVolume":172743},{"stateName":"NM","trendName":"Warriors","placeID":"2352824","placeName":"Albuquerque","searchUrl":"http:\/\/twitter.com\/search?q=Warriors","trendMapped":"warriors","trendVolume":371838},{"stateName":"NV","trendName":"Warriors","placeID":"2436704","placeName":"Las Vegas","searchUrl":"http:\/\/twitter.com\/search?q=Warriors","trendMapped":"warriors","trendVolume":409002},{"stateName":"NY","trendName":"#BBMAs","placeID":"2459115","placeName":"New York","searchUrl":"http:\/\/twitter.com\/search?q=%23BBMAs","trendMapped":"bbm+as","trendVolume":206747},{"stateName":"NY","trendName":"#MTVMovieAwards","placeID":"2459115","placeName":"New York","searchUrl":"http:\/\/twitter.com\/search?q=%23MTVMovieAwards","trendMapped":"mtv+movie+awards","trendVolume":128802},{"stateName":"NY","trendName":"#NationalPetDay","placeID":"2459115","placeName":"New York","searchUrl":"http:\/\/twitter.com\/search?q=%23NationalPetDay","trendMapped":"national+pet+day","trendVolume":198261},{"stateName":"NY","trendName":"#TheMasters","placeID":"2459115","placeName":"New York","searchUrl":"http:\/\/twitter.com\/search?q=%23TheMasters","trendMapped":"the+masters","trendVolume":134725},{"stateName":"NY","trendName":"#mondaymotivation","placeID":"2459115","placeName":"New York","searchUrl":"http:\/\/twitter.com\/search?q=%23mondaymotivation","trendMapped":"mondaymotivation","trendVolume":60769},{"stateName":"NY","trendName":"Warriors","placeID":"2459115","placeName":"New York","searchUrl":"http:\/\/twitter.com\/search?q=Warriors","trendMapped":"warriors","trendVolume":351336},{"stateName":"OH","trendName":"#NationalPetDay","placeID":"2380358","placeName":"Cincinnati","searchUrl":"http:\/\/twitter.com\/search?q=%23NationalPetDay","trendMapped":"national+pet+day","trendVolume":192977},{"stateName":"OH","trendName":"#NationalSiblingsDay","placeID":"2381475","placeName":"Cleveland","searchUrl":"http:\/\/twitter.com\/search?q=%23NationalSiblingsDay","trendMapped":"national+siblings+day","trendVolume":357952},{"stateName":"OH","trendName":"Jordan","placeID":"2380358","placeName":"Cincinnati","searchUrl":"http:\/\/twitter.com\/search?q=Jordan","trendMapped":"jordan","trendVolume":352272},{"stateName":"OH","trendName":"Spieth","placeID":"2381475","placeName":"Cleveland","searchUrl":"http:\/\/twitter.com\/search?q=Spieth","trendMapped":"spieth","trendVolume":222050},{"stateName":"OH","trendName":"Warriors","placeID":"2383660","placeName":"Columbus","searchUrl":"http:\/\/twitter.com\/search?q=Warriors","trendMapped":"warriors","trendVolume":410026},{"stateName":"OH","trendName":"Will Smith","placeID":"2383660","placeName":"Columbus","searchUrl":"http:\/\/twitter.com\/search?q=%22Will+Smith%22","trendMapped":"Will+Smith","trendVolume":299128},{"stateName":"OK","trendName":"#NationalSiblingsDay","placeID":"2464592","placeName":"Oklahoma City","searchUrl":"http:\/\/twitter.com\/search?q=%23NationalSiblingsDay","trendMapped":"national+siblings+day","trendVolume":359821},{"stateName":"OK","trendName":"Kobe","placeID":"2464592","placeName":"Oklahoma City","searchUrl":"http:\/\/twitter.com\/search?q=Kobe","trendMapped":"kobe","trendVolume":212088},{"stateName":"OK","trendName":"Warriors","placeID":"2464592","placeName":"Oklahoma City","searchUrl":"http:\/\/twitter.com\/search?q=Warriors","trendMapped":"warriors","trendVolume":399311},{"stateName":"OR","trendName":"#Hearties","placeID":"2475687","placeName":"Portland","searchUrl":"http:\/\/twitter.com\/search?q=%23Hearties","trendMapped":"hearties","trendVolume":230395},{"stateName":"OR","trendName":"#Masters2016","placeID":"2475687","placeName":"Portland","searchUrl":"http:\/\/twitter.com\/search?q=%23Masters2016","trendMapped":"masters2016","trendVolume":90614},{"stateName":"OR","trendName":"#NationalSiblingsDay","placeID":"2475687","placeName":"Portland","searchUrl":"http:\/\/twitter.com\/search?q=%23NationalSiblingsDay","trendMapped":"national+siblings+day","trendVolume":359208},{"stateName":"OR","trendName":"Warriors","placeID":"2475687","placeName":"Portland","searchUrl":"http:\/\/twitter.com\/search?q=Warriors","trendMapped":"warriors","trendVolume":376346},{"stateName":"PA","trendName":"#BBMAs","placeID":"2473224","placeName":"Pittsburgh","searchUrl":"http:\/\/twitter.com\/search?q=%23BBMAs","trendMapped":"bbm+as","trendVolume":204496},{"stateName":"PA","trendName":"#FearTWD","placeID":"2471217","placeName":"Philadelphia","searchUrl":"http:\/\/twitter.com\/search?q=%23FearTWD","trendMapped":"fear+twd","trendVolume":150996},{"stateName":"PA","trendName":"#Hearties","placeID":"2471217","placeName":"Philadelphia","searchUrl":"http:\/\/twitter.com\/search?q=%23Hearties","trendMapped":"hearties","trendVolume":229278},{"stateName":"PA","trendName":"#MTVMovieAwards","placeID":"2471217","placeName":"Philadelphia","searchUrl":"http:\/\/twitter.com\/search?q=%23MTVMovieAwards","trendMapped":"mtv+movie+awards","trendVolume":140548},{"stateName":"PA","trendName":"#MovieAwards","placeID":"2471217","placeName":"Philadelphia","searchUrl":"http:\/\/twitter.com\/search?q=%23MovieAwards","trendMapped":"movie+awards","trendVolume":137994},{"stateName":"PA","trendName":"#NationalPetDay","placeID":"2471217","placeName":"Philadelphia","searchUrl":"http:\/\/twitter.com\/search?q=%23NationalPetDay","trendMapped":"national+pet+day","trendVolume":198261},{"stateName":"PA","trendName":"#NationalSiblingsDay","placeID":"2471217","placeName":"Philadelphia","searchUrl":"http:\/\/twitter.com\/search?q=%23NationalSiblingsDay","trendMapped":"national+siblings+day","trendVolume":357942},{"stateName":"PA","trendName":"#TheMasters","placeID":"2473224","placeName":"Pittsburgh","searchUrl":"http:\/\/twitter.com\/search?q=%23TheMasters","trendMapped":"the+masters","trendVolume":136382},{"stateName":"PA","trendName":"Donald Trump","placeID":"2418046","placeName":"Harrisburg","searchUrl":"http:\/\/twitter.com\/search?q=%22Donald+Trump%22","trendMapped":"Donald+Trump","trendVolume":185157},{"stateName":"PA","trendName":"Hiroshima","placeID":"2471217","placeName":"Philadelphia","searchUrl":"http:\/\/twitter.com\/search?q=Hiroshima","trendMapped":"hiroshima","trendVolume":54737},{"stateName":"PA","trendName":"House","placeID":"2418046","placeName":"Harrisburg","searchUrl":"http:\/\/twitter.com\/search?q=House","trendMapped":"house","trendVolume":460976},{"stateName":"PA","trendName":"Jordan","placeID":"2473224","placeName":"Pittsburgh","searchUrl":"http:\/\/twitter.com\/search?q=Jordan","trendMapped":"jordan","trendVolume":335374},{"stateName":"PA","trendName":"Make Me","placeID":"2473224","placeName":"Pittsburgh","searchUrl":"http:\/\/twitter.com\/search?q=%22Make+Me%22","trendMapped":"Make+Me","trendVolume":171329},{"stateName":"PA","trendName":"Spieth","placeID":"2471217","placeName":"Philadelphia","searchUrl":"http:\/\/twitter.com\/search?q=Spieth","trendMapped":"spieth","trendVolume":242803},{"stateName":"PA","trendName":"Spurs","placeID":"2473224","placeName":"Pittsburgh","searchUrl":"http:\/\/twitter.com\/search?q=Spurs","trendMapped":"spurs","trendVolume":341630},{"stateName":"PA","trendName":"Warriors","placeID":"2473224","placeName":"Pittsburgh","searchUrl":"http:\/\/twitter.com\/search?q=Warriors","trendMapped":"warriors","trendVolume":377815},{"stateName":"PA","trendName":"Will Smith","placeID":"2473224","placeName":"Pittsburgh","searchUrl":"http:\/\/twitter.com\/search?q=%22Will+Smith%22","trendMapped":"Will+Smith","trendVolume":243903},{"stateName":"RI","trendName":"#NationalSiblingsDay","placeID":"2477058","placeName":"Providence","searchUrl":"http:\/\/twitter.com\/search?q=%23NationalSiblingsDay","trendMapped":"national+siblings+day","trendVolume":353723},{"stateName":"RI","trendName":"Make Me","placeID":"2477058","placeName":"Providence","searchUrl":"http:\/\/twitter.com\/search?q=%22Make+Me%22","trendMapped":"Make+Me","trendVolume":171329},{"stateName":"RI","trendName":"Spieth","placeID":"2477058","placeName":"Providence","searchUrl":"http:\/\/twitter.com\/search?q=Spieth","trendMapped":"spieth","trendVolume":266413},{"stateName":"RI","trendName":"Spurs","placeID":"2477058","placeName":"Providence","searchUrl":"http:\/\/twitter.com\/search?q=Spurs","trendMapped":"spurs","trendVolume":283859},{"stateName":"RI","trendName":"Warriors","placeID":"2477058","placeName":"Providence","searchUrl":"http:\/\/twitter.com\/search?q=Warriors","trendMapped":"warriors","trendVolume":386539},{"stateName":"TN","trendName":"#BBMAs","placeID":"2457170","placeName":"Nashville","searchUrl":"http:\/\/twitter.com\/search?q=%23BBMAs","trendMapped":"bbm+as","trendVolume":143752},{"stateName":"TN","trendName":"#NationalPetDay","placeID":"2457170","placeName":"Nashville","searchUrl":"http:\/\/twitter.com\/search?q=%23NationalPetDay","trendMapped":"national+pet+day","trendVolume":171385},{"stateName":"TN","trendName":"Spieth","placeID":"2457170","placeName":"Nashville","searchUrl":"http:\/\/twitter.com\/search?q=Spieth","trendMapped":"spieth","trendVolume":262131},{"stateName":"TN","trendName":"Spurs","placeID":"2457170","placeName":"Nashville","searchUrl":"http:\/\/twitter.com\/search?q=Spurs","trendMapped":"spurs","trendVolume":336569},{"stateName":"TN","trendName":"Warriors","placeID":"2457170","placeName":"Nashville","searchUrl":"http:\/\/twitter.com\/search?q=Warriors","trendMapped":"warriors","trendVolume":410026},{"stateName":"TN","trendName":"Will Smith","placeID":"2457170","placeName":"Nashville","searchUrl":"http:\/\/twitter.com\/search?q=%22Will+Smith%22","trendMapped":"Will+Smith","trendVolume":292792},{"stateName":"TX","trendName":"#BBMAs","placeID":"2424766","placeName":"Houston","searchUrl":"http:\/\/twitter.com\/search?q=%23BBMAs","trendMapped":"bbm+as","trendVolume":204496},{"stateName":"TX","trendName":"#Hearties","placeID":"2388929","placeName":"Dallas-Ft. Worth","searchUrl":"http:\/\/twitter.com\/search?q=%23Hearties","trendMapped":"hearties","trendVolume":213099},{"stateName":"TX","trendName":"#Masters2016","placeID":"2357536","placeName":"Austin","searchUrl":"http:\/\/twitter.com\/search?q=%23Masters2016","trendMapped":"masters2016","trendVolume":80629},{"stateName":"TX","trendName":"#NationalPetDay","placeID":"2424766","placeName":"Houston","searchUrl":"http:\/\/twitter.com\/search?q=%23NationalPetDay","trendMapped":"national+pet+day","trendVolume":198261},{"stateName":"TX","trendName":"#NationalSiblingsDay","placeID":"2424766","placeName":"Houston","searchUrl":"http:\/\/twitter.com\/search?q=%23NationalSiblingsDay","trendMapped":"national+siblings+day","trendVolume":358250},{"stateName":"TX","trendName":"Kobe","placeID":"2424766","placeName":"Houston","searchUrl":"http:\/\/twitter.com\/search?q=Kobe","trendMapped":"kobe","trendVolume":250840},{"stateName":"TX","trendName":"Make Me","placeID":"2424766","placeName":"Houston","searchUrl":"http:\/\/twitter.com\/search?q=%22Make+Me%22","trendMapped":"Make+Me","trendVolume":167080},{"stateName":"TX","trendName":"Panama","placeID":"2397816","placeName":"El Paso","searchUrl":"http:\/\/twitter.com\/search?q=Panama","trendMapped":"panama","trendVolume":329306},{"stateName":"TX","trendName":"Spieth","placeID":"2487796","placeName":"San Antonio","searchUrl":"http:\/\/twitter.com\/search?q=Spieth","trendMapped":"spieth","trendVolume":265706},{"stateName":"TX","trendName":"Spurs","placeID":"2424766","placeName":"Houston","searchUrl":"http:\/\/twitter.com\/search?q=Spurs","trendMapped":"spurs","trendVolume":324105},{"stateName":"TX","trendName":"Warriors","placeID":"2487796","placeName":"San Antonio","searchUrl":"http:\/\/twitter.com\/search?q=Warriors","trendMapped":"warriors","trendVolume":410026},{"stateName":"TX","trendName":"Will Smith","placeID":"2487796","placeName":"San Antonio","searchUrl":"http:\/\/twitter.com\/search?q=%22Will+Smith%22","trendMapped":"Will+Smith","trendVolume":287429},{"stateName":"UT","trendName":"#NationalPetDay","placeID":"2487610","placeName":"Salt Lake City","searchUrl":"http:\/\/twitter.com\/search?q=%23NationalPetDay","trendMapped":"national+pet+day","trendVolume":198261},{"stateName":"UT","trendName":"#NationalSiblingsDay","placeID":"2487610","placeName":"Salt Lake City","searchUrl":"http:\/\/twitter.com\/search?q=%23NationalSiblingsDay","trendMapped":"national+siblings+day","trendVolume":233427},{"stateName":"UT","trendName":"Spieth","placeID":"2487610","placeName":"Salt Lake City","searchUrl":"http:\/\/twitter.com\/search?q=Spieth","trendMapped":"spieth","trendVolume":253197},{"stateName":"UT","trendName":"Warriors","placeID":"2487610","placeName":"Salt Lake City","searchUrl":"http:\/\/twitter.com\/search?q=Warriors","trendMapped":"warriors","trendVolume":408521},{"stateName":"VA","trendName":"#BBMAs","placeID":"2512636","placeName":"Virginia Beach","searchUrl":"http:\/\/twitter.com\/search?q=%23BBMAs","trendMapped":"bbm+as","trendVolume":192146},{"stateName":"VA","trendName":"#MTVMovieAwards","placeID":"2512636","placeName":"Virginia Beach","searchUrl":"http:\/\/twitter.com\/search?q=%23MTVMovieAwards","trendMapped":"mtv+movie+awards","trendVolume":110341},{"stateName":"VA","trendName":"#NationalPetDay","placeID":"2512636","placeName":"Virginia Beach","searchUrl":"http:\/\/twitter.com\/search?q=%23NationalPetDay","trendMapped":"national+pet+day","trendVolume":198261},{"stateName":"VA","trendName":"#NationalSiblingsDay","placeID":"2480894","placeName":"Richmond","searchUrl":"http:\/\/twitter.com\/search?q=%23NationalSiblingsDay","trendMapped":"national+siblings+day","trendVolume":357021},{"stateName":"VA","trendName":"#TheMasters","placeID":"2512636","placeName":"Virginia Beach","searchUrl":"http:\/\/twitter.com\/search?q=%23TheMasters","trendMapped":"the+masters","trendVolume":137224},{"stateName":"VA","trendName":"Hiroshima","placeID":"2512636","placeName":"Virginia Beach","searchUrl":"http:\/\/twitter.com\/search?q=Hiroshima","trendMapped":"hiroshima","trendVolume":57458},{"stateName":"VA","trendName":"Jordan","placeID":"2480894","placeName":"Richmond","searchUrl":"http:\/\/twitter.com\/search?q=Jordan","trendMapped":"jordan","trendVolume":351302},{"stateName":"VA","trendName":"Spieth","placeID":"2480894","placeName":"Richmond","searchUrl":"http:\/\/twitter.com\/search?q=Spieth","trendMapped":"spieth","trendVolume":265478},{"stateName":"VA","trendName":"Spurs","placeID":"2512636","placeName":"Virginia Beach","searchUrl":"http:\/\/twitter.com\/search?q=Spurs","trendMapped":"spurs","trendVolume":311722},{"stateName":"VA","trendName":"Warriors","placeID":"2512636","placeName":"Virginia Beach","searchUrl":"http:\/\/twitter.com\/search?q=Warriors","trendMapped":"warriors","trendVolume":408298},{"stateName":"WA","trendName":"#BBMAs","placeID":"2490383","placeName":"Seattle","searchUrl":"http:\/\/twitter.com\/search?q=%23BBMAs","trendMapped":"bbm+as","trendVolume":204496},{"stateName":"WA","trendName":"#Hearties","placeID":"2490383","placeName":"Seattle","searchUrl":"http:\/\/twitter.com\/search?q=%23Hearties","trendMapped":"hearties","trendVolume":191533},{"stateName":"WA","trendName":"#MTVMovieAwards","placeID":"2490383","placeName":"Seattle","searchUrl":"http:\/\/twitter.com\/search?q=%23MTVMovieAwards","trendMapped":"mtv+movie+awards","trendVolume":127088},{"stateName":"WA","trendName":"#NationalPetDay","placeID":"2490383","placeName":"Seattle","searchUrl":"http:\/\/twitter.com\/search?q=%23NationalPetDay","trendMapped":"national+pet+day","trendVolume":182510},{"stateName":"WA","trendName":"#NationalSiblingsDay","placeID":"2490383","placeName":"Seattle","searchUrl":"http:\/\/twitter.com\/search?q=%23NationalSiblingsDay","trendMapped":"national+siblings+day","trendVolume":353723},{"stateName":"WA","trendName":"Make Me","placeID":"2490383","placeName":"Seattle","searchUrl":"http:\/\/twitter.com\/search?q=%22Make+Me%22","trendMapped":"Make+Me","trendVolume":169236},{"stateName":"WA","trendName":"Spurs","placeID":"2490383","placeName":"Seattle","searchUrl":"http:\/\/twitter.com\/search?q=Spurs","trendMapped":"spurs","trendVolume":315131},{"stateName":"WA","trendName":"Warriors","placeID":"2490383","placeName":"Seattle","searchUrl":"http:\/\/twitter.com\/search?q=Warriors","trendMapped":"warriors","trendVolume":376810},{"stateName":"WI","trendName":"#NationalPetDay","placeID":"2451822","placeName":"Milwaukee","searchUrl":"http:\/\/twitter.com\/search?q=%23NationalPetDay","trendMapped":"national+pet+day","trendVolume":178350},{"stateName":"WI","trendName":"#NationalSiblingsDay","placeID":"2451822","placeName":"Milwaukee","searchUrl":"http:\/\/twitter.com\/search?q=%23NationalSiblingsDay","trendMapped":"national+siblings+day","trendVolume":273712},{"stateName":"WI","trendName":"Jordan","placeID":"2451822","placeName":"Milwaukee","searchUrl":"http:\/\/twitter.com\/search?q=Jordan","trendMapped":"jordan","trendVolume":335374},{"stateName":"WI","trendName":"Make Me","placeID":"2451822","placeName":"Milwaukee","searchUrl":"http:\/\/twitter.com\/search?q=%22Make+Me%22","trendMapped":"Make+Me","trendVolume":171329},{"stateName":"WI","trendName":"Spieth","placeID":"2451822","placeName":"Milwaukee","searchUrl":"http:\/\/twitter.com\/search?q=Spieth","trendMapped":"spieth","trendVolume":250539},{"stateName":"WI","trendName":"Warriors","placeID":"2451822","placeName":"Milwaukee","searchUrl":"http:\/\/twitter.com\/search?q=Warriors","trendMapped":"warriors","trendVolume":377815},{"stateName":"XX","trendName":"#BBMAs","placeID":"23424977","placeName":"United States","searchUrl":"http:\/\/twitter.com\/search?q=%23BBMAs","trendMapped":"bbm+as","trendVolume":206747},{"stateName":"XX","trendName":"#Hearties","placeID":"23424977","placeName":"United States","searchUrl":"http:\/\/twitter.com\/search?q=%23Hearties","trendMapped":"hearties","trendVolume":227267},{"stateName":"XX","trendName":"#MTVMovieAwards","placeID":"23424977","placeName":"United States","searchUrl":"http:\/\/twitter.com\/search?q=%23MTVMovieAwards","trendMapped":"mtv+movie+awards","trendVolume":110341},{"stateName":"XX","trendName":"#TheMasters","placeID":"23424977","placeName":"United States","searchUrl":"http:\/\/twitter.com\/search?q=%23TheMasters","trendMapped":"the+masters","trendVolume":137224},{"stateName":"XX","trendName":"Make Me","placeID":"23424977","placeName":"United States","searchUrl":"http:\/\/twitter.com\/search?q=%22Make+Me%22","trendMapped":"Make+Me","trendVolume":168309},{"stateName":"XX","trendName":"Spurs","placeID":"23424977","placeName":"United States","searchUrl":"http:\/\/twitter.com\/search?q=Spurs","trendMapped":"spurs","trendVolume":311453},{"stateName":"XX","trendName":"Warriors","placeID":"23424977","placeName":"United States","searchUrl":"http:\/\/twitter.com\/search?q=Warriors","trendMapped":"warriors","trendVolume":347443}]