[{"stateName":"AL","trendName":"#HalaMadrid","placeID":"2364559","placeName":"Birmingham","searchUrl":"http:\/\/twitter.com\/search?q=%23HalaMadrid","trendMapped":"hala+madrid","trendVolume":378303},{"stateName":"AL","trendName":"#LHHATL","placeID":"2364559","placeName":"Birmingham","searchUrl":"http:\/\/twitter.com\/search?q=%23LHHATL","trendMapped":"lhhatl","trendVolume":129508},{"stateName":"AL","trendName":"#NationalPetDay","placeID":"2364559","placeName":"Birmingham","searchUrl":"http:\/\/twitter.com\/search?q=%23NationalPetDay","trendMapped":"national+pet+day","trendVolume":264617},{"stateName":"AL","trendName":"Kobe","placeID":"2364559","placeName":"Birmingham","searchUrl":"http:\/\/twitter.com\/search?q=Kobe","trendMapped":"kobe","trendVolume":302678},{"stateName":"AZ","trendName":"#DemocracySpring","placeID":"2508428","placeName":"Tucson","searchUrl":"http:\/\/twitter.com\/search?q=%23DemocracySpring","trendMapped":"democracy+spring","trendVolume":136689},{"stateName":"AZ","trendName":"#EqualPayDay","placeID":"2508428","placeName":"Tucson","searchUrl":"http:\/\/twitter.com\/search?q=%23EqualPayDay","trendMapped":"equal+pay+day","trendVolume":109858},{"stateName":"AZ","trendName":"#HalaMadrid","placeID":"2508428","placeName":"Tucson","searchUrl":"http:\/\/twitter.com\/search?q=%23HalaMadrid","trendMapped":"hala+madrid","trendVolume":395471},{"stateName":"AZ","trendName":"#LHHATL","placeID":"2508428","placeName":"Tucson","searchUrl":"http:\/\/twitter.com\/search?q=%23LHHATL","trendMapped":"lhhatl","trendVolume":115572},{"stateName":"AZ","trendName":"#NationalPetDay","placeID":"2508428","placeName":"Tucson","searchUrl":"http:\/\/twitter.com\/search?q=%23NationalPetDay","trendMapped":"national+pet+day","trendVolume":260015},{"stateName":"AZ","trendName":"#SultanTeaser","placeID":"2449808","placeName":"Mesa","searchUrl":"http:\/\/twitter.com\/search?q=%23SultanTeaser","trendMapped":"sultan+teaser","trendVolume":60607},{"stateName":"AZ","trendName":"Arden","placeID":"2508428","placeName":"Tucson","searchUrl":"http:\/\/twitter.com\/search?q=Arden","trendMapped":"arden","trendVolume":100017},{"stateName":"AZ","trendName":"HTC 10","placeID":"2508428","placeName":"Tucson","searchUrl":"http:\/\/twitter.com\/search?q=%22HTC+10%22","trendMapped":"HTC+10","trendVolume":65768},{"stateName":"AZ","trendName":"House","placeID":"2471390","placeName":"Phoenix","searchUrl":"http:\/\/twitter.com\/search?q=House","trendMapped":"house","trendVolume":471225},{"stateName":"AZ","trendName":"Kobe","placeID":"2449808","placeName":"Mesa","searchUrl":"http:\/\/twitter.com\/search?q=Kobe","trendMapped":"kobe","trendVolume":255233},{"stateName":"CA","trendName":"#DemocracySpring","placeID":"2488042","placeName":"San Jose","searchUrl":"http:\/\/twitter.com\/search?q=%23DemocracySpring","trendMapped":"democracy+spring","trendVolume":168038},{"stateName":"CA","trendName":"#EqualPayDay","placeID":"2488042","placeName":"San Jose","searchUrl":"http:\/\/twitter.com\/search?q=%23EqualPayDay","trendMapped":"equal+pay+day","trendVolume":109858},{"stateName":"CA","trendName":"#HalaMadrid","placeID":"2488042","placeName":"San Jose","searchUrl":"http:\/\/twitter.com\/search?q=%23HalaMadrid","trendMapped":"hala+madrid","trendVolume":396552},{"stateName":"CA","trendName":"#LHHATL","placeID":"2488042","placeName":"San Jose","searchUrl":"http:\/\/twitter.com\/search?q=%23LHHATL","trendMapped":"lhhatl","trendVolume":122484},{"stateName":"CA","trendName":"#NationalPetDay","placeID":"2487889","placeName":"San Diego","searchUrl":"http:\/\/twitter.com\/search?q=%23NationalPetDay","trendMapped":"national+pet+day","trendVolume":264855},{"stateName":"CA","trendName":"#SultanTeaser","placeID":"2488042","placeName":"San Jose","searchUrl":"http:\/\/twitter.com\/search?q=%23SultanTeaser","trendMapped":"sultan+teaser","trendVolume":62570},{"stateName":"CA","trendName":"#mondaymotivation","placeID":"2442047","placeName":"Los Angeles","searchUrl":"http:\/\/twitter.com\/search?q=%23mondaymotivation","trendMapped":"mondaymotivation","trendVolume":84619},{"stateName":"CA","trendName":"Cristiano","placeID":"2487956","placeName":"San Francisco","searchUrl":"http:\/\/twitter.com\/search?q=Cristiano","trendMapped":"cristiano","trendVolume":763192},{"stateName":"CA","trendName":"Cristiano Ronaldo","placeID":"2487956","placeName":"San Francisco","searchUrl":"http:\/\/twitter.com\/search?q=%22Cristiano+Ronaldo%22","trendMapped":"Cristiano+Ronaldo","trendVolume":254540},{"stateName":"CA","trendName":"Donald Trump","placeID":"2486340","placeName":"Sacramento","searchUrl":"http:\/\/twitter.com\/search?q=%22Donald+Trump%22","trendMapped":"Donald+Trump","trendVolume":207464},{"stateName":"CA","trendName":"HTC 10","placeID":"2442047","placeName":"Los Angeles","searchUrl":"http:\/\/twitter.com\/search?q=%22HTC+10%22","trendMapped":"HTC+10","trendVolume":65294},{"stateName":"CA","trendName":"Island","placeID":"2487956","placeName":"San Francisco","searchUrl":"http:\/\/twitter.com\/search?q=Island","trendMapped":"island","trendVolume":133253},{"stateName":"CA","trendName":"Kobe","placeID":"2487889","placeName":"San Diego","searchUrl":"http:\/\/twitter.com\/search?q=Kobe","trendMapped":"kobe","trendVolume":299705},{"stateName":"CA","trendName":"Warriors","placeID":"2486340","placeName":"Sacramento","searchUrl":"http:\/\/twitter.com\/search?q=Warriors","trendMapped":"warriors","trendVolume":365380},{"stateName":"CA","trendName":"Wolfsburg","placeID":"2487956","placeName":"San Francisco","searchUrl":"http:\/\/twitter.com\/search?q=Wolfsburg","trendMapped":"wolfsburg","trendVolume":243610},{"stateName":"CO","trendName":"#DemocracySpring","placeID":"2391279","placeName":"Denver","searchUrl":"http:\/\/twitter.com\/search?q=%23DemocracySpring","trendMapped":"democracy+spring","trendVolume":165909},{"stateName":"CO","trendName":"#EqualPayDay","placeID":"2383489","placeName":"Colorado Springs","searchUrl":"http:\/\/twitter.com\/search?q=%23EqualPayDay","trendMapped":"equal+pay+day","trendVolume":113696},{"stateName":"CO","trendName":"#HalaMadrid","placeID":"2391279","placeName":"Denver","searchUrl":"http:\/\/twitter.com\/search?q=%23HalaMadrid","trendMapped":"hala+madrid","trendVolume":393050},{"stateName":"CO","trendName":"#KathrynThankfulAt20","placeID":"2383489","placeName":"Colorado Springs","searchUrl":"http:\/\/twitter.com\/search?q=%23KathrynThankfulAt20","trendMapped":"kathryn+thankful+at20","trendVolume":121110},{"stateName":"CO","trendName":"#LHHATL","placeID":"2383489","placeName":"Colorado Springs","searchUrl":"http:\/\/twitter.com\/search?q=%23LHHATL","trendMapped":"lhhatl","trendVolume":119146},{"stateName":"CO","trendName":"#NationalPetDay","placeID":"2391279","placeName":"Denver","searchUrl":"http:\/\/twitter.com\/search?q=%23NationalPetDay","trendMapped":"national+pet+day","trendVolume":265826},{"stateName":"CO","trendName":"#SultanTeaser","placeID":"2383489","placeName":"Colorado Springs","searchUrl":"http:\/\/twitter.com\/search?q=%23SultanTeaser","trendMapped":"sultan+teaser","trendVolume":62570},{"stateName":"CO","trendName":"Cristiano","placeID":"2391279","placeName":"Denver","searchUrl":"http:\/\/twitter.com\/search?q=Cristiano","trendMapped":"cristiano","trendVolume":469312},{"stateName":"CO","trendName":"HTC 10","placeID":"2383489","placeName":"Colorado Springs","searchUrl":"http:\/\/twitter.com\/search?q=%22HTC+10%22","trendMapped":"HTC+10","trendVolume":61270},{"stateName":"CO","trendName":"Jordan","placeID":"2391279","placeName":"Denver","searchUrl":"http:\/\/twitter.com\/search?q=Jordan","trendMapped":"jordan","trendVolume":209999},{"stateName":"CT","trendName":"#NationalPetDay","placeID":"2458410","placeName":"New Haven","searchUrl":"http:\/\/twitter.com\/search?q=%23NationalPetDay","trendMapped":"national+pet+day","trendVolume":265826},{"stateName":"CT","trendName":"Cristiano Ronaldo","placeID":"2458410","placeName":"New Haven","searchUrl":"http:\/\/twitter.com\/search?q=%22Cristiano+Ronaldo%22","trendMapped":"Cristiano+Ronaldo","trendVolume":271712},{"stateName":"CT","trendName":"Europe","placeID":"2458410","placeName":"New Haven","searchUrl":"http:\/\/twitter.com\/search?q=Europe","trendMapped":"europe","trendVolume":145233},{"stateName":"CT","trendName":"Kobe","placeID":"2458410","placeName":"New Haven","searchUrl":"http:\/\/twitter.com\/search?q=Kobe","trendMapped":"kobe","trendVolume":297529},{"stateName":"DC","trendName":"#HalaMadrid","placeID":"2514815","placeName":"Washington","searchUrl":"http:\/\/twitter.com\/search?q=%23HalaMadrid","trendMapped":"hala+madrid","trendVolume":318135},{"stateName":"DC","trendName":"#LHHATL","placeID":"2514815","placeName":"Washington","searchUrl":"http:\/\/twitter.com\/search?q=%23LHHATL","trendMapped":"lhhatl","trendVolume":122484},{"stateName":"DC","trendName":"#NationalPetDay","placeID":"2514815","placeName":"Washington","searchUrl":"http:\/\/twitter.com\/search?q=%23NationalPetDay","trendMapped":"national+pet+day","trendVolume":262654},{"stateName":"DC","trendName":"#SultanTeaser","placeID":"2514815","placeName":"Washington","searchUrl":"http:\/\/twitter.com\/search?q=%23SultanTeaser","trendMapped":"sultan+teaser","trendVolume":59802},{"stateName":"FL","trendName":"#EqualPayDay","placeID":"2503863","placeName":"Tampa","searchUrl":"http:\/\/twitter.com\/search?q=%23EqualPayDay","trendMapped":"equal+pay+day","trendVolume":97793},{"stateName":"FL","trendName":"#HalaMadrid","placeID":"2503713","placeName":"Tallahassee","searchUrl":"http:\/\/twitter.com\/search?q=%23HalaMadrid","trendMapped":"hala+madrid","trendVolume":378303},{"stateName":"FL","trendName":"#LHHATL","placeID":"2503863","placeName":"Tampa","searchUrl":"http:\/\/twitter.com\/search?q=%23LHHATL","trendMapped":"lhhatl","trendVolume":130552},{"stateName":"FL","trendName":"#NationalPetDay","placeID":"2503863","placeName":"Tampa","searchUrl":"http:\/\/twitter.com\/search?q=%23NationalPetDay","trendMapped":"national+pet+day","trendVolume":266182},{"stateName":"FL","trendName":"#TeamCap","placeID":"2466256","placeName":"Orlando","searchUrl":"http:\/\/twitter.com\/search?q=%23TeamCap","trendMapped":"team+cap","trendVolume":223006},{"stateName":"FL","trendName":"America","placeID":"2428344","placeName":"Jacksonville","searchUrl":"http:\/\/twitter.com\/search?q=America","trendMapped":"america","trendVolume":355068},{"stateName":"FL","trendName":"Cristiano","placeID":"2466256","placeName":"Orlando","searchUrl":"http:\/\/twitter.com\/search?q=Cristiano","trendMapped":"cristiano","trendVolume":362138},{"stateName":"FL","trendName":"HTC 10","placeID":"2503863","placeName":"Tampa","searchUrl":"http:\/\/twitter.com\/search?q=%22HTC+10%22","trendMapped":"HTC+10","trendVolume":65768},{"stateName":"FL","trendName":"Kobe","placeID":"2503863","placeName":"Tampa","searchUrl":"http:\/\/twitter.com\/search?q=Kobe","trendMapped":"kobe","trendVolume":310791},{"stateName":"FL","trendName":"Madrid","placeID":"2466256","placeName":"Orlando","searchUrl":"http:\/\/twitter.com\/search?q=Madrid","trendMapped":"madrid","trendVolume":952423},{"stateName":"FL","trendName":"Trump","placeID":"2503713","placeName":"Tallahassee","searchUrl":"http:\/\/twitter.com\/search?q=Trump","trendMapped":"trump","trendVolume":766385},{"stateName":"FL","trendName":"Warriors","placeID":"2503713","placeName":"Tallahassee","searchUrl":"http:\/\/twitter.com\/search?q=Warriors","trendMapped":"warriors","trendVolume":365380},{"stateName":"GA","trendName":"#HalaMadrid","placeID":"2357024","placeName":"Atlanta","searchUrl":"http:\/\/twitter.com\/search?q=%23HalaMadrid","trendMapped":"hala+madrid","trendVolume":186666},{"stateName":"GA","trendName":"#LHHATL","placeID":"2357024","placeName":"Atlanta","searchUrl":"http:\/\/twitter.com\/search?q=%23LHHATL","trendMapped":"lhhatl","trendVolume":129612},{"stateName":"GA","trendName":"#NationalPetDay","placeID":"2357024","placeName":"Atlanta","searchUrl":"http:\/\/twitter.com\/search?q=%23NationalPetDay","trendMapped":"national+pet+day","trendVolume":265110},{"stateName":"GA","trendName":"Cristiano","placeID":"2357024","placeName":"Atlanta","searchUrl":"http:\/\/twitter.com\/search?q=Cristiano","trendMapped":"cristiano","trendVolume":669051},{"stateName":"HI","trendName":"#DemocracySpring","placeID":"2423945","placeName":"Honolulu","searchUrl":"http:\/\/twitter.com\/search?q=%23DemocracySpring","trendMapped":"democracy+spring","trendVolume":132188},{"stateName":"HI","trendName":"#HalaMadrid","placeID":"2423945","placeName":"Honolulu","searchUrl":"http:\/\/twitter.com\/search?q=%23HalaMadrid","trendMapped":"hala+madrid","trendVolume":393050},{"stateName":"HI","trendName":"#LHHATL","placeID":"2423945","placeName":"Honolulu","searchUrl":"http:\/\/twitter.com\/search?q=%23LHHATL","trendMapped":"lhhatl","trendVolume":125225},{"stateName":"HI","trendName":"#NYPrimary","placeID":"2423945","placeName":"Honolulu","searchUrl":"http:\/\/twitter.com\/search?q=%23NYPrimary","trendMapped":"ny+primary","trendVolume":80945},{"stateName":"IL","trendName":"#EqualPayDay","placeID":"2379574","placeName":"Chicago","searchUrl":"http:\/\/twitter.com\/search?q=%23EqualPayDay","trendMapped":"equal+pay+day","trendVolume":97793},{"stateName":"IL","trendName":"#HalaMadrid","placeID":"2379574","placeName":"Chicago","searchUrl":"http:\/\/twitter.com\/search?q=%23HalaMadrid","trendMapped":"hala+madrid","trendVolume":395471},{"stateName":"IL","trendName":"#LHHATL","placeID":"2379574","placeName":"Chicago","searchUrl":"http:\/\/twitter.com\/search?q=%23LHHATL","trendMapped":"lhhatl","trendVolume":128433},{"stateName":"IL","trendName":"#NationalPetDay","placeID":"2379574","placeName":"Chicago","searchUrl":"http:\/\/twitter.com\/search?q=%23NationalPetDay","trendMapped":"national+pet+day","trendVolume":261153},{"stateName":"IL","trendName":"HTC 10","placeID":"2379574","placeName":"Chicago","searchUrl":"http:\/\/twitter.com\/search?q=%22HTC+10%22","trendMapped":"HTC+10","trendVolume":67404},{"stateName":"IN","trendName":"#EqualPayDay","placeID":"2427032","placeName":"Indianapolis","searchUrl":"http:\/\/twitter.com\/search?q=%23EqualPayDay","trendMapped":"equal+pay+day","trendVolume":119474},{"stateName":"IN","trendName":"#HalaMadrid","placeID":"2427032","placeName":"Indianapolis","searchUrl":"http:\/\/twitter.com\/search?q=%23HalaMadrid","trendMapped":"hala+madrid","trendVolume":393050},{"stateName":"IN","trendName":"#LHHATL","placeID":"2427032","placeName":"Indianapolis","searchUrl":"http:\/\/twitter.com\/search?q=%23LHHATL","trendMapped":"lhhatl","trendVolume":130144},{"stateName":"IN","trendName":"#NationalPetDay","placeID":"2427032","placeName":"Indianapolis","searchUrl":"http:\/\/twitter.com\/search?q=%23NationalPetDay","trendMapped":"national+pet+day","trendVolume":263609},{"stateName":"IN","trendName":"Cristiano","placeID":"2427032","placeName":"Indianapolis","searchUrl":"http:\/\/twitter.com\/search?q=Cristiano","trendMapped":"cristiano","trendVolume":362138},{"stateName":"KY","trendName":"#HalaMadrid","placeID":"2442327","placeName":"Louisville","searchUrl":"http:\/\/twitter.com\/search?q=%23HalaMadrid","trendMapped":"hala+madrid","trendVolume":384662},{"stateName":"KY","trendName":"#NationalPetDay","placeID":"2442327","placeName":"Louisville","searchUrl":"http:\/\/twitter.com\/search?q=%23NationalPetDay","trendMapped":"national+pet+day","trendVolume":264048},{"stateName":"KY","trendName":"Kobe","placeID":"2442327","placeName":"Louisville","searchUrl":"http:\/\/twitter.com\/search?q=Kobe","trendMapped":"kobe","trendVolume":302678},{"stateName":"LA","trendName":"#HalaMadrid","placeID":"2458833","placeName":"New Orleans","searchUrl":"http:\/\/twitter.com\/search?q=%23HalaMadrid","trendMapped":"hala+madrid","trendVolume":386837},{"stateName":"LA","trendName":"#KathrynThankfulAt20","placeID":"2359991","placeName":"Baton Rouge","searchUrl":"http:\/\/twitter.com\/search?q=%23KathrynThankfulAt20","trendMapped":"kathryn+thankful+at20","trendVolume":124761},{"stateName":"LA","trendName":"#LHHATL","placeID":"2359991","placeName":"Baton Rouge","searchUrl":"http:\/\/twitter.com\/search?q=%23LHHATL","trendMapped":"lhhatl","trendVolume":131101},{"stateName":"LA","trendName":"#NationalPetDay","placeID":"2458833","placeName":"New Orleans","searchUrl":"http:\/\/twitter.com\/search?q=%23NationalPetDay","trendMapped":"national+pet+day","trendVolume":263609},{"stateName":"MA","trendName":"#DemocracySpring","placeID":"2367105","placeName":"Boston","searchUrl":"http:\/\/twitter.com\/search?q=%23DemocracySpring","trendMapped":"democracy+spring","trendVolume":132188},{"stateName":"MA","trendName":"#EqualPayDay","placeID":"2367105","placeName":"Boston","searchUrl":"http:\/\/twitter.com\/search?q=%23EqualPayDay","trendMapped":"equal+pay+day","trendVolume":109858},{"stateName":"MA","trendName":"#HalaMadrid","placeID":"2367105","placeName":"Boston","searchUrl":"http:\/\/twitter.com\/search?q=%23HalaMadrid","trendMapped":"hala+madrid","trendVolume":388357},{"stateName":"MA","trendName":"#LHHATL","placeID":"2367105","placeName":"Boston","searchUrl":"http:\/\/twitter.com\/search?q=%23LHHATL","trendMapped":"lhhatl","trendVolume":116012},{"stateName":"MA","trendName":"#NationalPetDay","placeID":"2367105","placeName":"Boston","searchUrl":"http:\/\/twitter.com\/search?q=%23NationalPetDay","trendMapped":"national+pet+day","trendVolume":262838},{"stateName":"MA","trendName":"#TeamCap","placeID":"2367105","placeName":"Boston","searchUrl":"http:\/\/twitter.com\/search?q=%23TeamCap","trendMapped":"team+cap","trendVolume":193590},{"stateName":"MA","trendName":"HTC 10","placeID":"2367105","placeName":"Boston","searchUrl":"http:\/\/twitter.com\/search?q=%22HTC+10%22","trendMapped":"HTC+10","trendVolume":57144},{"stateName":"MD","trendName":"#HalaMadrid","placeID":"2358820","placeName":"Baltimore","searchUrl":"http:\/\/twitter.com\/search?q=%23HalaMadrid","trendMapped":"hala+madrid","trendVolume":347868},{"stateName":"MD","trendName":"#NationalPetDay","placeID":"2358820","placeName":"Baltimore","searchUrl":"http:\/\/twitter.com\/search?q=%23NationalPetDay","trendMapped":"national+pet+day","trendVolume":233345},{"stateName":"MD","trendName":"Cristiano","placeID":"2358820","placeName":"Baltimore","searchUrl":"http:\/\/twitter.com\/search?q=Cristiano","trendMapped":"cristiano","trendVolume":469312},{"stateName":"MD","trendName":"House","placeID":"2358820","placeName":"Baltimore","searchUrl":"http:\/\/twitter.com\/search?q=House","trendMapped":"house","trendVolume":474732},{"stateName":"MD","trendName":"Kobe","placeID":"2358820","placeName":"Baltimore","searchUrl":"http:\/\/twitter.com\/search?q=Kobe","trendMapped":"kobe","trendVolume":292311},{"stateName":"MI","trendName":"#DemocracySpring","placeID":"2391585","placeName":"Detroit","searchUrl":"http:\/\/twitter.com\/search?q=%23DemocracySpring","trendMapped":"democracy+spring","trendVolume":132188},{"stateName":"MI","trendName":"#HalaMadrid","placeID":"2391585","placeName":"Detroit","searchUrl":"http:\/\/twitter.com\/search?q=%23HalaMadrid","trendMapped":"hala+madrid","trendVolume":380013},{"stateName":"MI","trendName":"#LHHATL","placeID":"2391585","placeName":"Detroit","searchUrl":"http:\/\/twitter.com\/search?q=%23LHHATL","trendMapped":"lhhatl","trendVolume":130499},{"stateName":"MI","trendName":"#NationalPetDay","placeID":"2391585","placeName":"Detroit","searchUrl":"http:\/\/twitter.com\/search?q=%23NationalPetDay","trendMapped":"national+pet+day","trendVolume":263669},{"stateName":"MN","trendName":"#EqualPayDay","placeID":"2452078","placeName":"Minneapolis","searchUrl":"http:\/\/twitter.com\/search?q=%23EqualPayDay","trendMapped":"equal+pay+day","trendVolume":122319},{"stateName":"MN","trendName":"#HalaMadrid","placeID":"2452078","placeName":"Minneapolis","searchUrl":"http:\/\/twitter.com\/search?q=%23HalaMadrid","trendMapped":"hala+madrid","trendVolume":303110},{"stateName":"MN","trendName":"#NationalPetDay","placeID":"2452078","placeName":"Minneapolis","searchUrl":"http:\/\/twitter.com\/search?q=%23NationalPetDay","trendMapped":"national+pet+day","trendVolume":264048},{"stateName":"MO","trendName":"#HalaMadrid","placeID":"2430683","placeName":"Kansas City","searchUrl":"http:\/\/twitter.com\/search?q=%23HalaMadrid","trendMapped":"hala+madrid","trendVolume":378303},{"stateName":"MO","trendName":"#LHHATL","placeID":"2486982","placeName":"St. Louis","searchUrl":"http:\/\/twitter.com\/search?q=%23LHHATL","trendMapped":"lhhatl","trendVolume":131101},{"stateName":"MO","trendName":"#NationalPetDay","placeID":"2486982","placeName":"St. Louis","searchUrl":"http:\/\/twitter.com\/search?q=%23NationalPetDay","trendMapped":"national+pet+day","trendVolume":264855},{"stateName":"MS","trendName":"#HalaMadrid","placeID":"2428184","placeName":"Jackson","searchUrl":"http:\/\/twitter.com\/search?q=%23HalaMadrid","trendMapped":"hala+madrid","trendVolume":313702},{"stateName":"MS","trendName":"#NationalPetDay","placeID":"2428184","placeName":"Jackson","searchUrl":"http:\/\/twitter.com\/search?q=%23NationalPetDay","trendMapped":"national+pet+day","trendVolume":263609},{"stateName":"MS","trendName":"#Periscope","placeID":"2428184","placeName":"Jackson","searchUrl":"http:\/\/twitter.com\/search?q=%23Periscope","trendMapped":"periscope","trendVolume":195856},{"stateName":"MS","trendName":"Kobe","placeID":"2428184","placeName":"Jackson","searchUrl":"http:\/\/twitter.com\/search?q=Kobe","trendMapped":"kobe","trendVolume":299705},{"stateName":"NC","trendName":"#DemocracySpring","placeID":"2378426","placeName":"Charlotte","searchUrl":"http:\/\/twitter.com\/search?q=%23DemocracySpring","trendMapped":"democracy+spring","trendVolume":160302},{"stateName":"NC","trendName":"#EqualPayDay","placeID":"2378426","placeName":"Charlotte","searchUrl":"http:\/\/twitter.com\/search?q=%23EqualPayDay","trendMapped":"equal+pay+day","trendVolume":109858},{"stateName":"NC","trendName":"#HalaMadrid","placeID":"2478307","placeName":"Raleigh","searchUrl":"http:\/\/twitter.com\/search?q=%23HalaMadrid","trendMapped":"hala+madrid","trendVolume":396552},{"stateName":"NC","trendName":"#KathrynThankfulAt20","placeID":"2378426","placeName":"Charlotte","searchUrl":"http:\/\/twitter.com\/search?q=%23KathrynThankfulAt20","trendMapped":"kathryn+thankful+at20","trendVolume":129651},{"stateName":"NC","trendName":"#LHHATL","placeID":"2414469","placeName":"Greensboro","searchUrl":"http:\/\/twitter.com\/search?q=%23LHHATL","trendMapped":"lhhatl","trendVolume":131279},{"stateName":"NC","trendName":"#NationalPetDay","placeID":"2478307","placeName":"Raleigh","searchUrl":"http:\/\/twitter.com\/search?q=%23NationalPetDay","trendMapped":"national+pet+day","trendVolume":265826},{"stateName":"NC","trendName":"Arden","placeID":"2378426","placeName":"Charlotte","searchUrl":"http:\/\/twitter.com\/search?q=Arden","trendMapped":"arden","trendVolume":101401},{"stateName":"NC","trendName":"Kobe","placeID":"2478307","placeName":"Raleigh","searchUrl":"http:\/\/twitter.com\/search?q=Kobe","trendMapped":"kobe","trendVolume":271855},{"stateName":"NE","trendName":"#HalaMadrid","placeID":"2465512","placeName":"Omaha","searchUrl":"http:\/\/twitter.com\/search?q=%23HalaMadrid","trendMapped":"hala+madrid","trendVolume":367126},{"stateName":"NE","trendName":"#NationalPetDay","placeID":"2465512","placeName":"Omaha","searchUrl":"http:\/\/twitter.com\/search?q=%23NationalPetDay","trendMapped":"national+pet+day","trendVolume":265303},{"stateName":"NE","trendName":"Kobe","placeID":"2465512","placeName":"Omaha","searchUrl":"http:\/\/twitter.com\/search?q=Kobe","trendMapped":"kobe","trendVolume":292311},{"stateName":"NM","trendName":"#EqualPayDay","placeID":"2352824","placeName":"Albuquerque","searchUrl":"http:\/\/twitter.com\/search?q=%23EqualPayDay","trendMapped":"equal+pay+day","trendVolume":119474},{"stateName":"NM","trendName":"#HalaMadrid","placeID":"2352824","placeName":"Albuquerque","searchUrl":"http:\/\/twitter.com\/search?q=%23HalaMadrid","trendMapped":"hala+madrid","trendVolume":384662},{"stateName":"NM","trendName":"#KathrynThankfulAt20","placeID":"2352824","placeName":"Albuquerque","searchUrl":"http:\/\/twitter.com\/search?q=%23KathrynThankfulAt20","trendMapped":"kathryn+thankful+at20","trendVolume":121110},{"stateName":"NM","trendName":"#LHHATL","placeID":"2352824","placeName":"Albuquerque","searchUrl":"http:\/\/twitter.com\/search?q=%23LHHATL","trendMapped":"lhhatl","trendVolume":121979},{"stateName":"NM","trendName":"#NationalPetDay","placeID":"2352824","placeName":"Albuquerque","searchUrl":"http:\/\/twitter.com\/search?q=%23NationalPetDay","trendMapped":"national+pet+day","trendVolume":263243},{"stateName":"NM","trendName":"#SultanTeaser","placeID":"2352824","placeName":"Albuquerque","searchUrl":"http:\/\/twitter.com\/search?q=%23SultanTeaser","trendMapped":"sultan+teaser","trendVolume":60607},{"stateName":"NM","trendName":"HTC 10","placeID":"2352824","placeName":"Albuquerque","searchUrl":"http:\/\/twitter.com\/search?q=%22HTC+10%22","trendMapped":"HTC+10","trendVolume":64207},{"stateName":"NV","trendName":"#NationalPetDay","placeID":"2436704","placeName":"Las Vegas","searchUrl":"http:\/\/twitter.com\/search?q=%23NationalPetDay","trendMapped":"national+pet+day","trendVolume":264782},{"stateName":"NV","trendName":"Kobe","placeID":"2436704","placeName":"Las Vegas","searchUrl":"http:\/\/twitter.com\/search?q=Kobe","trendMapped":"kobe","trendVolume":272166},{"stateName":"NV","trendName":"Warriors","placeID":"2436704","placeName":"Las Vegas","searchUrl":"http:\/\/twitter.com\/search?q=Warriors","trendMapped":"warriors","trendVolume":364466},{"stateName":"NY","trendName":"#EqualPayDay","placeID":"2459115","placeName":"New York","searchUrl":"http:\/\/twitter.com\/search?q=%23EqualPayDay","trendMapped":"equal+pay+day","trendVolume":119474},{"stateName":"NY","trendName":"#HalaMadrid","placeID":"2459115","placeName":"New York","searchUrl":"http:\/\/twitter.com\/search?q=%23HalaMadrid","trendMapped":"hala+madrid","trendVolume":395471},{"stateName":"NY","trendName":"#LHHATL","placeID":"2459115","placeName":"New York","searchUrl":"http:\/\/twitter.com\/search?q=%23LHHATL","trendMapped":"lhhatl","trendVolume":122160},{"stateName":"NY","trendName":"#NationalPetDay","placeID":"2459115","placeName":"New York","searchUrl":"http:\/\/twitter.com\/search?q=%23NationalPetDay","trendMapped":"national+pet+day","trendVolume":264048},{"stateName":"NY","trendName":"#SultanTeaser","placeID":"2459115","placeName":"New York","searchUrl":"http:\/\/twitter.com\/search?q=%23SultanTeaser","trendMapped":"sultan+teaser","trendVolume":61873},{"stateName":"NY","trendName":"Edgar Perea","placeID":"2459115","placeName":"New York","searchUrl":"http:\/\/twitter.com\/search?q=%22Edgar+Perea%22","trendMapped":"Edgar+Perea","trendVolume":47276},{"stateName":"NY","trendName":"HTC 10","placeID":"2459115","placeName":"New York","searchUrl":"http:\/\/twitter.com\/search?q=%22HTC+10%22","trendMapped":"HTC+10","trendVolume":53115},{"stateName":"NY","trendName":"Josh Gordon","placeID":"2459115","placeName":"New York","searchUrl":"http:\/\/twitter.com\/search?q=%22Josh+Gordon%22","trendMapped":"Josh+Gordon","trendVolume":61552},{"stateName":"OH","trendName":"#DemocracySpring","placeID":"2380358","placeName":"Cincinnati","searchUrl":"http:\/\/twitter.com\/search?q=%23DemocracySpring","trendMapped":"democracy+spring","trendVolume":149216},{"stateName":"OH","trendName":"#EqualPayDay","placeID":"2381475","placeName":"Cleveland","searchUrl":"http:\/\/twitter.com\/search?q=%23EqualPayDay","trendMapped":"equal+pay+day","trendVolume":97793},{"stateName":"OH","trendName":"#HalaMadrid","placeID":"2383660","placeName":"Columbus","searchUrl":"http:\/\/twitter.com\/search?q=%23HalaMadrid","trendMapped":"hala+madrid","trendVolume":386837},{"stateName":"OH","trendName":"#LHHATL","placeID":"2383660","placeName":"Columbus","searchUrl":"http:\/\/twitter.com\/search?q=%23LHHATL","trendMapped":"lhhatl","trendVolume":131144},{"stateName":"OH","trendName":"#NationalPetDay","placeID":"2383660","placeName":"Columbus","searchUrl":"http:\/\/twitter.com\/search?q=%23NationalPetDay","trendMapped":"national+pet+day","trendVolume":265303},{"stateName":"OH","trendName":"East","placeID":"2381475","placeName":"Cleveland","searchUrl":"http:\/\/twitter.com\/search?q=East","trendMapped":"east","trendVolume":135225},{"stateName":"OH","trendName":"Warriors","placeID":"2381475","placeName":"Cleveland","searchUrl":"http:\/\/twitter.com\/search?q=Warriors","trendMapped":"warriors","trendVolume":387884},{"stateName":"OK","trendName":"#HalaMadrid","placeID":"2464592","placeName":"Oklahoma City","searchUrl":"http:\/\/twitter.com\/search?q=%23HalaMadrid","trendMapped":"hala+madrid","trendVolume":395471},{"stateName":"OK","trendName":"Kobe","placeID":"2464592","placeName":"Oklahoma City","searchUrl":"http:\/\/twitter.com\/search?q=Kobe","trendMapped":"kobe","trendVolume":267994},{"stateName":"OR","trendName":"#DemocracySpring","placeID":"2475687","placeName":"Portland","searchUrl":"http:\/\/twitter.com\/search?q=%23DemocracySpring","trendMapped":"democracy+spring","trendVolume":147657},{"stateName":"OR","trendName":"#HalaMadrid","placeID":"2475687","placeName":"Portland","searchUrl":"http:\/\/twitter.com\/search?q=%23HalaMadrid","trendMapped":"hala+madrid","trendVolume":369588},{"stateName":"OR","trendName":"#NationalPetDay","placeID":"2475687","placeName":"Portland","searchUrl":"http:\/\/twitter.com\/search?q=%23NationalPetDay","trendMapped":"national+pet+day","trendVolume":265303},{"stateName":"PA","trendName":"#DemocracySpring","placeID":"2471217","placeName":"Philadelphia","searchUrl":"http:\/\/twitter.com\/search?q=%23DemocracySpring","trendMapped":"democracy+spring","trendVolume":162234},{"stateName":"PA","trendName":"#EqualPayDay","placeID":"2471217","placeName":"Philadelphia","searchUrl":"http:\/\/twitter.com\/search?q=%23EqualPayDay","trendMapped":"equal+pay+day","trendVolume":97793},{"stateName":"PA","trendName":"#HalaMadrid","placeID":"2473224","placeName":"Pittsburgh","searchUrl":"http:\/\/twitter.com\/search?q=%23HalaMadrid","trendMapped":"hala+madrid","trendVolume":386837},{"stateName":"PA","trendName":"#KathrynThankfulAt20","placeID":"2471217","placeName":"Philadelphia","searchUrl":"http:\/\/twitter.com\/search?q=%23KathrynThankfulAt20","trendMapped":"kathryn+thankful+at20","trendVolume":114899},{"stateName":"PA","trendName":"#LHHATL","placeID":"2471217","placeName":"Philadelphia","searchUrl":"http:\/\/twitter.com\/search?q=%23LHHATL","trendMapped":"lhhatl","trendVolume":116012},{"stateName":"PA","trendName":"#NationalPetDay","placeID":"2473224","placeName":"Pittsburgh","searchUrl":"http:\/\/twitter.com\/search?q=%23NationalPetDay","trendMapped":"national+pet+day","trendVolume":265826},{"stateName":"PA","trendName":"#SultanTeaser","placeID":"2471217","placeName":"Philadelphia","searchUrl":"http:\/\/twitter.com\/search?q=%23SultanTeaser","trendMapped":"sultan+teaser","trendVolume":62570},{"stateName":"PA","trendName":"Cristiano","placeID":"2471217","placeName":"Philadelphia","searchUrl":"http:\/\/twitter.com\/search?q=Cristiano","trendMapped":"cristiano","trendVolume":760425},{"stateName":"PA","trendName":"Cruz","placeID":"2473224","placeName":"Pittsburgh","searchUrl":"http:\/\/twitter.com\/search?q=Cruz","trendMapped":"cruz","trendVolume":327824},{"stateName":"PA","trendName":"HTC 10","placeID":"2471217","placeName":"Philadelphia","searchUrl":"http:\/\/twitter.com\/search?q=%22HTC+10%22","trendMapped":"HTC+10","trendVolume":54903},{"stateName":"PA","trendName":"House","placeID":"2418046","placeName":"Harrisburg","searchUrl":"http:\/\/twitter.com\/search?q=House","trendMapped":"house","trendVolume":487934},{"stateName":"RI","trendName":"#HalaMadrid","placeID":"2477058","placeName":"Providence","searchUrl":"http:\/\/twitter.com\/search?q=%23HalaMadrid","trendMapped":"hala+madrid","trendVolume":331532},{"stateName":"RI","trendName":"#LHHATL","placeID":"2477058","placeName":"Providence","searchUrl":"http:\/\/twitter.com\/search?q=%23LHHATL","trendMapped":"lhhatl","trendVolume":130678},{"stateName":"RI","trendName":"#NationalPetDay","placeID":"2477058","placeName":"Providence","searchUrl":"http:\/\/twitter.com\/search?q=%23NationalPetDay","trendMapped":"national+pet+day","trendVolume":265303},{"stateName":"TN","trendName":"#BBMAs","placeID":"2457170","placeName":"Nashville","searchUrl":"http:\/\/twitter.com\/search?q=%23BBMAs","trendMapped":"bbm+as","trendVolume":236750},{"stateName":"TN","trendName":"#HalaMadrid","placeID":"2457170","placeName":"Nashville","searchUrl":"http:\/\/twitter.com\/search?q=%23HalaMadrid","trendMapped":"hala+madrid","trendVolume":380013},{"stateName":"TN","trendName":"#LHHATL","placeID":"2457170","placeName":"Nashville","searchUrl":"http:\/\/twitter.com\/search?q=%23LHHATL","trendMapped":"lhhatl","trendVolume":130144},{"stateName":"TN","trendName":"#NationalPetDay","placeID":"2457170","placeName":"Nashville","searchUrl":"http:\/\/twitter.com\/search?q=%23NationalPetDay","trendMapped":"national+pet+day","trendVolume":265826},{"stateName":"TN","trendName":"Snapchat","placeID":"2449323","placeName":"Memphis","searchUrl":"http:\/\/twitter.com\/search?q=Snapchat","trendMapped":"snapchat","trendVolume":443883},{"stateName":"TN","trendName":"Warriors","placeID":"2449323","placeName":"Memphis","searchUrl":"http:\/\/twitter.com\/search?q=Warriors","trendMapped":"warriors","trendVolume":364466},{"stateName":"TX","trendName":"#DemocracySpring","placeID":"2424766","placeName":"Houston","searchUrl":"http:\/\/twitter.com\/search?q=%23DemocracySpring","trendMapped":"democracy+spring","trendVolume":136689},{"stateName":"TX","trendName":"#EqualPayDay","placeID":"2388929","placeName":"Dallas-Ft. Worth","searchUrl":"http:\/\/twitter.com\/search?q=%23EqualPayDay","trendMapped":"equal+pay+day","trendVolume":119474},{"stateName":"TX","trendName":"#HalaMadrid","placeID":"2487796","placeName":"San Antonio","searchUrl":"http:\/\/twitter.com\/search?q=%23HalaMadrid","trendMapped":"hala+madrid","trendVolume":391873},{"stateName":"TX","trendName":"#LHHATL","placeID":"2424766","placeName":"Houston","searchUrl":"http:\/\/twitter.com\/search?q=%23LHHATL","trendMapped":"lhhatl","trendVolume":130936},{"stateName":"TX","trendName":"#NationalPetDay","placeID":"2487796","placeName":"San Antonio","searchUrl":"http:\/\/twitter.com\/search?q=%23NationalPetDay","trendMapped":"national+pet+day","trendVolume":266182},{"stateName":"TX","trendName":"Bernie","placeID":"2397816","placeName":"El Paso","searchUrl":"http:\/\/twitter.com\/search?q=Bernie","trendMapped":"bernie","trendVolume":244406},{"stateName":"TX","trendName":"Cristiano","placeID":"2424766","placeName":"Houston","searchUrl":"http:\/\/twitter.com\/search?q=Cristiano","trendMapped":"cristiano","trendVolume":362138},{"stateName":"TX","trendName":"Kobe","placeID":"2357536","placeName":"Austin","searchUrl":"http:\/\/twitter.com\/search?q=Kobe","trendMapped":"kobe","trendVolume":267547},{"stateName":"TX","trendName":"Madrid","placeID":"2424766","placeName":"Houston","searchUrl":"http:\/\/twitter.com\/search?q=Madrid","trendMapped":"madrid","trendVolume":937212},{"stateName":"TX","trendName":"Panama","placeID":"2397816","placeName":"El Paso","searchUrl":"http:\/\/twitter.com\/search?q=Panama","trendMapped":"panama","trendVolume":317468},{"stateName":"TX","trendName":"Warriors","placeID":"2487796","placeName":"San Antonio","searchUrl":"http:\/\/twitter.com\/search?q=Warriors","trendMapped":"warriors","trendVolume":362711},{"stateName":"UT","trendName":"#EqualPayDay","placeID":"2487610","placeName":"Salt Lake City","searchUrl":"http:\/\/twitter.com\/search?q=%23EqualPayDay","trendMapped":"equal+pay+day","trendVolume":113696},{"stateName":"UT","trendName":"#NationalPetDay","placeID":"2487610","placeName":"Salt Lake City","searchUrl":"http:\/\/twitter.com\/search?q=%23NationalPetDay","trendMapped":"national+pet+day","trendVolume":266182},{"stateName":"UT","trendName":"Cristiano","placeID":"2487610","placeName":"Salt Lake City","searchUrl":"http:\/\/twitter.com\/search?q=Cristiano","trendMapped":"cristiano","trendVolume":730566},{"stateName":"UT","trendName":"Jazz","placeID":"2487610","placeName":"Salt Lake City","searchUrl":"http:\/\/twitter.com\/search?q=Jazz","trendMapped":"jazz","trendVolume":69776},{"stateName":"UT","trendName":"Wolfsburg","placeID":"2487610","placeName":"Salt Lake City","searchUrl":"http:\/\/twitter.com\/search?q=Wolfsburg","trendMapped":"wolfsburg","trendVolume":258880},{"stateName":"VA","trendName":"#EqualPayDay","placeID":"2512636","placeName":"Virginia Beach","searchUrl":"http:\/\/twitter.com\/search?q=%23EqualPayDay","trendMapped":"equal+pay+day","trendVolume":111797},{"stateName":"VA","trendName":"#HalaMadrid","placeID":"2512636","placeName":"Virginia Beach","searchUrl":"http:\/\/twitter.com\/search?q=%23HalaMadrid","trendMapped":"hala+madrid","trendVolume":367126},{"stateName":"VA","trendName":"#LHHATL","placeID":"2512636","placeName":"Virginia Beach","searchUrl":"http:\/\/twitter.com\/search?q=%23LHHATL","trendMapped":"lhhatl","trendVolume":130144},{"stateName":"VA","trendName":"#NationalPetDay","placeID":"2480894","placeName":"Richmond","searchUrl":"http:\/\/twitter.com\/search?q=%23NationalPetDay","trendMapped":"national+pet+day","trendVolume":264281},{"stateName":"VA","trendName":"#SultanTeaser","placeID":"2512636","placeName":"Virginia Beach","searchUrl":"http:\/\/twitter.com\/search?q=%23SultanTeaser","trendMapped":"sultan+teaser","trendVolume":60998},{"stateName":"VA","trendName":"Arden","placeID":"2512636","placeName":"Virginia Beach","searchUrl":"http:\/\/twitter.com\/search?q=Arden","trendMapped":"arden","trendVolume":101401},{"stateName":"VA","trendName":"HTC 10","placeID":"2512636","placeName":"Virginia Beach","searchUrl":"http:\/\/twitter.com\/search?q=%22HTC+10%22","trendMapped":"HTC+10","trendVolume":66364},{"stateName":"VA","trendName":"Kobe","placeID":"2480894","placeName":"Richmond","searchUrl":"http:\/\/twitter.com\/search?q=Kobe","trendMapped":"kobe","trendVolume":292012},{"stateName":"WA","trendName":"#HalaMadrid","placeID":"2490383","placeName":"Seattle","searchUrl":"http:\/\/twitter.com\/search?q=%23HalaMadrid","trendMapped":"hala+madrid","trendVolume":186666},{"stateName":"WA","trendName":"#NationalPetDay","placeID":"2490383","placeName":"Seattle","searchUrl":"http:\/\/twitter.com\/search?q=%23NationalPetDay","trendMapped":"national+pet+day","trendVolume":264782},{"stateName":"WA","trendName":"Cristiano","placeID":"2490383","placeName":"Seattle","searchUrl":"http:\/\/twitter.com\/search?q=Cristiano","trendMapped":"cristiano","trendVolume":613621},{"stateName":"WI","trendName":"#HalaMadrid","placeID":"2451822","placeName":"Milwaukee","searchUrl":"http:\/\/twitter.com\/search?q=%23HalaMadrid","trendMapped":"hala+madrid","trendVolume":396552},{"stateName":"WI","trendName":"#NationalPetDay","placeID":"2451822","placeName":"Milwaukee","searchUrl":"http:\/\/twitter.com\/search?q=%23NationalPetDay","trendMapped":"national+pet+day","trendVolume":266182},{"stateName":"XX","trendName":"#EqualPayDay","placeID":"23424977","placeName":"United States","searchUrl":"http:\/\/twitter.com\/search?q=%23EqualPayDay","trendMapped":"equal+pay+day","trendVolume":75859},{"stateName":"XX","trendName":"#HalaMadrid","placeID":"23424977","placeName":"United States","searchUrl":"http:\/\/twitter.com\/search?q=%23HalaMadrid","trendMapped":"hala+madrid","trendVolume":337193},{"stateName":"XX","trendName":"#LHHATL","placeID":"23424977","placeName":"United States","searchUrl":"http:\/\/twitter.com\/search?q=%23LHHATL","trendMapped":"lhhatl","trendVolume":118220},{"stateName":"XX","trendName":"#NationalPetDay","placeID":"23424977","placeName":"United States","searchUrl":"http:\/\/twitter.com\/search?q=%23NationalPetDay","trendMapped":"national+pet+day","trendVolume":209807},{"stateName":"XX","trendName":"#SultanTeaser","placeID":"23424977","placeName":"United States","searchUrl":"http:\/\/twitter.com\/search?q=%23SultanTeaser","trendMapped":"sultan+teaser","trendVolume":63173},{"stateName":"XX","trendName":"Arden","placeID":"23424977","placeName":"United States","searchUrl":"http:\/\/twitter.com\/search?q=Arden","trendMapped":"arden","trendVolume":100017},{"stateName":"XX","trendName":"HTC 10","placeID":"23424977","placeName":"United States","searchUrl":"http:\/\/twitter.com\/search?q=%22HTC+10%22","trendMapped":"HTC+10","trendVolume":62894}]