[{"stateName":"AL","trendName":"#PacBradley","placeID":"2364559","placeName":"Birmingham","searchUrl":"http:\/\/twitter.com\/search?q=%23PacBradley","trendMapped":"pac+bradley","trendVolume":187615},{"stateName":"AL","trendName":"#ResistCapitalism","placeID":"2364559","placeName":"Birmingham","searchUrl":"http:\/\/twitter.com\/search?q=%23ResistCapitalism","trendMapped":"resist+capitalism","trendVolume":115889},{"stateName":"AL","trendName":"A-Day","placeID":"2364559","placeName":"Birmingham","searchUrl":"http:\/\/twitter.com\/search?q=A-Day","trendMapped":"a-+day","trendVolume":714731},{"stateName":"AL","trendName":"Anthony Joshua","placeID":"2364559","placeName":"Birmingham","searchUrl":"http:\/\/twitter.com\/search?q=%22Anthony+Joshua%22","trendMapped":"Anthony+Joshua","trendVolume":80609},{"stateName":"AZ","trendName":"#EverydayKathBookLaunch","placeID":"2508428","placeName":"Tucson","searchUrl":"http:\/\/twitter.com\/search?q=%23EverydayKathBookLaunch","trendMapped":"everyday+kath+book+launch","trendVolume":284776},{"stateName":"AZ","trendName":"#NationalSiblingsDay","placeID":"2508428","placeName":"Tucson","searchUrl":"http:\/\/twitter.com\/search?q=%23NationalSiblingsDay","trendMapped":"national+siblings+day","trendVolume":186660},{"stateName":"AZ","trendName":"#PacBradley","placeID":"2508428","placeName":"Tucson","searchUrl":"http:\/\/twitter.com\/search?q=%23PacBradley","trendMapped":"pac+bradley","trendVolume":199989},{"stateName":"AZ","trendName":"#ResistCapitalism","placeID":"2508428","placeName":"Tucson","searchUrl":"http:\/\/twitter.com\/search?q=%23ResistCapitalism","trendMapped":"resist+capitalism","trendVolume":119619},{"stateName":"AZ","trendName":"#TheMasters","placeID":"2508428","placeName":"Tucson","searchUrl":"http:\/\/twitter.com\/search?q=%23TheMasters","trendMapped":"the+masters","trendVolume":98190},{"stateName":"AZ","trendName":"Anthony Joshua","placeID":"2508428","placeName":"Tucson","searchUrl":"http:\/\/twitter.com\/search?q=%22Anthony+Joshua%22","trendMapped":"Anthony+Joshua","trendVolume":80609},{"stateName":"CA","trendName":"#EverydayKathBookLaunch","placeID":"2488042","placeName":"San Jose","searchUrl":"http:\/\/twitter.com\/search?q=%23EverydayKathBookLaunch","trendMapped":"everyday+kath+book+launch","trendVolume":281038},{"stateName":"CA","trendName":"#NationalSiblingsDay","placeID":"2487956","placeName":"San Francisco","searchUrl":"http:\/\/twitter.com\/search?q=%23NationalSiblingsDay","trendMapped":"national+siblings+day","trendVolume":206169},{"stateName":"CA","trendName":"#PacBradley","placeID":"2487889","placeName":"San Diego","searchUrl":"http:\/\/twitter.com\/search?q=%23PacBradley","trendMapped":"pac+bradley","trendVolume":199746},{"stateName":"CA","trendName":"#PiliPinasDebates2016","placeID":"2488042","placeName":"San Jose","searchUrl":"http:\/\/twitter.com\/search?q=%23PiliPinasDebates2016","trendMapped":"pili+pinas+debates2016","trendVolume":149206},{"stateName":"CA","trendName":"#ResistCapitalism","placeID":"2488042","placeName":"San Jose","searchUrl":"http:\/\/twitter.com\/search?q=%23ResistCapitalism","trendMapped":"resist+capitalism","trendVolume":118661},{"stateName":"CA","trendName":"#TheMasters","placeID":"2488042","placeName":"San Jose","searchUrl":"http:\/\/twitter.com\/search?q=%23TheMasters","trendMapped":"the+masters","trendVolume":123473},{"stateName":"CA","trendName":"Anthony Joshua","placeID":"2488042","placeName":"San Jose","searchUrl":"http:\/\/twitter.com\/search?q=%22Anthony+Joshua%22","trendMapped":"Anthony+Joshua","trendVolume":80609},{"stateName":"CA","trendName":"United","placeID":"2487956","placeName":"San Francisco","searchUrl":"http:\/\/twitter.com\/search?q=United","trendMapped":"united","trendVolume":358441},{"stateName":"CA","trendName":"Warriors","placeID":"2486340","placeName":"Sacramento","searchUrl":"http:\/\/twitter.com\/search?q=Warriors","trendMapped":"warriors","trendVolume":130141},{"stateName":"CA","trendName":"Will Smith","placeID":"2487889","placeName":"San Diego","searchUrl":"http:\/\/twitter.com\/search?q=%22Will+Smith%22","trendMapped":"Will+Smith","trendVolume":270415},{"stateName":"CO","trendName":"#EverydayKathBookLaunch","placeID":"2391279","placeName":"Denver","searchUrl":"http:\/\/twitter.com\/search?q=%23EverydayKathBookLaunch","trendMapped":"everyday+kath+book+launch","trendVolume":271556},{"stateName":"CO","trendName":"#NationalSiblingsDay","placeID":"2383489","placeName":"Colorado Springs","searchUrl":"http:\/\/twitter.com\/search?q=%23NationalSiblingsDay","trendMapped":"national+siblings+day","trendVolume":199260},{"stateName":"CO","trendName":"#PacBradley","placeID":"2391279","placeName":"Denver","searchUrl":"http:\/\/twitter.com\/search?q=%23PacBradley","trendMapped":"pac+bradley","trendVolume":199989},{"stateName":"CO","trendName":"#ResistCapitalism","placeID":"2391279","placeName":"Denver","searchUrl":"http:\/\/twitter.com\/search?q=%23ResistCapitalism","trendMapped":"resist+capitalism","trendVolume":112940},{"stateName":"CO","trendName":"#TheMasters","placeID":"2383489","placeName":"Colorado Springs","searchUrl":"http:\/\/twitter.com\/search?q=%23TheMasters","trendMapped":"the+masters","trendVolume":120813},{"stateName":"CO","trendName":"Anthony Joshua","placeID":"2391279","placeName":"Denver","searchUrl":"http:\/\/twitter.com\/search?q=%22Anthony+Joshua%22","trendMapped":"Anthony+Joshua","trendVolume":80166},{"stateName":"CO","trendName":"Will Smith","placeID":"2391279","placeName":"Denver","searchUrl":"http:\/\/twitter.com\/search?q=%22Will+Smith%22","trendMapped":"Will+Smith","trendVolume":264057},{"stateName":"CT","trendName":"#EverydayKathBookLaunch","placeID":"2458410","placeName":"New Haven","searchUrl":"http:\/\/twitter.com\/search?q=%23EverydayKathBookLaunch","trendMapped":"everyday+kath+book+launch","trendVolume":274860},{"stateName":"CT","trendName":"#NationalSiblingsDay","placeID":"2458410","placeName":"New Haven","searchUrl":"http:\/\/twitter.com\/search?q=%23NationalSiblingsDay","trendMapped":"national+siblings+day","trendVolume":200883},{"stateName":"CT","trendName":"#PacBradley","placeID":"2458410","placeName":"New Haven","searchUrl":"http:\/\/twitter.com\/search?q=%23PacBradley","trendMapped":"pac+bradley","trendVolume":199746},{"stateName":"CT","trendName":"#ResistCapitalism","placeID":"2458410","placeName":"New Haven","searchUrl":"http:\/\/twitter.com\/search?q=%23ResistCapitalism","trendMapped":"resist+capitalism","trendVolume":79873},{"stateName":"CT","trendName":"Manny","placeID":"2458410","placeName":"New Haven","searchUrl":"http:\/\/twitter.com\/search?q=Manny","trendMapped":"manny","trendVolume":174858},{"stateName":"CT","trendName":"Will Smith","placeID":"2458410","placeName":"New Haven","searchUrl":"http:\/\/twitter.com\/search?q=%22Will+Smith%22","trendMapped":"Will+Smith","trendVolume":264865},{"stateName":"DC","trendName":"#EverydayKathBookLaunch","placeID":"2514815","placeName":"Washington","searchUrl":"http:\/\/twitter.com\/search?q=%23EverydayKathBookLaunch","trendMapped":"everyday+kath+book+launch","trendVolume":281038},{"stateName":"DC","trendName":"#Masters2016","placeID":"2514815","placeName":"Washington","searchUrl":"http:\/\/twitter.com\/search?q=%23Masters2016","trendMapped":"masters2016","trendVolume":79518},{"stateName":"DC","trendName":"#NationalSiblingsDay","placeID":"2514815","placeName":"Washington","searchUrl":"http:\/\/twitter.com\/search?q=%23NationalSiblingsDay","trendMapped":"national+siblings+day","trendVolume":199260},{"stateName":"DC","trendName":"#PacBradley","placeID":"2514815","placeName":"Washington","searchUrl":"http:\/\/twitter.com\/search?q=%23PacBradley","trendMapped":"pac+bradley","trendVolume":191307},{"stateName":"DC","trendName":"#ResistCapitalism","placeID":"2514815","placeName":"Washington","searchUrl":"http:\/\/twitter.com\/search?q=%23ResistCapitalism","trendMapped":"resist+capitalism","trendVolume":117120},{"stateName":"FL","trendName":"#EverydayKathBookLaunch","placeID":"2503863","placeName":"Tampa","searchUrl":"http:\/\/twitter.com\/search?q=%23EverydayKathBookLaunch","trendMapped":"everyday+kath+book+launch","trendVolume":281038},{"stateName":"FL","trendName":"#NationalSiblingDay","placeID":"2503863","placeName":"Tampa","searchUrl":"http:\/\/twitter.com\/search?q=%23NationalSiblingDay","trendMapped":"national+sibling+day","trendVolume":70710},{"stateName":"FL","trendName":"#NationalSiblingsDay","placeID":"2503713","placeName":"Tallahassee","searchUrl":"http:\/\/twitter.com\/search?q=%23NationalSiblingsDay","trendMapped":"national+siblings+day","trendVolume":195239},{"stateName":"FL","trendName":"#PacBradley","placeID":"2503863","placeName":"Tampa","searchUrl":"http:\/\/twitter.com\/search?q=%23PacBradley","trendMapped":"pac+bradley","trendVolume":199989},{"stateName":"FL","trendName":"#PiliPinasDebates2016","placeID":"2466256","placeName":"Orlando","searchUrl":"http:\/\/twitter.com\/search?q=%23PiliPinasDebates2016","trendMapped":"pili+pinas+debates2016","trendVolume":144830},{"stateName":"FL","trendName":"#ResistCapitalism","placeID":"2503863","placeName":"Tampa","searchUrl":"http:\/\/twitter.com\/search?q=%23ResistCapitalism","trendMapped":"resist+capitalism","trendVolume":117120},{"stateName":"FL","trendName":"Anthony Joshua","placeID":"2466256","placeName":"Orlando","searchUrl":"http:\/\/twitter.com\/search?q=%22Anthony+Joshua%22","trendMapped":"Anthony+Joshua","trendVolume":80609},{"stateName":"FL","trendName":"Bar\u00e7a","placeID":"2450022","placeName":"Miami","searchUrl":"http:\/\/twitter.com\/search?q=Bar%C3%A7a","trendMapped":"bar\u00e7a","trendVolume":190518},{"stateName":"FL","trendName":"Danny Willett","placeID":"2450022","placeName":"Miami","searchUrl":"http:\/\/twitter.com\/search?q=%22Danny+Willett%22","trendMapped":"Danny+Willett","trendVolume":86721},{"stateName":"FL","trendName":"Masters","placeID":"2428344","placeName":"Jacksonville","searchUrl":"http:\/\/twitter.com\/search?q=Masters","trendMapped":"masters","trendVolume":141666},{"stateName":"FL","trendName":"Trump","placeID":"2503713","placeName":"Tallahassee","searchUrl":"http:\/\/twitter.com\/search?q=Trump","trendMapped":"trump","trendVolume":621322},{"stateName":"FL","trendName":"Warriors","placeID":"2466256","placeName":"Orlando","searchUrl":"http:\/\/twitter.com\/search?q=Warriors","trendMapped":"warriors","trendVolume":144356},{"stateName":"FL","trendName":"Will Smith","placeID":"2450022","placeName":"Miami","searchUrl":"http:\/\/twitter.com\/search?q=%22Will+Smith%22","trendMapped":"Will+Smith","trendVolume":282552},{"stateName":"GA","trendName":"#EverydayKathBookLaunch","placeID":"2357024","placeName":"Atlanta","searchUrl":"http:\/\/twitter.com\/search?q=%23EverydayKathBookLaunch","trendMapped":"everyday+kath+book+launch","trendVolume":263716},{"stateName":"GA","trendName":"#NationalSiblingsDay","placeID":"2357024","placeName":"Atlanta","searchUrl":"http:\/\/twitter.com\/search?q=%23NationalSiblingsDay","trendMapped":"national+siblings+day","trendVolume":180934},{"stateName":"GA","trendName":"#PacBradley","placeID":"2357024","placeName":"Atlanta","searchUrl":"http:\/\/twitter.com\/search?q=%23PacBradley","trendMapped":"pac+bradley","trendVolume":200340},{"stateName":"GA","trendName":"#TheMasters","placeID":"2357024","placeName":"Atlanta","searchUrl":"http:\/\/twitter.com\/search?q=%23TheMasters","trendMapped":"the+masters","trendVolume":112059},{"stateName":"GA","trendName":"Danny Willett","placeID":"2357024","placeName":"Atlanta","searchUrl":"http:\/\/twitter.com\/search?q=%22Danny+Willett%22","trendMapped":"Danny+Willett","trendVolume":88771},{"stateName":"GA","trendName":"Views","placeID":"2357024","placeName":"Atlanta","searchUrl":"http:\/\/twitter.com\/search?q=Views","trendMapped":"views","trendVolume":165431},{"stateName":"HI","trendName":"#EverydayKathBookLaunch","placeID":"2423945","placeName":"Honolulu","searchUrl":"http:\/\/twitter.com\/search?q=%23EverydayKathBookLaunch","trendMapped":"everyday+kath+book+launch","trendVolume":278102},{"stateName":"HI","trendName":"#Masters2016","placeID":"2423945","placeName":"Honolulu","searchUrl":"http:\/\/twitter.com\/search?q=%23Masters2016","trendMapped":"masters2016","trendVolume":76296},{"stateName":"HI","trendName":"#ResistCapitalism","placeID":"2423945","placeName":"Honolulu","searchUrl":"http:\/\/twitter.com\/search?q=%23ResistCapitalism","trendMapped":"resist+capitalism","trendVolume":117120},{"stateName":"HI","trendName":"Bernie","placeID":"2423945","placeName":"Honolulu","searchUrl":"http:\/\/twitter.com\/search?q=Bernie","trendMapped":"bernie","trendVolume":258285},{"stateName":"IL","trendName":"#EverydayKathBookLaunch","placeID":"2379574","placeName":"Chicago","searchUrl":"http:\/\/twitter.com\/search?q=%23EverydayKathBookLaunch","trendMapped":"everyday+kath+book+launch","trendVolume":268148},{"stateName":"IL","trendName":"#NationalSiblingsDay","placeID":"2379574","placeName":"Chicago","searchUrl":"http:\/\/twitter.com\/search?q=%23NationalSiblingsDay","trendMapped":"national+siblings+day","trendVolume":180934},{"stateName":"IL","trendName":"#PacBradley","placeID":"2379574","placeName":"Chicago","searchUrl":"http:\/\/twitter.com\/search?q=%23PacBradley","trendMapped":"pac+bradley","trendVolume":190381},{"stateName":"IL","trendName":"#ResistCapitalism","placeID":"2379574","placeName":"Chicago","searchUrl":"http:\/\/twitter.com\/search?q=%23ResistCapitalism","trendMapped":"resist+capitalism","trendVolume":118661},{"stateName":"IN","trendName":"#EverydayKathBookLaunch","placeID":"2427032","placeName":"Indianapolis","searchUrl":"http:\/\/twitter.com\/search?q=%23EverydayKathBookLaunch","trendMapped":"everyday+kath+book+launch","trendVolume":274860},{"stateName":"IN","trendName":"#NationalSiblingsDay","placeID":"2427032","placeName":"Indianapolis","searchUrl":"http:\/\/twitter.com\/search?q=%23NationalSiblingsDay","trendMapped":"national+siblings+day","trendVolume":224841},{"stateName":"IN","trendName":"#PacBradley","placeID":"2427032","placeName":"Indianapolis","searchUrl":"http:\/\/twitter.com\/search?q=%23PacBradley","trendMapped":"pac+bradley","trendVolume":199439},{"stateName":"IN","trendName":"#ResistCapitalism","placeID":"2427032","placeName":"Indianapolis","searchUrl":"http:\/\/twitter.com\/search?q=%23ResistCapitalism","trendMapped":"resist+capitalism","trendVolume":108760},{"stateName":"IN","trendName":"Will Smith","placeID":"2427032","placeName":"Indianapolis","searchUrl":"http:\/\/twitter.com\/search?q=%22Will+Smith%22","trendMapped":"Will+Smith","trendVolume":264865},{"stateName":"KY","trendName":"#EverydayKathBookLaunch","placeID":"2442327","placeName":"Louisville","searchUrl":"http:\/\/twitter.com\/search?q=%23EverydayKathBookLaunch","trendMapped":"everyday+kath+book+launch","trendVolume":277097},{"stateName":"KY","trendName":"#PacBradley","placeID":"2442327","placeName":"Louisville","searchUrl":"http:\/\/twitter.com\/search?q=%23PacBradley","trendMapped":"pac+bradley","trendVolume":191307},{"stateName":"KY","trendName":"#ResistCapitalism","placeID":"2442327","placeName":"Louisville","searchUrl":"http:\/\/twitter.com\/search?q=%23ResistCapitalism","trendMapped":"resist+capitalism","trendVolume":115889},{"stateName":"LA","trendName":"#EverydayKathBookLaunch","placeID":"2458833","placeName":"New Orleans","searchUrl":"http:\/\/twitter.com\/search?q=%23EverydayKathBookLaunch","trendMapped":"everyday+kath+book+launch","trendVolume":263716},{"stateName":"LA","trendName":"#NationalSiblingsDay","placeID":"2458833","placeName":"New Orleans","searchUrl":"http:\/\/twitter.com\/search?q=%23NationalSiblingsDay","trendMapped":"national+siblings+day","trendVolume":174117},{"stateName":"LA","trendName":"#PacBradley","placeID":"2458833","placeName":"New Orleans","searchUrl":"http:\/\/twitter.com\/search?q=%23PacBradley","trendMapped":"pac+bradley","trendVolume":189167},{"stateName":"LA","trendName":"#PiliPinasDebates2016","placeID":"2359991","placeName":"Baton Rouge","searchUrl":"http:\/\/twitter.com\/search?q=%23PiliPinasDebates2016","trendMapped":"pili+pinas+debates2016","trendVolume":149206},{"stateName":"LA","trendName":"#ResistCapitalism","placeID":"2458833","placeName":"New Orleans","searchUrl":"http:\/\/twitter.com\/search?q=%23ResistCapitalism","trendMapped":"resist+capitalism","trendVolume":118661},{"stateName":"LA","trendName":"America","placeID":"2359991","placeName":"Baton Rouge","searchUrl":"http:\/\/twitter.com\/search?q=America","trendMapped":"america","trendVolume":297924},{"stateName":"LA","trendName":"Will Smith","placeID":"2458833","placeName":"New Orleans","searchUrl":"http:\/\/twitter.com\/search?q=%22Will+Smith%22","trendMapped":"Will+Smith","trendVolume":284294},{"stateName":"MA","trendName":"#EverydayKathBookLaunch","placeID":"2367105","placeName":"Boston","searchUrl":"http:\/\/twitter.com\/search?q=%23EverydayKathBookLaunch","trendMapped":"everyday+kath+book+launch","trendVolume":281038},{"stateName":"MA","trendName":"#NationalSiblingsDay","placeID":"2367105","placeName":"Boston","searchUrl":"http:\/\/twitter.com\/search?q=%23NationalSiblingsDay","trendMapped":"national+siblings+day","trendVolume":191700},{"stateName":"MA","trendName":"#PacBradley","placeID":"2367105","placeName":"Boston","searchUrl":"http:\/\/twitter.com\/search?q=%23PacBradley","trendMapped":"pac+bradley","trendVolume":159999},{"stateName":"MA","trendName":"#ResistCapitalism","placeID":"2367105","placeName":"Boston","searchUrl":"http:\/\/twitter.com\/search?q=%23ResistCapitalism","trendMapped":"resist+capitalism","trendVolume":110964},{"stateName":"MA","trendName":"#TheMasters","placeID":"2367105","placeName":"Boston","searchUrl":"http:\/\/twitter.com\/search?q=%23TheMasters","trendMapped":"the+masters","trendVolume":123473},{"stateName":"MA","trendName":"Anthony Joshua","placeID":"2367105","placeName":"Boston","searchUrl":"http:\/\/twitter.com\/search?q=%22Anthony+Joshua%22","trendMapped":"Anthony+Joshua","trendVolume":77482},{"stateName":"MD","trendName":"#EverydayKathBookLaunch","placeID":"2358820","placeName":"Baltimore","searchUrl":"http:\/\/twitter.com\/search?q=%23EverydayKathBookLaunch","trendMapped":"everyday+kath+book+launch","trendVolume":268148},{"stateName":"MD","trendName":"#PacBradley","placeID":"2358820","placeName":"Baltimore","searchUrl":"http:\/\/twitter.com\/search?q=%23PacBradley","trendMapped":"pac+bradley","trendVolume":199096},{"stateName":"MD","trendName":"#ResistCapitalism","placeID":"2358820","placeName":"Baltimore","searchUrl":"http:\/\/twitter.com\/search?q=%23ResistCapitalism","trendMapped":"resist+capitalism","trendVolume":106593},{"stateName":"MD","trendName":"Will Smith","placeID":"2358820","placeName":"Baltimore","searchUrl":"http:\/\/twitter.com\/search?q=%22Will+Smith%22","trendMapped":"Will+Smith","trendVolume":286176},{"stateName":"MI","trendName":"#EverydayKathBookLaunch","placeID":"2391585","placeName":"Detroit","searchUrl":"http:\/\/twitter.com\/search?q=%23EverydayKathBookLaunch","trendMapped":"everyday+kath+book+launch","trendVolume":278102},{"stateName":"MI","trendName":"#NationalSiblingsDay","placeID":"2391585","placeName":"Detroit","searchUrl":"http:\/\/twitter.com\/search?q=%23NationalSiblingsDay","trendMapped":"national+siblings+day","trendVolume":196682},{"stateName":"MI","trendName":"#PacBradley","placeID":"2391585","placeName":"Detroit","searchUrl":"http:\/\/twitter.com\/search?q=%23PacBradley","trendMapped":"pac+bradley","trendVolume":199195},{"stateName":"MI","trendName":"#ResistCapitalism","placeID":"2391585","placeName":"Detroit","searchUrl":"http:\/\/twitter.com\/search?q=%23ResistCapitalism","trendMapped":"resist+capitalism","trendVolume":96309},{"stateName":"MI","trendName":"Anthony Joshua","placeID":"2391585","placeName":"Detroit","searchUrl":"http:\/\/twitter.com\/search?q=%22Anthony+Joshua%22","trendMapped":"Anthony+Joshua","trendVolume":77933},{"stateName":"MI","trendName":"Spieth","placeID":"2391585","placeName":"Detroit","searchUrl":"http:\/\/twitter.com\/search?q=Spieth","trendMapped":"spieth","trendVolume":183811},{"stateName":"MI","trendName":"Warriors","placeID":"2391585","placeName":"Detroit","searchUrl":"http:\/\/twitter.com\/search?q=Warriors","trendMapped":"warriors","trendVolume":131184},{"stateName":"MN","trendName":"#EverydayKathBookLaunch","placeID":"2452078","placeName":"Minneapolis","searchUrl":"http:\/\/twitter.com\/search?q=%23EverydayKathBookLaunch","trendMapped":"everyday+kath+book+launch","trendVolume":283263},{"stateName":"MN","trendName":"#NationalSiblingsDay","placeID":"2452078","placeName":"Minneapolis","searchUrl":"http:\/\/twitter.com\/search?q=%23NationalSiblingsDay","trendMapped":"national+siblings+day","trendVolume":195239},{"stateName":"MN","trendName":"#PiliPinasDebates2016","placeID":"2452078","placeName":"Minneapolis","searchUrl":"http:\/\/twitter.com\/search?q=%23PiliPinasDebates2016","trendMapped":"pili+pinas+debates2016","trendVolume":150266},{"stateName":"MN","trendName":"#ResistCapitalism","placeID":"2452078","placeName":"Minneapolis","searchUrl":"http:\/\/twitter.com\/search?q=%23ResistCapitalism","trendMapped":"resist+capitalism","trendVolume":104266},{"stateName":"MN","trendName":"Bradley","placeID":"2452078","placeName":"Minneapolis","searchUrl":"http:\/\/twitter.com\/search?q=Bradley","trendMapped":"bradley","trendVolume":128622},{"stateName":"MN","trendName":"Will Smith","placeID":"2452078","placeName":"Minneapolis","searchUrl":"http:\/\/twitter.com\/search?q=%22Will+Smith%22","trendMapped":"Will+Smith","trendVolume":264865},{"stateName":"MO","trendName":"#EverydayKathBookLaunch","placeID":"2486982","placeName":"St. Louis","searchUrl":"http:\/\/twitter.com\/search?q=%23EverydayKathBookLaunch","trendMapped":"everyday+kath+book+launch","trendVolume":281038},{"stateName":"MO","trendName":"#MUFC","placeID":"2430683","placeName":"Kansas City","searchUrl":"http:\/\/twitter.com\/search?q=%23MUFC","trendMapped":"mufc","trendVolume":149335},{"stateName":"MO","trendName":"#NationalSiblingsDay","placeID":"2486982","placeName":"St. Louis","searchUrl":"http:\/\/twitter.com\/search?q=%23NationalSiblingsDay","trendMapped":"national+siblings+day","trendVolume":180934},{"stateName":"MO","trendName":"#PacBradley","placeID":"2486982","placeName":"St. Louis","searchUrl":"http:\/\/twitter.com\/search?q=%23PacBradley","trendMapped":"pac+bradley","trendVolume":199935},{"stateName":"MO","trendName":"#PiliPinasDebates2016","placeID":"2486982","placeName":"St. Louis","searchUrl":"http:\/\/twitter.com\/search?q=%23PiliPinasDebates2016","trendMapped":"pili+pinas+debates2016","trendVolume":150266},{"stateName":"MO","trendName":"#ResistCapitalism","placeID":"2486982","placeName":"St. Louis","searchUrl":"http:\/\/twitter.com\/search?q=%23ResistCapitalism","trendMapped":"resist+capitalism","trendVolume":117120},{"stateName":"MO","trendName":"Will Smith","placeID":"2430683","placeName":"Kansas City","searchUrl":"http:\/\/twitter.com\/search?q=%22Will+Smith%22","trendMapped":"Will+Smith","trendVolume":265657},{"stateName":"MS","trendName":"#EverydayKathBookLaunch","placeID":"2428184","placeName":"Jackson","searchUrl":"http:\/\/twitter.com\/search?q=%23EverydayKathBookLaunch","trendMapped":"everyday+kath+book+launch","trendVolume":271556},{"stateName":"MS","trendName":"#Periscope","placeID":"2428184","placeName":"Jackson","searchUrl":"http:\/\/twitter.com\/search?q=%23Periscope","trendMapped":"periscope","trendVolume":260022},{"stateName":"MS","trendName":"#periscope","placeID":"2428184","placeName":"Jackson","searchUrl":"http:\/\/twitter.com\/search?q=%23periscope","trendMapped":"periscope","trendVolume":256603},{"stateName":"MS","trendName":"Will Smith","placeID":"2428184","placeName":"Jackson","searchUrl":"http:\/\/twitter.com\/search?q=%22Will+Smith%22","trendMapped":"Will+Smith","trendVolume":286176},{"stateName":"NC","trendName":"#EverydayKathBookLaunch","placeID":"2478307","placeName":"Raleigh","searchUrl":"http:\/\/twitter.com\/search?q=%23EverydayKathBookLaunch","trendMapped":"everyday+kath+book+launch","trendVolume":283989},{"stateName":"NC","trendName":"#NationalSiblingsDay","placeID":"2378426","placeName":"Charlotte","searchUrl":"http:\/\/twitter.com\/search?q=%23NationalSiblingsDay","trendMapped":"national+siblings+day","trendVolume":195239},{"stateName":"NC","trendName":"#PacBradley","placeID":"2478307","placeName":"Raleigh","searchUrl":"http:\/\/twitter.com\/search?q=%23PacBradley","trendMapped":"pac+bradley","trendVolume":199746},{"stateName":"NC","trendName":"#PiliPinasDebates2016","placeID":"2414469","placeName":"Greensboro","searchUrl":"http:\/\/twitter.com\/search?q=%23PiliPinasDebates2016","trendMapped":"pili+pinas+debates2016","trendVolume":148387},{"stateName":"NC","trendName":"#ResistCapitalism","placeID":"2478307","placeName":"Raleigh","searchUrl":"http:\/\/twitter.com\/search?q=%23ResistCapitalism","trendMapped":"resist+capitalism","trendVolume":118661},{"stateName":"NC","trendName":"Warriors","placeID":"2378426","placeName":"Charlotte","searchUrl":"http:\/\/twitter.com\/search?q=Warriors","trendMapped":"warriors","trendVolume":125815},{"stateName":"NC","trendName":"Will Smith","placeID":"2414469","placeName":"Greensboro","searchUrl":"http:\/\/twitter.com\/search?q=%22Will+Smith%22","trendMapped":"Will+Smith","trendVolume":283751},{"stateName":"NE","trendName":"#EverydayKathBookLaunch","placeID":"2465512","placeName":"Omaha","searchUrl":"http:\/\/twitter.com\/search?q=%23EverydayKathBookLaunch","trendMapped":"everyday+kath+book+launch","trendVolume":274860},{"stateName":"NE","trendName":"#PacBradley","placeID":"2465512","placeName":"Omaha","searchUrl":"http:\/\/twitter.com\/search?q=%23PacBradley","trendMapped":"pac+bradley","trendVolume":190381},{"stateName":"NE","trendName":"#PiliPinasDebates2016","placeID":"2465512","placeName":"Omaha","searchUrl":"http:\/\/twitter.com\/search?q=%23PiliPinasDebates2016","trendMapped":"pili+pinas+debates2016","trendVolume":149206},{"stateName":"NE","trendName":"#ResistCapitalism","placeID":"2465512","placeName":"Omaha","searchUrl":"http:\/\/twitter.com\/search?q=%23ResistCapitalism","trendMapped":"resist+capitalism","trendVolume":119205},{"stateName":"NM","trendName":"#EverydayKathBookLaunch","placeID":"2352824","placeName":"Albuquerque","searchUrl":"http:\/\/twitter.com\/search?q=%23EverydayKathBookLaunch","trendMapped":"everyday+kath+book+launch","trendVolume":272561},{"stateName":"NM","trendName":"#NationalSiblingsDay","placeID":"2352824","placeName":"Albuquerque","searchUrl":"http:\/\/twitter.com\/search?q=%23NationalSiblingsDay","trendMapped":"national+siblings+day","trendVolume":189627},{"stateName":"NM","trendName":"#PacBradley","placeID":"2352824","placeName":"Albuquerque","searchUrl":"http:\/\/twitter.com\/search?q=%23PacBradley","trendMapped":"pac+bradley","trendVolume":165810},{"stateName":"NM","trendName":"#PiliPinasDebates2016","placeID":"2352824","placeName":"Albuquerque","searchUrl":"http:\/\/twitter.com\/search?q=%23PiliPinasDebates2016","trendMapped":"pili+pinas+debates2016","trendVolume":148387},{"stateName":"NM","trendName":"#ResistCapitalism","placeID":"2352824","placeName":"Albuquerque","searchUrl":"http:\/\/twitter.com\/search?q=%23ResistCapitalism","trendMapped":"resist+capitalism","trendVolume":114416},{"stateName":"NM","trendName":"#TheMasters","placeID":"2352824","placeName":"Albuquerque","searchUrl":"http:\/\/twitter.com\/search?q=%23TheMasters","trendMapped":"the+masters","trendVolume":129089},{"stateName":"NV","trendName":"#EverydayKathBookLaunch","placeID":"2436704","placeName":"Las Vegas","searchUrl":"http:\/\/twitter.com\/search?q=%23EverydayKathBookLaunch","trendMapped":"everyday+kath+book+launch","trendVolume":281038},{"stateName":"NV","trendName":"#NationalSiblingsDay","placeID":"2436704","placeName":"Las Vegas","searchUrl":"http:\/\/twitter.com\/search?q=%23NationalSiblingsDay","trendMapped":"national+siblings+day","trendVolume":211289},{"stateName":"NV","trendName":"#PacBradley","placeID":"2436704","placeName":"Las Vegas","searchUrl":"http:\/\/twitter.com\/search?q=%23PacBradley","trendMapped":"pac+bradley","trendVolume":189167},{"stateName":"NV","trendName":"#ResistCapitalism","placeID":"2436704","placeName":"Las Vegas","searchUrl":"http:\/\/twitter.com\/search?q=%23ResistCapitalism","trendMapped":"resist+capitalism","trendVolume":99959},{"stateName":"NV","trendName":"Warriors","placeID":"2436704","placeName":"Las Vegas","searchUrl":"http:\/\/twitter.com\/search?q=Warriors","trendMapped":"warriors","trendVolume":128679},{"stateName":"NY","trendName":"#EverydayKathBookLaunch","placeID":"2459115","placeName":"New York","searchUrl":"http:\/\/twitter.com\/search?q=%23EverydayKathBookLaunch","trendMapped":"everyday+kath+book+launch","trendVolume":274860},{"stateName":"NY","trendName":"#NationalSiblingsDay","placeID":"2459115","placeName":"New York","searchUrl":"http:\/\/twitter.com\/search?q=%23NationalSiblingsDay","trendMapped":"national+siblings+day","trendVolume":179156},{"stateName":"NY","trendName":"#PacBradley","placeID":"2459115","placeName":"New York","searchUrl":"http:\/\/twitter.com\/search?q=%23PacBradley","trendMapped":"pac+bradley","trendVolume":184782},{"stateName":"NY","trendName":"#PiliPinasDebates2016","placeID":"2459115","placeName":"New York","searchUrl":"http:\/\/twitter.com\/search?q=%23PiliPinasDebates2016","trendMapped":"pili+pinas+debates2016","trendVolume":148387},{"stateName":"NY","trendName":"#ResistCapitalism","placeID":"2459115","placeName":"New York","searchUrl":"http:\/\/twitter.com\/search?q=%23ResistCapitalism","trendMapped":"resist+capitalism","trendVolume":119205},{"stateName":"NY","trendName":"Will Smith","placeID":"2459115","placeName":"New York","searchUrl":"http:\/\/twitter.com\/search?q=%22Will+Smith%22","trendMapped":"Will+Smith","trendVolume":191809},{"stateName":"OH","trendName":"#EverydayKathBookLaunch","placeID":"2383660","placeName":"Columbus","searchUrl":"http:\/\/twitter.com\/search?q=%23EverydayKathBookLaunch","trendMapped":"everyday+kath+book+launch","trendVolume":278102},{"stateName":"OH","trendName":"#NationalSiblingsDay","placeID":"2381475","placeName":"Cleveland","searchUrl":"http:\/\/twitter.com\/search?q=%23NationalSiblingsDay","trendMapped":"national+siblings+day","trendVolume":209572},{"stateName":"OH","trendName":"#PacBradley","placeID":"2383660","placeName":"Columbus","searchUrl":"http:\/\/twitter.com\/search?q=%23PacBradley","trendMapped":"pac+bradley","trendVolume":191307},{"stateName":"OH","trendName":"#PiliPinasDebates2016","placeID":"2383660","placeName":"Columbus","searchUrl":"http:\/\/twitter.com\/search?q=%23PiliPinasDebates2016","trendMapped":"pili+pinas+debates2016","trendVolume":151187},{"stateName":"OH","trendName":"#ResistCapitalism","placeID":"2383660","placeName":"Columbus","searchUrl":"http:\/\/twitter.com\/search?q=%23ResistCapitalism","trendMapped":"resist+capitalism","trendVolume":99959},{"stateName":"OH","trendName":"Warriors","placeID":"2383660","placeName":"Columbus","searchUrl":"http:\/\/twitter.com\/search?q=Warriors","trendMapped":"warriors","trendVolume":131598},{"stateName":"OH","trendName":"Will Smith","placeID":"2383660","placeName":"Columbus","searchUrl":"http:\/\/twitter.com\/search?q=%22Will+Smith%22","trendMapped":"Will+Smith","trendVolume":285582},{"stateName":"OK","trendName":"#EverydayKathBookLaunch","placeID":"2464592","placeName":"Oklahoma City","searchUrl":"http:\/\/twitter.com\/search?q=%23EverydayKathBookLaunch","trendMapped":"everyday+kath+book+launch","trendVolume":268148},{"stateName":"OK","trendName":"#NationalSiblingsDay","placeID":"2464592","placeName":"Oklahoma City","searchUrl":"http:\/\/twitter.com\/search?q=%23NationalSiblingsDay","trendMapped":"national+siblings+day","trendVolume":211289},{"stateName":"OK","trendName":"#PacBradley","placeID":"2464592","placeName":"Oklahoma City","searchUrl":"http:\/\/twitter.com\/search?q=%23PacBradley","trendMapped":"pac+bradley","trendVolume":185692},{"stateName":"OK","trendName":"#PiliPinasDebates2016","placeID":"2464592","placeName":"Oklahoma City","searchUrl":"http:\/\/twitter.com\/search?q=%23PiliPinasDebates2016","trendMapped":"pili+pinas+debates2016","trendVolume":151187},{"stateName":"OK","trendName":"#ResistCapitalism","placeID":"2464592","placeName":"Oklahoma City","searchUrl":"http:\/\/twitter.com\/search?q=%23ResistCapitalism","trendMapped":"resist+capitalism","trendVolume":83096},{"stateName":"OK","trendName":"Anthony Joshua","placeID":"2464592","placeName":"Oklahoma City","searchUrl":"http:\/\/twitter.com\/search?q=%22Anthony+Joshua%22","trendMapped":"Anthony+Joshua","trendVolume":77933},{"stateName":"OK","trendName":"Warriors","placeID":"2464592","placeName":"Oklahoma City","searchUrl":"http:\/\/twitter.com\/search?q=Warriors","trendMapped":"warriors","trendVolume":128145},{"stateName":"OK","trendName":"Will Smith","placeID":"2464592","placeName":"Oklahoma City","searchUrl":"http:\/\/twitter.com\/search?q=%22Will+Smith%22","trendMapped":"Will+Smith","trendVolume":276826},{"stateName":"OR","trendName":"#EverydayKathBookLaunch","placeID":"2475687","placeName":"Portland","searchUrl":"http:\/\/twitter.com\/search?q=%23EverydayKathBookLaunch","trendMapped":"everyday+kath+book+launch","trendVolume":281038},{"stateName":"OR","trendName":"#NationalSiblingsDay","placeID":"2475687","placeName":"Portland","searchUrl":"http:\/\/twitter.com\/search?q=%23NationalSiblingsDay","trendMapped":"national+siblings+day","trendVolume":211289},{"stateName":"OR","trendName":"#PacBradley","placeID":"2475687","placeName":"Portland","searchUrl":"http:\/\/twitter.com\/search?q=%23PacBradley","trendMapped":"pac+bradley","trendVolume":184782},{"stateName":"OR","trendName":"#PiliPinasDebates2016","placeID":"2475687","placeName":"Portland","searchUrl":"http:\/\/twitter.com\/search?q=%23PiliPinasDebates2016","trendMapped":"pili+pinas+debates2016","trendVolume":149585},{"stateName":"OR","trendName":"#ResistCapitalism","placeID":"2475687","placeName":"Portland","searchUrl":"http:\/\/twitter.com\/search?q=%23ResistCapitalism","trendMapped":"resist+capitalism","trendVolume":110964},{"stateName":"OR","trendName":"Anthony Joshua","placeID":"2475687","placeName":"Portland","searchUrl":"http:\/\/twitter.com\/search?q=%22Anthony+Joshua%22","trendMapped":"Anthony+Joshua","trendVolume":80609},{"stateName":"PA","trendName":"#EverydayKathBookLaunch","placeID":"2473224","placeName":"Pittsburgh","searchUrl":"http:\/\/twitter.com\/search?q=%23EverydayKathBookLaunch","trendMapped":"everyday+kath+book+launch","trendVolume":281038},{"stateName":"PA","trendName":"#FeelTheBern","placeID":"2418046","placeName":"Harrisburg","searchUrl":"http:\/\/twitter.com\/search?q=%23FeelTheBern","trendMapped":"feel+the+bern","trendVolume":105463},{"stateName":"PA","trendName":"#NationalSiblingsDay","placeID":"2471217","placeName":"Philadelphia","searchUrl":"http:\/\/twitter.com\/search?q=%23NationalSiblingsDay","trendMapped":"national+siblings+day","trendVolume":196682},{"stateName":"PA","trendName":"#PacBradley","placeID":"2473224","placeName":"Pittsburgh","searchUrl":"http:\/\/twitter.com\/search?q=%23PacBradley","trendMapped":"pac+bradley","trendVolume":191307},{"stateName":"PA","trendName":"#PiliPinasDebates2016","placeID":"2418046","placeName":"Harrisburg","searchUrl":"http:\/\/twitter.com\/search?q=%23PiliPinasDebates2016","trendMapped":"pili+pinas+debates2016","trendVolume":151187},{"stateName":"PA","trendName":"#ResistCapitalism","placeID":"2473224","placeName":"Pittsburgh","searchUrl":"http:\/\/twitter.com\/search?q=%23ResistCapitalism","trendMapped":"resist+capitalism","trendVolume":118661},{"stateName":"PA","trendName":"#TheMasters","placeID":"2471217","placeName":"Philadelphia","searchUrl":"http:\/\/twitter.com\/search?q=%23TheMasters","trendMapped":"the+masters","trendVolume":114856},{"stateName":"RI","trendName":"#EverydayKathBookLaunch","placeID":"2477058","placeName":"Providence","searchUrl":"http:\/\/twitter.com\/search?q=%23EverydayKathBookLaunch","trendMapped":"everyday+kath+book+launch","trendVolume":268148},{"stateName":"RI","trendName":"#NationalSiblingsDay","placeID":"2477058","placeName":"Providence","searchUrl":"http:\/\/twitter.com\/search?q=%23NationalSiblingsDay","trendMapped":"national+siblings+day","trendVolume":204472},{"stateName":"RI","trendName":"#PacBradley","placeID":"2477058","placeName":"Providence","searchUrl":"http:\/\/twitter.com\/search?q=%23PacBradley","trendMapped":"pac+bradley","trendVolume":191307},{"stateName":"RI","trendName":"#ResistCapitalism","placeID":"2477058","placeName":"Providence","searchUrl":"http:\/\/twitter.com\/search?q=%23ResistCapitalism","trendMapped":"resist+capitalism","trendVolume":117120},{"stateName":"TN","trendName":"#EverydayKathBookLaunch","placeID":"2457170","placeName":"Nashville","searchUrl":"http:\/\/twitter.com\/search?q=%23EverydayKathBookLaunch","trendMapped":"everyday+kath+book+launch","trendVolume":271556},{"stateName":"TN","trendName":"#PacBradley","placeID":"2457170","placeName":"Nashville","searchUrl":"http:\/\/twitter.com\/search?q=%23PacBradley","trendMapped":"pac+bradley","trendVolume":191307},{"stateName":"TN","trendName":"#PiliPinasDebates2016","placeID":"2457170","placeName":"Nashville","searchUrl":"http:\/\/twitter.com\/search?q=%23PiliPinasDebates2016","trendMapped":"pili+pinas+debates2016","trendVolume":150266},{"stateName":"TN","trendName":"#ResistCapitalism","placeID":"2457170","placeName":"Nashville","searchUrl":"http:\/\/twitter.com\/search?q=%23ResistCapitalism","trendMapped":"resist+capitalism","trendVolume":118154},{"stateName":"TN","trendName":"Spieth","placeID":"2457170","placeName":"Nashville","searchUrl":"http:\/\/twitter.com\/search?q=Spieth","trendMapped":"spieth","trendVolume":171467},{"stateName":"TN","trendName":"Warriors","placeID":"2449323","placeName":"Memphis","searchUrl":"http:\/\/twitter.com\/search?q=Warriors","trendMapped":"warriors","trendVolume":125815},{"stateName":"TN","trendName":"Will Smith","placeID":"2457170","placeName":"Nashville","searchUrl":"http:\/\/twitter.com\/search?q=%22Will+Smith%22","trendMapped":"Will+Smith","trendVolume":282552},{"stateName":"TX","trendName":"#EverydayKathBookLaunch","placeID":"2424766","placeName":"Houston","searchUrl":"http:\/\/twitter.com\/search?q=%23EverydayKathBookLaunch","trendMapped":"everyday+kath+book+launch","trendVolume":279068},{"stateName":"TX","trendName":"#PacBradley","placeID":"2487796","placeName":"San Antonio","searchUrl":"http:\/\/twitter.com\/search?q=%23PacBradley","trendMapped":"pac+bradley","trendVolume":200238},{"stateName":"TX","trendName":"#ResistCapitalism","placeID":"2487796","placeName":"San Antonio","searchUrl":"http:\/\/twitter.com\/search?q=%23ResistCapitalism","trendMapped":"resist+capitalism","trendVolume":118661},{"stateName":"TX","trendName":"Anthony Joshua","placeID":"2388929","placeName":"Dallas-Ft. Worth","searchUrl":"http:\/\/twitter.com\/search?q=%22Anthony+Joshua%22","trendMapped":"Anthony+Joshua","trendVolume":80609},{"stateName":"TX","trendName":"Bernie","placeID":"2397816","placeName":"El Paso","searchUrl":"http:\/\/twitter.com\/search?q=Bernie","trendMapped":"bernie","trendVolume":261322},{"stateName":"TX","trendName":"Bieber","placeID":"2388929","placeName":"Dallas-Ft. Worth","searchUrl":"http:\/\/twitter.com\/search?q=Bieber","trendMapped":"bieber","trendVolume":282271},{"stateName":"TX","trendName":"Kobe","placeID":"2424766","placeName":"Houston","searchUrl":"http:\/\/twitter.com\/search?q=Kobe","trendMapped":"kobe","trendVolume":151010},{"stateName":"TX","trendName":"Panama","placeID":"2397816","placeName":"El Paso","searchUrl":"http:\/\/twitter.com\/search?q=Panama","trendMapped":"panama","trendVolume":308635},{"stateName":"TX","trendName":"Spieth","placeID":"2357536","placeName":"Austin","searchUrl":"http:\/\/twitter.com\/search?q=Spieth","trendMapped":"spieth","trendVolume":158124},{"stateName":"TX","trendName":"Will Smith","placeID":"2487796","placeName":"San Antonio","searchUrl":"http:\/\/twitter.com\/search?q=%22Will+Smith%22","trendMapped":"Will+Smith","trendVolume":281001},{"stateName":"UT","trendName":"#EverydayKathBookLaunch","placeID":"2487610","placeName":"Salt Lake City","searchUrl":"http:\/\/twitter.com\/search?q=%23EverydayKathBookLaunch","trendMapped":"everyday+kath+book+launch","trendVolume":271556},{"stateName":"UT","trendName":"#NationalSiblingsDay","placeID":"2487610","placeName":"Salt Lake City","searchUrl":"http:\/\/twitter.com\/search?q=%23NationalSiblingsDay","trendMapped":"national+siblings+day","trendVolume":165040},{"stateName":"UT","trendName":"#PacBradley","placeID":"2487610","placeName":"Salt Lake City","searchUrl":"http:\/\/twitter.com\/search?q=%23PacBradley","trendMapped":"pac+bradley","trendVolume":191307},{"stateName":"UT","trendName":"#PiliPinasDebates2016","placeID":"2487610","placeName":"Salt Lake City","searchUrl":"http:\/\/twitter.com\/search?q=%23PiliPinasDebates2016","trendMapped":"pili+pinas+debates2016","trendVolume":149585},{"stateName":"UT","trendName":"#ResistCapitalism","placeID":"2487610","placeName":"Salt Lake City","searchUrl":"http:\/\/twitter.com\/search?q=%23ResistCapitalism","trendMapped":"resist+capitalism","trendVolume":89605},{"stateName":"UT","trendName":"Anthony Joshua","placeID":"2487610","placeName":"Salt Lake City","searchUrl":"http:\/\/twitter.com\/search?q=%22Anthony+Joshua%22","trendMapped":"Anthony+Joshua","trendVolume":77933},{"stateName":"VA","trendName":"#EverydayKathBookLaunch","placeID":"2512636","placeName":"Virginia Beach","searchUrl":"http:\/\/twitter.com\/search?q=%23EverydayKathBookLaunch","trendMapped":"everyday+kath+book+launch","trendVolume":280093},{"stateName":"VA","trendName":"#NationalSiblingsDay","placeID":"2512636","placeName":"Virginia Beach","searchUrl":"http:\/\/twitter.com\/search?q=%23NationalSiblingsDay","trendMapped":"national+siblings+day","trendVolume":191700},{"stateName":"VA","trendName":"#PacBradley","placeID":"2512636","placeName":"Virginia Beach","searchUrl":"http:\/\/twitter.com\/search?q=%23PacBradley","trendMapped":"pac+bradley","trendVolume":190381},{"stateName":"VA","trendName":"#PiliPinasDebates2016","placeID":"2512636","placeName":"Virginia Beach","searchUrl":"http:\/\/twitter.com\/search?q=%23PiliPinasDebates2016","trendMapped":"pili+pinas+debates2016","trendVolume":148387},{"stateName":"VA","trendName":"#ResistCapitalism","placeID":"2512636","placeName":"Virginia Beach","searchUrl":"http:\/\/twitter.com\/search?q=%23ResistCapitalism","trendMapped":"resist+capitalism","trendVolume":117120},{"stateName":"VA","trendName":"#TheMasters","placeID":"2512636","placeName":"Virginia Beach","searchUrl":"http:\/\/twitter.com\/search?q=%23TheMasters","trendMapped":"the+masters","trendVolume":120813},{"stateName":"VA","trendName":"Will Smith","placeID":"2460389","placeName":"Norfolk","searchUrl":"http:\/\/twitter.com\/search?q=%22Will+Smith%22","trendMapped":"Will+Smith","trendVolume":281001},{"stateName":"WA","trendName":"#EverydayKathBookLaunch","placeID":"2490383","placeName":"Seattle","searchUrl":"http:\/\/twitter.com\/search?q=%23EverydayKathBookLaunch","trendMapped":"everyday+kath+book+launch","trendVolume":274860},{"stateName":"WA","trendName":"#PacBradley","placeID":"2490383","placeName":"Seattle","searchUrl":"http:\/\/twitter.com\/search?q=%23PacBradley","trendMapped":"pac+bradley","trendVolume":199989},{"stateName":"WA","trendName":"#ResistCapitalism","placeID":"2490383","placeName":"Seattle","searchUrl":"http:\/\/twitter.com\/search?q=%23ResistCapitalism","trendMapped":"resist+capitalism","trendVolume":112940},{"stateName":"WA","trendName":"Will Smith","placeID":"2490383","placeName":"Seattle","searchUrl":"http:\/\/twitter.com\/search?q=%22Will+Smith%22","trendMapped":"Will+Smith","trendVolume":268520},{"stateName":"WI","trendName":"#EverydayKathBookLaunch","placeID":"2451822","placeName":"Milwaukee","searchUrl":"http:\/\/twitter.com\/search?q=%23EverydayKathBookLaunch","trendMapped":"everyday+kath+book+launch","trendVolume":282593},{"stateName":"WI","trendName":"#NationalSiblingsDay","placeID":"2451822","placeName":"Milwaukee","searchUrl":"http:\/\/twitter.com\/search?q=%23NationalSiblingsDay","trendMapped":"national+siblings+day","trendVolume":221249},{"stateName":"WI","trendName":"#PacBradley","placeID":"2451822","placeName":"Milwaukee","searchUrl":"http:\/\/twitter.com\/search?q=%23PacBradley","trendMapped":"pac+bradley","trendVolume":191307},{"stateName":"WI","trendName":"#ResistCapitalism","placeID":"2451822","placeName":"Milwaukee","searchUrl":"http:\/\/twitter.com\/search?q=%23ResistCapitalism","trendMapped":"resist+capitalism","trendVolume":99959},{"stateName":"XX","trendName":"#EverydayKathBookLaunch","placeID":"23424977","placeName":"United States","searchUrl":"http:\/\/twitter.com\/search?q=%23EverydayKathBookLaunch","trendMapped":"everyday+kath+book+launch","trendVolume":282593},{"stateName":"XX","trendName":"#NationalSiblingsDay","placeID":"23424977","placeName":"United States","searchUrl":"http:\/\/twitter.com\/search?q=%23NationalSiblingsDay","trendMapped":"national+siblings+day","trendVolume":195239},{"stateName":"XX","trendName":"#PacBradley","placeID":"23424977","placeName":"United States","searchUrl":"http:\/\/twitter.com\/search?q=%23PacBradley","trendMapped":"pac+bradley","trendVolume":177132},{"stateName":"XX","trendName":"#PiliPinasDebates2016","placeID":"23424977","placeName":"United States","searchUrl":"http:\/\/twitter.com\/search?q=%23PiliPinasDebates2016","trendMapped":"pili+pinas+debates2016","trendVolume":147220},{"stateName":"XX","trendName":"#ResistCapitalism","placeID":"23424977","placeName":"United States","searchUrl":"http:\/\/twitter.com\/search?q=%23ResistCapitalism","trendMapped":"resist+capitalism","trendVolume":83096},{"stateName":"XX","trendName":"#TheMasters","placeID":"23424977","placeName":"United States","searchUrl":"http:\/\/twitter.com\/search?q=%23TheMasters","trendMapped":"the+masters","trendVolume":127710}]