[{"stateName":"AL","trendName":"#Ankara","placeID":"2364559","placeName":"Birmingham","searchUrl":"http:\/\/twitter.com\/search?q=%23Ankara","trendMapped":"ankara","trendVolume":638208},{"stateName":"AL","trendName":"#KCAs","placeID":"2364559","placeName":"Birmingham","searchUrl":"http:\/\/twitter.com\/search?q=%23KCAs","trendMapped":"kc+as","trendVolume":329331},{"stateName":"AL","trendName":"#TrumpRally","placeID":"2364559","placeName":"Birmingham","searchUrl":"http:\/\/twitter.com\/search?q=%23TrumpRally","trendMapped":"trump+rally","trendVolume":348669},{"stateName":"AL","trendName":"VOTING FOR 5H","placeID":"2364559","placeName":"Birmingham","searchUrl":"http:\/\/twitter.com\/search?q=%22VOTING+FOR+5H%22","trendMapped":"VOTING+FOR+5H","trendVolume":520861},{"stateName":"AZ","trendName":"#Ankara","placeID":"2508428","placeName":"Tucson","searchUrl":"http:\/\/twitter.com\/search?q=%23Ankara","trendMapped":"ankara","trendVolume":730113},{"stateName":"AZ","trendName":"#ArianaOnSNL","placeID":"2471390","placeName":"Phoenix","searchUrl":"http:\/\/twitter.com\/search?q=%23ArianaOnSNL","trendMapped":"ariana+on+snl","trendVolume":324636},{"stateName":"AZ","trendName":"#HistoryByHillary","placeID":"2449808","placeName":"Mesa","searchUrl":"http:\/\/twitter.com\/search?q=%23HistoryByHillary","trendMapped":"history+by+hillary","trendVolume":65421},{"stateName":"AZ","trendName":"#KCAs","placeID":"2508428","placeName":"Tucson","searchUrl":"http:\/\/twitter.com\/search?q=%23KCAs","trendMapped":"kc+as","trendVolume":318525},{"stateName":"AZ","trendName":"#TrumpRally","placeID":"2508428","placeName":"Tucson","searchUrl":"http:\/\/twitter.com\/search?q=%23TrumpRally","trendMapped":"trump+rally","trendVolume":348669},{"stateName":"AZ","trendName":"#WINNEREXITTOURinSeoulDay2","placeID":"2449808","placeName":"Mesa","searchUrl":"http:\/\/twitter.com\/search?q=%23WINNEREXITTOURinSeoulDay2","trendMapped":"winnerexittou+rin+seoul+day2","trendVolume":101960},{"stateName":"AZ","trendName":"'SNL'","placeID":"2449808","placeName":"Mesa","searchUrl":"http:\/\/twitter.com\/search?q=%27SNL%27","trendMapped":"'snl'","trendVolume":132929},{"stateName":"AZ","trendName":"CW STOP JASON ROTHENBERG","placeID":"2508428","placeName":"Tucson","searchUrl":"http:\/\/twitter.com\/search?q=%22CW+STOP+JASON+ROTHENBERG%22","trendMapped":"CW+STOP+JASON+ROTHENBERG","trendVolume":131133},{"stateName":"AZ","trendName":"VOTING FOR 5H","placeID":"2508428","placeName":"Tucson","searchUrl":"http:\/\/twitter.com\/search?q=%22VOTING+FOR+5H%22","trendMapped":"VOTING+FOR+5H","trendVolume":763619},{"stateName":"CA","trendName":"#Ankara","placeID":"2488042","placeName":"San Jose","searchUrl":"http:\/\/twitter.com\/search?q=%23Ankara","trendMapped":"ankara","trendVolume":736895},{"stateName":"CA","trendName":"#ArianaOnSNL","placeID":"2488042","placeName":"San Jose","searchUrl":"http:\/\/twitter.com\/search?q=%23ArianaOnSNL","trendMapped":"ariana+on+snl","trendVolume":340963},{"stateName":"CA","trendName":"#DaylightSavingTime","placeID":"2441472","placeName":"Long Beach","searchUrl":"http:\/\/twitter.com\/search?q=%23DaylightSavingTime","trendMapped":"daylight+saving+time","trendVolume":35222},{"stateName":"CA","trendName":"#KCAs","placeID":"2488042","placeName":"San Jose","searchUrl":"http:\/\/twitter.com\/search?q=%23KCAs","trendMapped":"kc+as","trendVolume":316244},{"stateName":"CA","trendName":"#TrumpRally","placeID":"2488042","placeName":"San Jose","searchUrl":"http:\/\/twitter.com\/search?q=%23TrumpRally","trendMapped":"trump+rally","trendVolume":656250},{"stateName":"CA","trendName":"#WINNEREXITTOURinSeoulDay2","placeID":"2488042","placeName":"San Jose","searchUrl":"http:\/\/twitter.com\/search?q=%23WINNEREXITTOURinSeoulDay2","trendMapped":"winnerexittou+rin+seoul+day2","trendVolume":101004},{"stateName":"CA","trendName":"#WWERoadblock","placeID":"2487956","placeName":"San Francisco","searchUrl":"http:\/\/twitter.com\/search?q=%23WWERoadblock","trendMapped":"wwe+roadblock","trendVolume":84204},{"stateName":"CA","trendName":"'SNL'","placeID":"2442047","placeName":"Los Angeles","searchUrl":"http:\/\/twitter.com\/search?q=%27SNL%27","trendMapped":"'snl'","trendVolume":130053},{"stateName":"CA","trendName":"Arsenal","placeID":"2487956","placeName":"San Francisco","searchUrl":"http:\/\/twitter.com\/search?q=Arsenal","trendMapped":"arsenal","trendVolume":356424},{"stateName":"CA","trendName":"CW STOP JASON ROTHENBERG","placeID":"2487956","placeName":"San Francisco","searchUrl":"http:\/\/twitter.com\/search?q=%22CW+STOP+JASON+ROTHENBERG%22","trendMapped":"CW+STOP+JASON+ROTHENBERG","trendVolume":131984},{"stateName":"CA","trendName":"VOTING FOR 5H","placeID":"2488042","placeName":"San Jose","searchUrl":"http:\/\/twitter.com\/search?q=%22VOTING+FOR+5H%22","trendMapped":"VOTING+FOR+5H","trendVolume":777730},{"stateName":"CO","trendName":"#Ankara","placeID":"2391279","placeName":"Denver","searchUrl":"http:\/\/twitter.com\/search?q=%23Ankara","trendMapped":"ankara","trendVolume":710795},{"stateName":"CO","trendName":"#ArianaOnSNL","placeID":"2391279","placeName":"Denver","searchUrl":"http:\/\/twitter.com\/search?q=%23ArianaOnSNL","trendMapped":"ariana+on+snl","trendVolume":324636},{"stateName":"CO","trendName":"#KCAs","placeID":"2391279","placeName":"Denver","searchUrl":"http:\/\/twitter.com\/search?q=%23KCAs","trendMapped":"kc+as","trendVolume":312156},{"stateName":"CO","trendName":"#TrumpRally","placeID":"2391279","placeName":"Denver","searchUrl":"http:\/\/twitter.com\/search?q=%23TrumpRally","trendMapped":"trump+rally","trendVolume":669090},{"stateName":"CO","trendName":"#WINNEREXITTOURinSeoulDay2","placeID":"2383489","placeName":"Colorado Springs","searchUrl":"http:\/\/twitter.com\/search?q=%23WINNEREXITTOURinSeoulDay2","trendMapped":"winnerexittou+rin+seoul+day2","trendVolume":101960},{"stateName":"CO","trendName":"CW STOP JASON ROTHENBERG","placeID":"2383489","placeName":"Colorado Springs","searchUrl":"http:\/\/twitter.com\/search?q=%22CW+STOP+JASON+ROTHENBERG%22","trendMapped":"CW+STOP+JASON+ROTHENBERG","trendVolume":130209},{"stateName":"CO","trendName":"VOTING FOR 5H","placeID":"2391279","placeName":"Denver","searchUrl":"http:\/\/twitter.com\/search?q=%22VOTING+FOR+5H%22","trendMapped":"VOTING+FOR+5H","trendVolume":588147},{"stateName":"CT","trendName":"#Ankara","placeID":"2458410","placeName":"New Haven","searchUrl":"http:\/\/twitter.com\/search?q=%23Ankara","trendMapped":"ankara","trendVolume":721503},{"stateName":"CT","trendName":"#ArianaOnSNL","placeID":"2458410","placeName":"New Haven","searchUrl":"http:\/\/twitter.com\/search?q=%23ArianaOnSNL","trendMapped":"ariana+on+snl","trendVolume":340963},{"stateName":"CT","trendName":"#HistoryByHillary","placeID":"2458410","placeName":"New Haven","searchUrl":"http:\/\/twitter.com\/search?q=%23HistoryByHillary","trendMapped":"history+by+hillary","trendVolume":65421},{"stateName":"CT","trendName":"#KCAs","placeID":"2458410","placeName":"New Haven","searchUrl":"http:\/\/twitter.com\/search?q=%23KCAs","trendMapped":"kc+as","trendVolume":318525},{"stateName":"CT","trendName":"#TrumpRally","placeID":"2458410","placeName":"New Haven","searchUrl":"http:\/\/twitter.com\/search?q=%23TrumpRally","trendMapped":"trump+rally","trendVolume":650001},{"stateName":"CT","trendName":"CW STOP JASON ROTHENBERG","placeID":"2458410","placeName":"New Haven","searchUrl":"http:\/\/twitter.com\/search?q=%22CW+STOP+JASON+ROTHENBERG%22","trendMapped":"CW+STOP+JASON+ROTHENBERG","trendVolume":130209},{"stateName":"CT","trendName":"VOTING FOR 5H","placeID":"2458410","placeName":"New Haven","searchUrl":"http:\/\/twitter.com\/search?q=%22VOTING+FOR+5H%22","trendMapped":"VOTING+FOR+5H","trendVolume":700225},{"stateName":"DC","trendName":"#Ankara","placeID":"2514815","placeName":"Washington","searchUrl":"http:\/\/twitter.com\/search?q=%23Ankara","trendMapped":"ankara","trendVolume":687606},{"stateName":"DC","trendName":"#ArianaOnSNL","placeID":"2514815","placeName":"Washington","searchUrl":"http:\/\/twitter.com\/search?q=%23ArianaOnSNL","trendMapped":"ariana+on+snl","trendVolume":314396},{"stateName":"DC","trendName":"#DaylightSavingTime","placeID":"2514815","placeName":"Washington","searchUrl":"http:\/\/twitter.com\/search?q=%23DaylightSavingTime","trendMapped":"daylight+saving+time","trendVolume":35222},{"stateName":"DC","trendName":"#KCAs","placeID":"2514815","placeName":"Washington","searchUrl":"http:\/\/twitter.com\/search?q=%23KCAs","trendMapped":"kc+as","trendVolume":300038},{"stateName":"DC","trendName":"#TrumpRally","placeID":"2514815","placeName":"Washington","searchUrl":"http:\/\/twitter.com\/search?q=%23TrumpRally","trendMapped":"trump+rally","trendVolume":256718},{"stateName":"DC","trendName":"CW STOP JASON ROTHENBERG","placeID":"2514815","placeName":"Washington","searchUrl":"http:\/\/twitter.com\/search?q=%22CW+STOP+JASON+ROTHENBERG%22","trendMapped":"CW+STOP+JASON+ROTHENBERG","trendVolume":120579},{"stateName":"DC","trendName":"VOTING FOR 5H","placeID":"2514815","placeName":"Washington","searchUrl":"http:\/\/twitter.com\/search?q=%22VOTING+FOR+5H%22","trendMapped":"VOTING+FOR+5H","trendVolume":409613},{"stateName":"FL","trendName":"#Ankara","placeID":"2503863","placeName":"Tampa","searchUrl":"http:\/\/twitter.com\/search?q=%23Ankara","trendMapped":"ankara","trendVolume":730113},{"stateName":"FL","trendName":"#ArianaOnSNL","placeID":"2466256","placeName":"Orlando","searchUrl":"http:\/\/twitter.com\/search?q=%23ArianaOnSNL","trendMapped":"ariana+on+snl","trendVolume":338480},{"stateName":"FL","trendName":"#KCAs","placeID":"2503863","placeName":"Tampa","searchUrl":"http:\/\/twitter.com\/search?q=%23KCAs","trendMapped":"kc+as","trendVolume":321572},{"stateName":"FL","trendName":"#TrumpRally","placeID":"2503863","placeName":"Tampa","searchUrl":"http:\/\/twitter.com\/search?q=%23TrumpRally","trendMapped":"trump+rally","trendVolume":652013},{"stateName":"FL","trendName":"Trump","placeID":"2503713","placeName":"Tallahassee","searchUrl":"http:\/\/twitter.com\/search?q=Trump","trendMapped":"trump","trendVolume":2895335},{"stateName":"FL","trendName":"VOTING FOR 5H","placeID":"2503863","placeName":"Tampa","searchUrl":"http:\/\/twitter.com\/search?q=%22VOTING+FOR+5H%22","trendMapped":"VOTING+FOR+5H","trendVolume":784176},{"stateName":"GA","trendName":"#Ankara","placeID":"2357024","placeName":"Atlanta","searchUrl":"http:\/\/twitter.com\/search?q=%23Ankara","trendMapped":"ankara","trendVolume":687606},{"stateName":"GA","trendName":"#ArianaOnSNL","placeID":"2357024","placeName":"Atlanta","searchUrl":"http:\/\/twitter.com\/search?q=%23ArianaOnSNL","trendMapped":"ariana+on+snl","trendVolume":228298},{"stateName":"GA","trendName":"#KCAs","placeID":"2357024","placeName":"Atlanta","searchUrl":"http:\/\/twitter.com\/search?q=%23KCAs","trendMapped":"kc+as","trendVolume":300038},{"stateName":"GA","trendName":"#TrumpRally","placeID":"2357024","placeName":"Atlanta","searchUrl":"http:\/\/twitter.com\/search?q=%23TrumpRally","trendMapped":"trump+rally","trendVolume":391357},{"stateName":"GA","trendName":"CW STOP JASON ROTHENBERG","placeID":"2357024","placeName":"Atlanta","searchUrl":"http:\/\/twitter.com\/search?q=%22CW+STOP+JASON+ROTHENBERG%22","trendMapped":"CW+STOP+JASON+ROTHENBERG","trendVolume":115795},{"stateName":"GA","trendName":"VOTING FOR 5H","placeID":"2357024","placeName":"Atlanta","searchUrl":"http:\/\/twitter.com\/search?q=%22VOTING+FOR+5H%22","trendMapped":"VOTING+FOR+5H","trendVolume":469493},{"stateName":"HI","trendName":"#KCAs","placeID":"2423945","placeName":"Honolulu","searchUrl":"http:\/\/twitter.com\/search?q=%23KCAs","trendMapped":"kc+as","trendVolume":259475},{"stateName":"HI","trendName":"#Trump","placeID":"2423945","placeName":"Honolulu","searchUrl":"http:\/\/twitter.com\/search?q=%23Trump","trendMapped":"trump","trendVolume":215501},{"stateName":"HI","trendName":"#TrumpRally","placeID":"2423945","placeName":"Honolulu","searchUrl":"http:\/\/twitter.com\/search?q=%23TrumpRally","trendMapped":"trump+rally","trendVolume":391357},{"stateName":"HI","trendName":"#WWERoadblock","placeID":"2423945","placeName":"Honolulu","searchUrl":"http:\/\/twitter.com\/search?q=%23WWERoadblock","trendMapped":"wwe+roadblock","trendVolume":200197},{"stateName":"HI","trendName":"VOTING FOR 5H","placeID":"2423945","placeName":"Honolulu","searchUrl":"http:\/\/twitter.com\/search?q=%22VOTING+FOR+5H%22","trendMapped":"VOTING+FOR+5H","trendVolume":648398},{"stateName":"IL","trendName":"#Ankara","placeID":"2379574","placeName":"Chicago","searchUrl":"http:\/\/twitter.com\/search?q=%23Ankara","trendMapped":"ankara","trendVolume":631170},{"stateName":"IL","trendName":"#KCAs","placeID":"2379574","placeName":"Chicago","searchUrl":"http:\/\/twitter.com\/search?q=%23KCAs","trendMapped":"kc+as","trendVolume":318525},{"stateName":"IL","trendName":"#TrumpRally","placeID":"2379574","placeName":"Chicago","searchUrl":"http:\/\/twitter.com\/search?q=%23TrumpRally","trendMapped":"trump+rally","trendVolume":280038},{"stateName":"IL","trendName":"CW STOP JASON ROTHENBERG","placeID":"2379574","placeName":"Chicago","searchUrl":"http:\/\/twitter.com\/search?q=%22CW+STOP+JASON+ROTHENBERG%22","trendMapped":"CW+STOP+JASON+ROTHENBERG","trendVolume":128463},{"stateName":"IL","trendName":"VOTING FOR 5H","placeID":"2379574","placeName":"Chicago","searchUrl":"http:\/\/twitter.com\/search?q=%22VOTING+FOR+5H%22","trendMapped":"VOTING+FOR+5H","trendVolume":741196},{"stateName":"IN","trendName":"#Ankara","placeID":"2427032","placeName":"Indianapolis","searchUrl":"http:\/\/twitter.com\/search?q=%23Ankara","trendMapped":"ankara","trendVolume":736895},{"stateName":"IN","trendName":"#KCAs","placeID":"2427032","placeName":"Indianapolis","searchUrl":"http:\/\/twitter.com\/search?q=%23KCAs","trendMapped":"kc+as","trendVolume":312156},{"stateName":"IN","trendName":"#TrumpRally","placeID":"2427032","placeName":"Indianapolis","searchUrl":"http:\/\/twitter.com\/search?q=%23TrumpRally","trendMapped":"trump+rally","trendVolume":652013},{"stateName":"IN","trendName":"VOTING FOR 5H","placeID":"2427032","placeName":"Indianapolis","searchUrl":"http:\/\/twitter.com\/search?q=%22VOTING+FOR+5H%22","trendMapped":"VOTING+FOR+5H","trendVolume":280431},{"stateName":"KY","trendName":"#Ankara","placeID":"2442327","placeName":"Louisville","searchUrl":"http:\/\/twitter.com\/search?q=%23Ankara","trendMapped":"ankara","trendVolume":730113},{"stateName":"KY","trendName":"#ArianaOnSNL","placeID":"2442327","placeName":"Louisville","searchUrl":"http:\/\/twitter.com\/search?q=%23ArianaOnSNL","trendMapped":"ariana+on+snl","trendVolume":326005},{"stateName":"KY","trendName":"#KCAs","placeID":"2442327","placeName":"Louisville","searchUrl":"http:\/\/twitter.com\/search?q=%23KCAs","trendMapped":"kc+as","trendVolume":306187},{"stateName":"KY","trendName":"#TrumpRally","placeID":"2442327","placeName":"Louisville","searchUrl":"http:\/\/twitter.com\/search?q=%23TrumpRally","trendMapped":"trump+rally","trendVolume":648027},{"stateName":"KY","trendName":"VOTING FOR 5H","placeID":"2442327","placeName":"Louisville","searchUrl":"http:\/\/twitter.com\/search?q=%22VOTING+FOR+5H%22","trendMapped":"VOTING+FOR+5H","trendVolume":763619},{"stateName":"LA","trendName":"#Ankara","placeID":"2458833","placeName":"New Orleans","searchUrl":"http:\/\/twitter.com\/search?q=%23Ankara","trendMapped":"ankara","trendVolume":730113},{"stateName":"LA","trendName":"#ArianaOnSNL","placeID":"2359991","placeName":"Baton Rouge","searchUrl":"http:\/\/twitter.com\/search?q=%23ArianaOnSNL","trendMapped":"ariana+on+snl","trendVolume":336738},{"stateName":"LA","trendName":"#KCAs","placeID":"2458833","placeName":"New Orleans","searchUrl":"http:\/\/twitter.com\/search?q=%23KCAs","trendMapped":"kc+as","trendVolume":314550},{"stateName":"LA","trendName":"#TrumpRally","placeID":"2458833","placeName":"New Orleans","searchUrl":"http:\/\/twitter.com\/search?q=%23TrumpRally","trendMapped":"trump+rally","trendVolume":656250},{"stateName":"LA","trendName":"#WWERoadblock","placeID":"2458833","placeName":"New Orleans","searchUrl":"http:\/\/twitter.com\/search?q=%23WWERoadblock","trendMapped":"wwe+roadblock","trendVolume":201645},{"stateName":"LA","trendName":"VOTING FOR 5H","placeID":"2458833","placeName":"New Orleans","searchUrl":"http:\/\/twitter.com\/search?q=%22VOTING+FOR+5H%22","trendMapped":"VOTING+FOR+5H","trendVolume":680902},{"stateName":"MA","trendName":"#ArianaOnSNL","placeID":"2367105","placeName":"Boston","searchUrl":"http:\/\/twitter.com\/search?q=%23ArianaOnSNL","trendMapped":"ariana+on+snl","trendVolume":324636},{"stateName":"MA","trendName":"#KCAs","placeID":"2367105","placeName":"Boston","searchUrl":"http:\/\/twitter.com\/search?q=%23KCAs","trendMapped":"kc+as","trendVolume":287992},{"stateName":"MA","trendName":"#SelenaGomez","placeID":"2367105","placeName":"Boston","searchUrl":"http:\/\/twitter.com\/search?q=%23SelenaGomez","trendMapped":"selena+gomez","trendVolume":573568},{"stateName":"MA","trendName":"#TripleThreat","placeID":"2367105","placeName":"Boston","searchUrl":"http:\/\/twitter.com\/search?q=%23TripleThreat","trendMapped":"triple+threat","trendVolume":1664212},{"stateName":"MA","trendName":"CW STOP JASON ROTHENBERG","placeID":"2367105","placeName":"Boston","searchUrl":"http:\/\/twitter.com\/search?q=%22CW+STOP+JASON+ROTHENBERG%22","trendMapped":"CW+STOP+JASON+ROTHENBERG","trendVolume":120579},{"stateName":"MA","trendName":"VOTING FOR 5H","placeID":"2367105","placeName":"Boston","searchUrl":"http:\/\/twitter.com\/search?q=%22VOTING+FOR+5H%22","trendMapped":"VOTING+FOR+5H","trendVolume":487371},{"stateName":"MD","trendName":"#Ankara","placeID":"2358820","placeName":"Baltimore","searchUrl":"http:\/\/twitter.com\/search?q=%23Ankara","trendMapped":"ankara","trendVolume":564381},{"stateName":"MD","trendName":"#ArianaOnSNL","placeID":"2358820","placeName":"Baltimore","searchUrl":"http:\/\/twitter.com\/search?q=%23ArianaOnSNL","trendMapped":"ariana+on+snl","trendVolume":329614},{"stateName":"MD","trendName":"#TrumpRally","placeID":"2358820","placeName":"Baltimore","searchUrl":"http:\/\/twitter.com\/search?q=%23TrumpRally","trendMapped":"trump+rally","trendVolume":652013},{"stateName":"MD","trendName":"VOTING FOR 5H","placeID":"2358820","placeName":"Baltimore","searchUrl":"http:\/\/twitter.com\/search?q=%22VOTING+FOR+5H%22","trendMapped":"VOTING+FOR+5H","trendVolume":493245},{"stateName":"MI","trendName":"#KCAs","placeID":"2391585","placeName":"Detroit","searchUrl":"http:\/\/twitter.com\/search?q=%23KCAs","trendMapped":"kc+as","trendVolume":306909},{"stateName":"MI","trendName":"#TrumpRally","placeID":"2391585","placeName":"Detroit","searchUrl":"http:\/\/twitter.com\/search?q=%23TrumpRally","trendMapped":"trump+rally","trendVolume":656250},{"stateName":"MI","trendName":"VOTING FOR 5H","placeID":"2391585","placeName":"Detroit","searchUrl":"http:\/\/twitter.com\/search?q=%22VOTING+FOR+5H%22","trendMapped":"VOTING+FOR+5H","trendVolume":680902},{"stateName":"MN","trendName":"#Ankara","placeID":"2452078","placeName":"Minneapolis","searchUrl":"http:\/\/twitter.com\/search?q=%23Ankara","trendMapped":"ankara","trendVolume":702424},{"stateName":"MN","trendName":"#Chicago","placeID":"2452078","placeName":"Minneapolis","searchUrl":"http:\/\/twitter.com\/search?q=%23Chicago","trendMapped":"chicago","trendVolume":159846},{"stateName":"MN","trendName":"#KCAs","placeID":"2452078","placeName":"Minneapolis","searchUrl":"http:\/\/twitter.com\/search?q=%23KCAs","trendMapped":"kc+as","trendVolume":317793},{"stateName":"MN","trendName":"#TrumpRally","placeID":"2452078","placeName":"Minneapolis","searchUrl":"http:\/\/twitter.com\/search?q=%23TrumpRally","trendMapped":"trump+rally","trendVolume":295064},{"stateName":"MN","trendName":"VOTING FOR 5H","placeID":"2452078","placeName":"Minneapolis","searchUrl":"http:\/\/twitter.com\/search?q=%22VOTING+FOR+5H%22","trendMapped":"VOTING+FOR+5H","trendVolume":700225},{"stateName":"MO","trendName":"#Ankara","placeID":"2430683","placeName":"Kansas City","searchUrl":"http:\/\/twitter.com\/search?q=%23Ankara","trendMapped":"ankara","trendVolume":730113},{"stateName":"MO","trendName":"#ArianaOnSNL","placeID":"2486982","placeName":"St. Louis","searchUrl":"http:\/\/twitter.com\/search?q=%23ArianaOnSNL","trendMapped":"ariana+on+snl","trendVolume":335309},{"stateName":"MO","trendName":"#KCAs","placeID":"2486982","placeName":"St. Louis","searchUrl":"http:\/\/twitter.com\/search?q=%23KCAs","trendMapped":"kc+as","trendVolume":318525},{"stateName":"MO","trendName":"#TrumpRally","placeID":"2486982","placeName":"St. Louis","searchUrl":"http:\/\/twitter.com\/search?q=%23TrumpRally","trendMapped":"trump+rally","trendVolume":656250},{"stateName":"MO","trendName":"VOTING FOR 5H","placeID":"2486982","placeName":"St. Louis","searchUrl":"http:\/\/twitter.com\/search?q=%22VOTING+FOR+5H%22","trendMapped":"VOTING+FOR+5H","trendVolume":784176},{"stateName":"MO","trendName":"Vancouver","placeID":"2430683","placeName":"Kansas City","searchUrl":"http:\/\/twitter.com\/search?q=Vancouver","trendMapped":"vancouver","trendVolume":293606},{"stateName":"MS","trendName":"#Ankara","placeID":"2428184","placeName":"Jackson","searchUrl":"http:\/\/twitter.com\/search?q=%23Ankara","trendMapped":"ankara","trendVolume":697609},{"stateName":"MS","trendName":"#ArianaOnSNL","placeID":"2428184","placeName":"Jackson","searchUrl":"http:\/\/twitter.com\/search?q=%23ArianaOnSNL","trendMapped":"ariana+on+snl","trendVolume":340062},{"stateName":"MS","trendName":"#KCAs","placeID":"2428184","placeName":"Jackson","searchUrl":"http:\/\/twitter.com\/search?q=%23KCAs","trendMapped":"kc+as","trendVolume":304795},{"stateName":"MS","trendName":"#TrumpRally","placeID":"2428184","placeName":"Jackson","searchUrl":"http:\/\/twitter.com\/search?q=%23TrumpRally","trendMapped":"trump+rally","trendVolume":656250},{"stateName":"MS","trendName":"VOTING FOR 5H","placeID":"2428184","placeName":"Jackson","searchUrl":"http:\/\/twitter.com\/search?q=%22VOTING+FOR+5H%22","trendMapped":"VOTING+FOR+5H","trendVolume":363373},{"stateName":"NC","trendName":"#Ankara","placeID":"2478307","placeName":"Raleigh","searchUrl":"http:\/\/twitter.com\/search?q=%23Ankara","trendMapped":"ankara","trendVolume":734859},{"stateName":"NC","trendName":"#ArianaOnSNL","placeID":"2478307","placeName":"Raleigh","searchUrl":"http:\/\/twitter.com\/search?q=%23ArianaOnSNL","trendMapped":"ariana+on+snl","trendVolume":230068},{"stateName":"NC","trendName":"#KCAs","placeID":"2478307","placeName":"Raleigh","searchUrl":"http:\/\/twitter.com\/search?q=%23KCAs","trendMapped":"kc+as","trendVolume":314550},{"stateName":"NC","trendName":"#TrumpRally","placeID":"2478307","placeName":"Raleigh","searchUrl":"http:\/\/twitter.com\/search?q=%23TrumpRally","trendMapped":"trump+rally","trendVolume":656250},{"stateName":"NC","trendName":"Trump","placeID":"2414469","placeName":"Greensboro","searchUrl":"http:\/\/twitter.com\/search?q=Trump","trendMapped":"trump","trendVolume":2203297},{"stateName":"NC","trendName":"VOTING FOR 5H","placeID":"2478307","placeName":"Raleigh","searchUrl":"http:\/\/twitter.com\/search?q=%22VOTING+FOR+5H%22","trendMapped":"VOTING+FOR+5H","trendVolume":731345},{"stateName":"NE","trendName":"#Ankara","placeID":"2465512","placeName":"Omaha","searchUrl":"http:\/\/twitter.com\/search?q=%23Ankara","trendMapped":"ankara","trendVolume":710795},{"stateName":"NE","trendName":"#ArianaOnSNL","placeID":"2465512","placeName":"Omaha","searchUrl":"http:\/\/twitter.com\/search?q=%23ArianaOnSNL","trendMapped":"ariana+on+snl","trendVolume":338480},{"stateName":"NE","trendName":"#KCAs","placeID":"2465512","placeName":"Omaha","searchUrl":"http:\/\/twitter.com\/search?q=%23KCAs","trendMapped":"kc+as","trendVolume":304045},{"stateName":"NE","trendName":"#TrumpRally","placeID":"2465512","placeName":"Omaha","searchUrl":"http:\/\/twitter.com\/search?q=%23TrumpRally","trendMapped":"trump+rally","trendVolume":345722},{"stateName":"NE","trendName":"VOTING FOR 5H","placeID":"2465512","placeName":"Omaha","searchUrl":"http:\/\/twitter.com\/search?q=%22VOTING+FOR+5H%22","trendMapped":"VOTING+FOR+5H","trendVolume":763619},{"stateName":"NM","trendName":"#Ankara","placeID":"2352824","placeName":"Albuquerque","searchUrl":"http:\/\/twitter.com\/search?q=%23Ankara","trendMapped":"ankara","trendVolume":687606},{"stateName":"NM","trendName":"#ArianaOnSNL","placeID":"2352824","placeName":"Albuquerque","searchUrl":"http:\/\/twitter.com\/search?q=%23ArianaOnSNL","trendMapped":"ariana+on+snl","trendVolume":230068},{"stateName":"NM","trendName":"#KCAs","placeID":"2352824","placeName":"Albuquerque","searchUrl":"http:\/\/twitter.com\/search?q=%23KCAs","trendMapped":"kc+as","trendVolume":318525},{"stateName":"NM","trendName":"'SNL'","placeID":"2352824","placeName":"Albuquerque","searchUrl":"http:\/\/twitter.com\/search?q=%27SNL%27","trendMapped":"'snl'","trendVolume":130251},{"stateName":"NM","trendName":"CW STOP JASON ROTHENBERG","placeID":"2352824","placeName":"Albuquerque","searchUrl":"http:\/\/twitter.com\/search?q=%22CW+STOP+JASON+ROTHENBERG%22","trendMapped":"CW+STOP+JASON+ROTHENBERG","trendVolume":125088},{"stateName":"NM","trendName":"VOTING FOR 5H","placeID":"2352824","placeName":"Albuquerque","searchUrl":"http:\/\/twitter.com\/search?q=%22VOTING+FOR+5H%22","trendMapped":"VOTING+FOR+5H","trendVolume":238338},{"stateName":"NV","trendName":"#Ankara","placeID":"2436704","placeName":"Las Vegas","searchUrl":"http:\/\/twitter.com\/search?q=%23Ankara","trendMapped":"ankara","trendVolume":736895},{"stateName":"NV","trendName":"#ArianaOnSNL","placeID":"2436704","placeName":"Las Vegas","searchUrl":"http:\/\/twitter.com\/search?q=%23ArianaOnSNL","trendMapped":"ariana+on+snl","trendVolume":315745},{"stateName":"NV","trendName":"#KCAs","placeID":"2436704","placeName":"Las Vegas","searchUrl":"http:\/\/twitter.com\/search?q=%23KCAs","trendMapped":"kc+as","trendVolume":309840},{"stateName":"NV","trendName":"#TrumpRally","placeID":"2436704","placeName":"Las Vegas","searchUrl":"http:\/\/twitter.com\/search?q=%23TrumpRally","trendMapped":"trump+rally","trendVolume":558982},{"stateName":"NV","trendName":"VOTING FOR 5H","placeID":"2436704","placeName":"Las Vegas","searchUrl":"http:\/\/twitter.com\/search?q=%22VOTING+FOR+5H%22","trendMapped":"VOTING+FOR+5H","trendVolume":763619},{"stateName":"NY","trendName":"#Ankara","placeID":"2459115","placeName":"New York","searchUrl":"http:\/\/twitter.com\/search?q=%23Ankara","trendMapped":"ankara","trendVolume":702424},{"stateName":"NY","trendName":"#KCAs","placeID":"2459115","placeName":"New York","searchUrl":"http:\/\/twitter.com\/search?q=%23KCAs","trendMapped":"kc+as","trendVolume":309840},{"stateName":"NY","trendName":"#WINNEREXITTOURinSeoulDay2","placeID":"2459115","placeName":"New York","searchUrl":"http:\/\/twitter.com\/search?q=%23WINNEREXITTOURinSeoulDay2","trendMapped":"winnerexittou+rin+seoul+day2","trendVolume":101380},{"stateName":"NY","trendName":"Ankara","placeID":"2459115","placeName":"New York","searchUrl":"http:\/\/twitter.com\/search?q=Ankara","trendMapped":"ankara","trendVolume":562570},{"stateName":"NY","trendName":"CW STOP JASON ROTHENBERG","placeID":"2459115","placeName":"New York","searchUrl":"http:\/\/twitter.com\/search?q=%22CW+STOP+JASON+ROTHENBERG%22","trendMapped":"CW+STOP+JASON+ROTHENBERG","trendVolume":128463},{"stateName":"NY","trendName":"VOTING FOR 5H","placeID":"2459115","placeName":"New York","searchUrl":"http:\/\/twitter.com\/search?q=%22VOTING+FOR+5H%22","trendMapped":"VOTING+FOR+5H","trendVolume":741196},{"stateName":"OH","trendName":"#Ankara","placeID":"2381475","placeName":"Cleveland","searchUrl":"http:\/\/twitter.com\/search?q=%23Ankara","trendMapped":"ankara","trendVolume":736895},{"stateName":"OH","trendName":"#ArianaOnSNL","placeID":"2381475","placeName":"Cleveland","searchUrl":"http:\/\/twitter.com\/search?q=%23ArianaOnSNL","trendMapped":"ariana+on+snl","trendVolume":338480},{"stateName":"OH","trendName":"#BestFanArmy","placeID":"2383660","placeName":"Columbus","searchUrl":"http:\/\/twitter.com\/search?q=%23BestFanArmy","trendMapped":"best+fan+army","trendVolume":5592577},{"stateName":"OH","trendName":"#KCAs","placeID":"2383660","placeName":"Columbus","searchUrl":"http:\/\/twitter.com\/search?q=%23KCAs","trendMapped":"kc+as","trendVolume":321572},{"stateName":"OH","trendName":"#TrumpRally","placeID":"2383660","placeName":"Columbus","searchUrl":"http:\/\/twitter.com\/search?q=%23TrumpRally","trendMapped":"trump+rally","trendVolume":648027},{"stateName":"OH","trendName":"Championship","placeID":"2381475","placeName":"Cleveland","searchUrl":"http:\/\/twitter.com\/search?q=Championship","trendMapped":"championship","trendVolume":115216},{"stateName":"OH","trendName":"VOTING FOR 5H","placeID":"2383660","placeName":"Columbus","searchUrl":"http:\/\/twitter.com\/search?q=%22VOTING+FOR+5H%22","trendMapped":"VOTING+FOR+5H","trendVolume":784176},{"stateName":"OK","trendName":"#Ankara","placeID":"2464592","placeName":"Oklahoma City","searchUrl":"http:\/\/twitter.com\/search?q=%23Ankara","trendMapped":"ankara","trendVolume":536188},{"stateName":"OK","trendName":"#KCAs","placeID":"2464592","placeName":"Oklahoma City","searchUrl":"http:\/\/twitter.com\/search?q=%23KCAs","trendMapped":"kc+as","trendVolume":314550},{"stateName":"OK","trendName":"#TrumpRally","placeID":"2464592","placeName":"Oklahoma City","searchUrl":"http:\/\/twitter.com\/search?q=%23TrumpRally","trendMapped":"trump+rally","trendVolume":558982},{"stateName":"OR","trendName":"#Ankara","placeID":"2475687","placeName":"Portland","searchUrl":"http:\/\/twitter.com\/search?q=%23Ankara","trendMapped":"ankara","trendVolume":651271},{"stateName":"OR","trendName":"#ArianaOnSNL","placeID":"2475687","placeName":"Portland","searchUrl":"http:\/\/twitter.com\/search?q=%23ArianaOnSNL","trendMapped":"ariana+on+snl","trendVolume":340062},{"stateName":"OR","trendName":"#KCAs","placeID":"2475687","placeName":"Portland","searchUrl":"http:\/\/twitter.com\/search?q=%23KCAs","trendMapped":"kc+as","trendVolume":318525},{"stateName":"OR","trendName":"#TrumpRally","placeID":"2475687","placeName":"Portland","searchUrl":"http:\/\/twitter.com\/search?q=%23TrumpRally","trendMapped":"trump+rally","trendVolume":651385},{"stateName":"OR","trendName":"VOTING FOR 5H","placeID":"2475687","placeName":"Portland","searchUrl":"http:\/\/twitter.com\/search?q=%22VOTING+FOR+5H%22","trendMapped":"VOTING+FOR+5H","trendVolume":700225},{"stateName":"PA","trendName":"#Ankara","placeID":"2471217","placeName":"Philadelphia","searchUrl":"http:\/\/twitter.com\/search?q=%23Ankara","trendMapped":"ankara","trendVolume":734859},{"stateName":"PA","trendName":"#ArianaOnSNL","placeID":"2473224","placeName":"Pittsburgh","searchUrl":"http:\/\/twitter.com\/search?q=%23ArianaOnSNL","trendMapped":"ariana+on+snl","trendVolume":327239},{"stateName":"PA","trendName":"#BestFanArmy","placeID":"2473224","placeName":"Pittsburgh","searchUrl":"http:\/\/twitter.com\/search?q=%23BestFanArmy","trendMapped":"best+fan+army","trendVolume":5585775},{"stateName":"PA","trendName":"#KCAs","placeID":"2473224","placeName":"Pittsburgh","searchUrl":"http:\/\/twitter.com\/search?q=%23KCAs","trendMapped":"kc+as","trendVolume":310553},{"stateName":"PA","trendName":"#TrumpRally","placeID":"2473224","placeName":"Pittsburgh","searchUrl":"http:\/\/twitter.com\/search?q=%23TrumpRally","trendMapped":"trump+rally","trendVolume":669090},{"stateName":"PA","trendName":"'SNL'","placeID":"2471217","placeName":"Philadelphia","searchUrl":"http:\/\/twitter.com\/search?q=%27SNL%27","trendMapped":"'snl'","trendVolume":130053},{"stateName":"PA","trendName":"Trump","placeID":"2418046","placeName":"Harrisburg","searchUrl":"http:\/\/twitter.com\/search?q=Trump","trendMapped":"trump","trendVolume":2209429},{"stateName":"PA","trendName":"VOTING FOR 5H","placeID":"2473224","placeName":"Pittsburgh","searchUrl":"http:\/\/twitter.com\/search?q=%22VOTING+FOR+5H%22","trendMapped":"VOTING+FOR+5H","trendVolume":763619},{"stateName":"RI","trendName":"#Ankara","placeID":"2477058","placeName":"Providence","searchUrl":"http:\/\/twitter.com\/search?q=%23Ankara","trendMapped":"ankara","trendVolume":721503},{"stateName":"RI","trendName":"#ArianaOnSNL","placeID":"2477058","placeName":"Providence","searchUrl":"http:\/\/twitter.com\/search?q=%23ArianaOnSNL","trendMapped":"ariana+on+snl","trendVolume":335309},{"stateName":"RI","trendName":"#KCAs","placeID":"2477058","placeName":"Providence","searchUrl":"http:\/\/twitter.com\/search?q=%23KCAs","trendMapped":"kc+as","trendVolume":261795},{"stateName":"RI","trendName":"#TrumpRally","placeID":"2477058","placeName":"Providence","searchUrl":"http:\/\/twitter.com\/search?q=%23TrumpRally","trendMapped":"trump+rally","trendVolume":650001},{"stateName":"RI","trendName":"#WWERoadblock","placeID":"2477058","placeName":"Providence","searchUrl":"http:\/\/twitter.com\/search?q=%23WWERoadblock","trendMapped":"wwe+roadblock","trendVolume":172608},{"stateName":"RI","trendName":"VOTING FOR 5H","placeID":"2477058","placeName":"Providence","searchUrl":"http:\/\/twitter.com\/search?q=%22VOTING+FOR+5H%22","trendMapped":"VOTING+FOR+5H","trendVolume":680902},{"stateName":"TN","trendName":"#Ankara","placeID":"2457170","placeName":"Nashville","searchUrl":"http:\/\/twitter.com\/search?q=%23Ankara","trendMapped":"ankara","trendVolume":721503},{"stateName":"TN","trendName":"#ArianaOnSNL","placeID":"2457170","placeName":"Nashville","searchUrl":"http:\/\/twitter.com\/search?q=%23ArianaOnSNL","trendMapped":"ariana+on+snl","trendVolume":315745},{"stateName":"TN","trendName":"#KCAs","placeID":"2457170","placeName":"Nashville","searchUrl":"http:\/\/twitter.com\/search?q=%23KCAs","trendMapped":"kc+as","trendVolume":316244},{"stateName":"TN","trendName":"#TrumpRally","placeID":"2457170","placeName":"Nashville","searchUrl":"http:\/\/twitter.com\/search?q=%23TrumpRally","trendMapped":"trump+rally","trendVolume":669090},{"stateName":"TN","trendName":"VOTING FOR 5H","placeID":"2457170","placeName":"Nashville","searchUrl":"http:\/\/twitter.com\/search?q=%22VOTING+FOR+5H%22","trendMapped":"VOTING+FOR+5H","trendVolume":612590},{"stateName":"TX","trendName":"#Ankara","placeID":"2487796","placeName":"San Antonio","searchUrl":"http:\/\/twitter.com\/search?q=%23Ankara","trendMapped":"ankara","trendVolume":730113},{"stateName":"TX","trendName":"#ArianaOnSNL","placeID":"2487796","placeName":"San Antonio","searchUrl":"http:\/\/twitter.com\/search?q=%23ArianaOnSNL","trendMapped":"ariana+on+snl","trendVolume":340062},{"stateName":"TX","trendName":"#HistoryByHillary","placeID":"2357536","placeName":"Austin","searchUrl":"http:\/\/twitter.com\/search?q=%23HistoryByHillary","trendMapped":"history+by+hillary","trendVolume":65421},{"stateName":"TX","trendName":"#KCAs","placeID":"2487796","placeName":"San Antonio","searchUrl":"http:\/\/twitter.com\/search?q=%23KCAs","trendMapped":"kc+as","trendVolume":327905},{"stateName":"TX","trendName":"#TrumpRally","placeID":"2487796","placeName":"San Antonio","searchUrl":"http:\/\/twitter.com\/search?q=%23TrumpRally","trendMapped":"trump+rally","trendVolume":652013},{"stateName":"TX","trendName":"Ankara","placeID":"2397816","placeName":"El Paso","searchUrl":"http:\/\/twitter.com\/search?q=Ankara","trendMapped":"ankara","trendVolume":542183},{"stateName":"TX","trendName":"ISIS","placeID":"2424766","placeName":"Houston","searchUrl":"http:\/\/twitter.com\/search?q=ISIS","trendMapped":"isis","trendVolume":151422},{"stateName":"TX","trendName":"Trump","placeID":"2397816","placeName":"El Paso","searchUrl":"http:\/\/twitter.com\/search?q=Trump","trendMapped":"trump","trendVolume":2602420},{"stateName":"TX","trendName":"VOTING FOR 5H","placeID":"2487796","placeName":"San Antonio","searchUrl":"http:\/\/twitter.com\/search?q=%22VOTING+FOR+5H%22","trendMapped":"VOTING+FOR+5H","trendVolume":784176},{"stateName":"UT","trendName":"#Ankara","placeID":"2487610","placeName":"Salt Lake City","searchUrl":"http:\/\/twitter.com\/search?q=%23Ankara","trendMapped":"ankara","trendVolume":702424},{"stateName":"UT","trendName":"#KCAs","placeID":"2487610","placeName":"Salt Lake City","searchUrl":"http:\/\/twitter.com\/search?q=%23KCAs","trendMapped":"kc+as","trendVolume":310553},{"stateName":"UT","trendName":"#TrumpRally","placeID":"2487610","placeName":"Salt Lake City","searchUrl":"http:\/\/twitter.com\/search?q=%23TrumpRally","trendMapped":"trump+rally","trendVolume":648659},{"stateName":"UT","trendName":"#WWERoadblock","placeID":"2487610","placeName":"Salt Lake City","searchUrl":"http:\/\/twitter.com\/search?q=%23WWERoadblock","trendMapped":"wwe+roadblock","trendVolume":201268},{"stateName":"UT","trendName":"VOTING FOR 5H","placeID":"2487610","placeName":"Salt Lake City","searchUrl":"http:\/\/twitter.com\/search?q=%22VOTING+FOR+5H%22","trendMapped":"VOTING+FOR+5H","trendVolume":784176},{"stateName":"VA","trendName":"#Ankara","placeID":"2512636","placeName":"Virginia Beach","searchUrl":"http:\/\/twitter.com\/search?q=%23Ankara","trendMapped":"ankara","trendVolume":727020},{"stateName":"VA","trendName":"#KCAs","placeID":"2512636","placeName":"Virginia Beach","searchUrl":"http:\/\/twitter.com\/search?q=%23KCAs","trendMapped":"kc+as","trendVolume":316244},{"stateName":"VA","trendName":"#TrumpRally","placeID":"2480894","placeName":"Richmond","searchUrl":"http:\/\/twitter.com\/search?q=%23TrumpRally","trendMapped":"trump+rally","trendVolume":669090},{"stateName":"VA","trendName":"#WWERoadblock","placeID":"2480894","placeName":"Richmond","searchUrl":"http:\/\/twitter.com\/search?q=%23WWERoadblock","trendMapped":"wwe+roadblock","trendVolume":201836},{"stateName":"VA","trendName":"'SNL'","placeID":"2512636","placeName":"Virginia Beach","searchUrl":"http:\/\/twitter.com\/search?q=%27SNL%27","trendMapped":"'snl'","trendVolume":130251},{"stateName":"VA","trendName":"CW STOP JASON ROTHENBERG","placeID":"2512636","placeName":"Virginia Beach","searchUrl":"http:\/\/twitter.com\/search?q=%22CW+STOP+JASON+ROTHENBERG%22","trendMapped":"CW+STOP+JASON+ROTHENBERG","trendVolume":131984},{"stateName":"VA","trendName":"VOTING FOR 5H","placeID":"2512636","placeName":"Virginia Beach","searchUrl":"http:\/\/twitter.com\/search?q=%22VOTING+FOR+5H%22","trendMapped":"VOTING+FOR+5H","trendVolume":700225},{"stateName":"WA","trendName":"#Ankara","placeID":"2490383","placeName":"Seattle","searchUrl":"http:\/\/twitter.com\/search?q=%23Ankara","trendMapped":"ankara","trendVolume":616796},{"stateName":"WA","trendName":"#KCAs","placeID":"2490383","placeName":"Seattle","searchUrl":"http:\/\/twitter.com\/search?q=%23KCAs","trendMapped":"kc+as","trendVolume":171044},{"stateName":"WA","trendName":"#TrumpRally","placeID":"2490383","placeName":"Seattle","searchUrl":"http:\/\/twitter.com\/search?q=%23TrumpRally","trendMapped":"trump+rally","trendVolume":348224},{"stateName":"WA","trendName":"CW STOP JASON ROTHENBERG","placeID":"2490383","placeName":"Seattle","searchUrl":"http:\/\/twitter.com\/search?q=%22CW+STOP+JASON+ROTHENBERG%22","trendMapped":"CW+STOP+JASON+ROTHENBERG","trendVolume":131984},{"stateName":"WA","trendName":"VOTING FOR 5H","placeID":"2490383","placeName":"Seattle","searchUrl":"http:\/\/twitter.com\/search?q=%22VOTING+FOR+5H%22","trendMapped":"VOTING+FOR+5H","trendVolume":648398},{"stateName":"WI","trendName":"#Ankara","placeID":"2451822","placeName":"Milwaukee","searchUrl":"http:\/\/twitter.com\/search?q=%23Ankara","trendMapped":"ankara","trendVolume":702424},{"stateName":"WI","trendName":"#ArianaOnSNL","placeID":"2451822","placeName":"Milwaukee","searchUrl":"http:\/\/twitter.com\/search?q=%23ArianaOnSNL","trendMapped":"ariana+on+snl","trendVolume":324636},{"stateName":"WI","trendName":"#KCAs","placeID":"2451822","placeName":"Milwaukee","searchUrl":"http:\/\/twitter.com\/search?q=%23KCAs","trendMapped":"kc+as","trendVolume":306909},{"stateName":"WI","trendName":"#TrumpRally","placeID":"2451822","placeName":"Milwaukee","searchUrl":"http:\/\/twitter.com\/search?q=%23TrumpRally","trendMapped":"trump+rally","trendVolume":653004},{"stateName":"WI","trendName":"VOTING FOR 5H","placeID":"2451822","placeName":"Milwaukee","searchUrl":"http:\/\/twitter.com\/search?q=%22VOTING+FOR+5H%22","trendMapped":"VOTING+FOR+5H","trendVolume":573596},{"stateName":"XX","trendName":"#Ankara","placeID":"23424977","placeName":"United States","searchUrl":"http:\/\/twitter.com\/search?q=%23Ankara","trendMapped":"ankara","trendVolume":736895},{"stateName":"XX","trendName":"#KCAs","placeID":"23424977","placeName":"United States","searchUrl":"http:\/\/twitter.com\/search?q=%23KCAs","trendMapped":"kc+as","trendVolume":316244},{"stateName":"XX","trendName":"#TrumpRally","placeID":"23424977","placeName":"United States","searchUrl":"http:\/\/twitter.com\/search?q=%23TrumpRally","trendMapped":"trump+rally","trendVolume":256718},{"stateName":"XX","trendName":"#WINNEREXITTOURinSeoulDay2","placeID":"23424977","placeName":"United States","searchUrl":"http:\/\/twitter.com\/search?q=%23WINNEREXITTOURinSeoulDay2","trendMapped":"winnerexittou+rin+seoul+day2","trendVolume":102439},{"stateName":"XX","trendName":"CW STOP JASON ROTHENBERG","placeID":"23424977","placeName":"United States","searchUrl":"http:\/\/twitter.com\/search?q=%22CW+STOP+JASON+ROTHENBERG%22","trendMapped":"CW+STOP+JASON+ROTHENBERG","trendVolume":125088},{"stateName":"XX","trendName":"VOTING FOR 5H","placeID":"23424977","placeName":"United States","searchUrl":"http:\/\/twitter.com\/search?q=%22VOTING+FOR+5H%22","trendMapped":"VOTING+FOR+5H","trendVolume":770827}]