[{"stateName":"AL","trendName":"#Brussels","placeID":"2364559","placeName":"Birmingham","searchUrl":"http:\/\/twitter.com\/search?q=%23Brussels","trendMapped":"brussels","trendVolume":2022310},{"stateName":"AL","trendName":"#EBGodGaveMeYou","placeID":"2364559","placeName":"Birmingham","searchUrl":"http:\/\/twitter.com\/search?q=%23EBGodGaveMeYou","trendMapped":"eb+god+gave+me+you","trendVolume":2101699},{"stateName":"AL","trendName":"#NationalPuppyDay","placeID":"2364559","placeName":"Birmingham","searchUrl":"http:\/\/twitter.com\/search?q=%23NationalPuppyDay","trendMapped":"national+puppy+day","trendVolume":509092},{"stateName":"AL","trendName":"Brussels","placeID":"2364559","placeName":"Birmingham","searchUrl":"http:\/\/twitter.com\/search?q=Brussels","trendMapped":"brussels","trendVolume":3347377},{"stateName":"AZ","trendName":"#Brussels","placeID":"2471390","placeName":"Phoenix","searchUrl":"http:\/\/twitter.com\/search?q=%23Brussels","trendMapped":"brussels","trendVolume":1067448},{"stateName":"AZ","trendName":"#BrusselsAttacks","placeID":"2508428","placeName":"Tucson","searchUrl":"http:\/\/twitter.com\/search?q=%23BrusselsAttacks","trendMapped":"brussels+attacks","trendVolume":252607},{"stateName":"AZ","trendName":"#EBGodGaveMeYou","placeID":"2508428","placeName":"Tucson","searchUrl":"http:\/\/twitter.com\/search?q=%23EBGodGaveMeYou","trendMapped":"eb+god+gave+me+you","trendVolume":2182229},{"stateName":"AZ","trendName":"#IndvsBan","placeID":"2508428","placeName":"Tucson","searchUrl":"http:\/\/twitter.com\/search?q=%23IndvsBan","trendMapped":"indvs+ban","trendVolume":395101},{"stateName":"AZ","trendName":"#NationalPuppyDay","placeID":"2508428","placeName":"Tucson","searchUrl":"http:\/\/twitter.com\/search?q=%23NationalPuppyDay","trendMapped":"national+puppy+day","trendVolume":573640},{"stateName":"AZ","trendName":"#WeAreHereForYouJustin","placeID":"2508428","placeName":"Tucson","searchUrl":"http:\/\/twitter.com\/search?q=%23WeAreHereForYouJustin","trendMapped":"we+are+here+for+you+justin","trendVolume":214291},{"stateName":"AZ","trendName":"Brussels","placeID":"2471390","placeName":"Phoenix","searchUrl":"http:\/\/twitter.com\/search?q=Brussels","trendMapped":"brussels","trendVolume":1430225},{"stateName":"AZ","trendName":"Craig Sager","placeID":"2508428","placeName":"Tucson","searchUrl":"http:\/\/twitter.com\/search?q=%22Craig+Sager%22","trendMapped":"Craig+Sager","trendVolume":77071},{"stateName":"AZ","trendName":"Katt Williams","placeID":"2508428","placeName":"Tucson","searchUrl":"http:\/\/twitter.com\/search?q=%22Katt+Williams%22","trendMapped":"Katt+Williams","trendVolume":195168},{"stateName":"CA","trendName":"#Brussels","placeID":"2487956","placeName":"San Francisco","searchUrl":"http:\/\/twitter.com\/search?q=%23Brussels","trendMapped":"brussels","trendVolume":2015958},{"stateName":"CA","trendName":"#BrusselsAttacks","placeID":"2488042","placeName":"San Jose","searchUrl":"http:\/\/twitter.com\/search?q=%23BrusselsAttacks","trendMapped":"brussels+attacks","trendVolume":266344},{"stateName":"CA","trendName":"#EBGodGaveMeYou","placeID":"2488042","placeName":"San Jose","searchUrl":"http:\/\/twitter.com\/search?q=%23EBGodGaveMeYou","trendMapped":"eb+god+gave+me+you","trendVolume":2157069},{"stateName":"CA","trendName":"#IndvsBan","placeID":"2488042","placeName":"San Jose","searchUrl":"http:\/\/twitter.com\/search?q=%23IndvsBan","trendMapped":"indvs+ban","trendVolume":387907},{"stateName":"CA","trendName":"#NationalPuppyDay","placeID":"2488042","placeName":"San Jose","searchUrl":"http:\/\/twitter.com\/search?q=%23NationalPuppyDay","trendMapped":"national+puppy+day","trendVolume":627199},{"stateName":"CA","trendName":"#WeAreHereForYouJustin","placeID":"2488042","placeName":"San Jose","searchUrl":"http:\/\/twitter.com\/search?q=%23WeAreHereForYouJustin","trendMapped":"we+are+here+for+you+justin","trendVolume":217429},{"stateName":"CA","trendName":"#WorldWaterDay","placeID":"2487889","placeName":"San Diego","searchUrl":"http:\/\/twitter.com\/search?q=%23WorldWaterDay","trendMapped":"world+water+day","trendVolume":253074},{"stateName":"CA","trendName":"Brussels","placeID":"2487889","placeName":"San Diego","searchUrl":"http:\/\/twitter.com\/search?q=Brussels","trendMapped":"brussels","trendVolume":1884869},{"stateName":"CA","trendName":"Craig Sager","placeID":"2488042","placeName":"San Jose","searchUrl":"http:\/\/twitter.com\/search?q=%22Craig+Sager%22","trendMapped":"Craig+Sager","trendVolume":75559},{"stateName":"CA","trendName":"Katt Williams","placeID":"2488042","placeName":"San Jose","searchUrl":"http:\/\/twitter.com\/search?q=%22Katt+Williams%22","trendMapped":"Katt+Williams","trendVolume":195168},{"stateName":"CO","trendName":"#BatmanvSuperman","placeID":"2391279","placeName":"Denver","searchUrl":"http:\/\/twitter.com\/search?q=%23BatmanvSuperman","trendMapped":"batmanv+superman","trendVolume":118839},{"stateName":"CO","trendName":"#Brussels","placeID":"2391279","placeName":"Denver","searchUrl":"http:\/\/twitter.com\/search?q=%23Brussels","trendMapped":"brussels","trendVolume":2013715},{"stateName":"CO","trendName":"#BrusselsAttacks","placeID":"2383489","placeName":"Colorado Springs","searchUrl":"http:\/\/twitter.com\/search?q=%23BrusselsAttacks","trendMapped":"brussels+attacks","trendVolume":250742},{"stateName":"CO","trendName":"#EBGodGaveMeYou","placeID":"2391279","placeName":"Denver","searchUrl":"http:\/\/twitter.com\/search?q=%23EBGodGaveMeYou","trendMapped":"eb+god+gave+me+you","trendVolume":2157069},{"stateName":"CO","trendName":"#IndvsBan","placeID":"2391279","placeName":"Denver","searchUrl":"http:\/\/twitter.com\/search?q=%23IndvsBan","trendMapped":"indvs+ban","trendVolume":390520},{"stateName":"CO","trendName":"#NationalPuppyDay","placeID":"2391279","placeName":"Denver","searchUrl":"http:\/\/twitter.com\/search?q=%23NationalPuppyDay","trendMapped":"national+puppy+day","trendVolume":621654},{"stateName":"CO","trendName":"#StopIslam","placeID":"2391279","placeName":"Denver","searchUrl":"http:\/\/twitter.com\/search?q=%23StopIslam","trendMapped":"stop+islam","trendVolume":447422},{"stateName":"CO","trendName":"#WeAreHereForYouJustin","placeID":"2383489","placeName":"Colorado Springs","searchUrl":"http:\/\/twitter.com\/search?q=%23WeAreHereForYouJustin","trendMapped":"we+are+here+for+you+justin","trendVolume":222291},{"stateName":"CO","trendName":"#WorldWaterDay","placeID":"2391279","placeName":"Denver","searchUrl":"http:\/\/twitter.com\/search?q=%23WorldWaterDay","trendMapped":"world+water+day","trendVolume":254541},{"stateName":"CO","trendName":"Craig Sager","placeID":"2383489","placeName":"Colorado Springs","searchUrl":"http:\/\/twitter.com\/search?q=%22Craig+Sager%22","trendMapped":"Craig+Sager","trendVolume":76135},{"stateName":"CO","trendName":"Cuba","placeID":"2391279","placeName":"Denver","searchUrl":"http:\/\/twitter.com\/search?q=Cuba","trendMapped":"cuba","trendVolume":550433},{"stateName":"CO","trendName":"Katt Williams","placeID":"2391279","placeName":"Denver","searchUrl":"http:\/\/twitter.com\/search?q=%22Katt+Williams%22","trendMapped":"Katt+Williams","trendVolume":195168},{"stateName":"CT","trendName":"#Brussels","placeID":"2458410","placeName":"New Haven","searchUrl":"http:\/\/twitter.com\/search?q=%23Brussels","trendMapped":"brussels","trendVolume":2022310},{"stateName":"CT","trendName":"Brussels","placeID":"2458410","placeName":"New Haven","searchUrl":"http:\/\/twitter.com\/search?q=Brussels","trendMapped":"brussels","trendVolume":4303328},{"stateName":"CT","trendName":"Cuba","placeID":"2458410","placeName":"New Haven","searchUrl":"http:\/\/twitter.com\/search?q=Cuba","trendMapped":"cuba","trendVolume":558982},{"stateName":"DC","trendName":"#BrusselsAttacks","placeID":"2514815","placeName":"Washington","searchUrl":"http:\/\/twitter.com\/search?q=%23BrusselsAttacks","trendMapped":"brussels+attacks","trendVolume":231276},{"stateName":"DC","trendName":"#EBGodGaveMeYou","placeID":"2514815","placeName":"Washington","searchUrl":"http:\/\/twitter.com\/search?q=%23EBGodGaveMeYou","trendMapped":"eb+god+gave+me+you","trendVolume":2025214},{"stateName":"DC","trendName":"#IndvsBan","placeID":"2514815","placeName":"Washington","searchUrl":"http:\/\/twitter.com\/search?q=%23IndvsBan","trendMapped":"indvs+ban","trendVolume":372786},{"stateName":"DC","trendName":"#NationalPuppyDay","placeID":"2514815","placeName":"Washington","searchUrl":"http:\/\/twitter.com\/search?q=%23NationalPuppyDay","trendMapped":"national+puppy+day","trendVolume":627199},{"stateName":"DC","trendName":"#WeAreHereForYouJustin","placeID":"2514815","placeName":"Washington","searchUrl":"http:\/\/twitter.com\/search?q=%23WeAreHereForYouJustin","trendMapped":"we+are+here+for+you+justin","trendVolume":214291},{"stateName":"DC","trendName":"Katt Williams","placeID":"2514815","placeName":"Washington","searchUrl":"http:\/\/twitter.com\/search?q=%22Katt+Williams%22","trendMapped":"Katt+Williams","trendVolume":177941},{"stateName":"FL","trendName":"#Brussels","placeID":"2503863","placeName":"Tampa","searchUrl":"http:\/\/twitter.com\/search?q=%23Brussels","trendMapped":"brussels","trendVolume":1989942},{"stateName":"FL","trendName":"#BrusselsAttacks","placeID":"2503863","placeName":"Tampa","searchUrl":"http:\/\/twitter.com\/search?q=%23BrusselsAttacks","trendMapped":"brussels+attacks","trendVolume":245747},{"stateName":"FL","trendName":"#EBGodGaveMeYou","placeID":"2503863","placeName":"Tampa","searchUrl":"http:\/\/twitter.com\/search?q=%23EBGodGaveMeYou","trendMapped":"eb+god+gave+me+you","trendVolume":2163533},{"stateName":"FL","trendName":"#IndvsBan","placeID":"2450022","placeName":"Miami","searchUrl":"http:\/\/twitter.com\/search?q=%23IndvsBan","trendMapped":"indvs+ban","trendVolume":372786},{"stateName":"FL","trendName":"#NationalPuppyDay","placeID":"2450022","placeName":"Miami","searchUrl":"http:\/\/twitter.com\/search?q=%23NationalPuppyDay","trendMapped":"national+puppy+day","trendVolume":549012},{"stateName":"FL","trendName":"Argentina","placeID":"2450022","placeName":"Miami","searchUrl":"http:\/\/twitter.com\/search?q=Argentina","trendMapped":"argentina","trendVolume":205736},{"stateName":"FL","trendName":"Bruselas","placeID":"2450022","placeName":"Miami","searchUrl":"http:\/\/twitter.com\/search?q=Bruselas","trendMapped":"bruselas","trendVolume":1130281},{"stateName":"FL","trendName":"Brussels","placeID":"2503863","placeName":"Tampa","searchUrl":"http:\/\/twitter.com\/search?q=Brussels","trendMapped":"brussels","trendVolume":4594463},{"stateName":"FL","trendName":"Cuba","placeID":"2503713","placeName":"Tallahassee","searchUrl":"http:\/\/twitter.com\/search?q=Cuba","trendMapped":"cuba","trendVolume":570701},{"stateName":"FL","trendName":"Katt Williams","placeID":"2450022","placeName":"Miami","searchUrl":"http:\/\/twitter.com\/search?q=%22Katt+Williams%22","trendMapped":"Katt+Williams","trendVolume":188728},{"stateName":"FL","trendName":"Muslims","placeID":"2428344","placeName":"Jacksonville","searchUrl":"http:\/\/twitter.com\/search?q=Muslims","trendMapped":"muslims","trendVolume":345255},{"stateName":"FL","trendName":"Phife","placeID":"2450022","placeName":"Miami","searchUrl":"http:\/\/twitter.com\/search?q=Phife","trendMapped":"phife","trendVolume":337286},{"stateName":"GA","trendName":"#BrusselsAttacks","placeID":"2357024","placeName":"Atlanta","searchUrl":"http:\/\/twitter.com\/search?q=%23BrusselsAttacks","trendMapped":"brussels+attacks","trendVolume":228523},{"stateName":"GA","trendName":"#EBGodGaveMeYou","placeID":"2357024","placeName":"Atlanta","searchUrl":"http:\/\/twitter.com\/search?q=%23EBGodGaveMeYou","trendMapped":"eb+god+gave+me+you","trendVolume":2088848},{"stateName":"GA","trendName":"#IndvsBan","placeID":"2357024","placeName":"Atlanta","searchUrl":"http:\/\/twitter.com\/search?q=%23IndvsBan","trendMapped":"indvs+ban","trendVolume":286613},{"stateName":"GA","trendName":"#NationalPuppyDay","placeID":"2357024","placeName":"Atlanta","searchUrl":"http:\/\/twitter.com\/search?q=%23NationalPuppyDay","trendMapped":"national+puppy+day","trendVolume":590063},{"stateName":"GA","trendName":"#WeAreHereForYouJustin","placeID":"2357024","placeName":"Atlanta","searchUrl":"http:\/\/twitter.com\/search?q=%23WeAreHereForYouJustin","trendMapped":"we+are+here+for+you+justin","trendVolume":214291},{"stateName":"GA","trendName":"Katt Williams","placeID":"2357024","placeName":"Atlanta","searchUrl":"http:\/\/twitter.com\/search?q=%22Katt+Williams%22","trendMapped":"Katt+Williams","trendVolume":129883},{"stateName":"HI","trendName":"#EBGodGaveMeYou","placeID":"2423945","placeName":"Honolulu","searchUrl":"http:\/\/twitter.com\/search?q=%23EBGodGaveMeYou","trendMapped":"eb+god+gave+me+you","trendVolume":1695837},{"stateName":"HI","trendName":"#brusselsattack","placeID":"2423945","placeName":"Honolulu","searchUrl":"http:\/\/twitter.com\/search?q=%23brusselsattack","trendMapped":"brusselsattack","trendVolume":250482},{"stateName":"HI","trendName":"Brussels","placeID":"2423945","placeName":"Honolulu","searchUrl":"http:\/\/twitter.com\/search?q=Brussels","trendMapped":"brussels","trendVolume":3372438},{"stateName":"HI","trendName":"Cuba","placeID":"2423945","placeName":"Honolulu","searchUrl":"http:\/\/twitter.com\/search?q=Cuba","trendMapped":"cuba","trendVolume":576110},{"stateName":"IL","trendName":"#Brussels","placeID":"2379574","placeName":"Chicago","searchUrl":"http:\/\/twitter.com\/search?q=%23Brussels","trendMapped":"brussels","trendVolume":1986477},{"stateName":"IL","trendName":"#BrusselsAttacks","placeID":"2379574","placeName":"Chicago","searchUrl":"http:\/\/twitter.com\/search?q=%23BrusselsAttacks","trendMapped":"brussels+attacks","trendVolume":258135},{"stateName":"IL","trendName":"#EBGodGaveMeYou","placeID":"2379574","placeName":"Chicago","searchUrl":"http:\/\/twitter.com\/search?q=%23EBGodGaveMeYou","trendMapped":"eb+god+gave+me+you","trendVolume":2088848},{"stateName":"IL","trendName":"#IndvsBan","placeID":"2379574","placeName":"Chicago","searchUrl":"http:\/\/twitter.com\/search?q=%23IndvsBan","trendMapped":"indvs+ban","trendVolume":341042},{"stateName":"IL","trendName":"#NationalPuppyDay","placeID":"2379574","placeName":"Chicago","searchUrl":"http:\/\/twitter.com\/search?q=%23NationalPuppyDay","trendMapped":"national+puppy+day","trendVolume":624709},{"stateName":"IL","trendName":"#WeAreHereForYouJustin","placeID":"2379574","placeName":"Chicago","searchUrl":"http:\/\/twitter.com\/search?q=%23WeAreHereForYouJustin","trendMapped":"we+are+here+for+you+justin","trendVolume":86398},{"stateName":"IL","trendName":"#WorldWaterDay","placeID":"2379574","placeName":"Chicago","searchUrl":"http:\/\/twitter.com\/search?q=%23WorldWaterDay","trendMapped":"world+water+day","trendVolume":239264},{"stateName":"IL","trendName":"Katt Williams","placeID":"2379574","placeName":"Chicago","searchUrl":"http:\/\/twitter.com\/search?q=%22Katt+Williams%22","trendMapped":"Katt+Williams","trendVolume":188728},{"stateName":"IN","trendName":"#BrusselsAttacks","placeID":"2427032","placeName":"Indianapolis","searchUrl":"http:\/\/twitter.com\/search?q=%23BrusselsAttacks","trendMapped":"brussels+attacks","trendVolume":322070},{"stateName":"IN","trendName":"Belgium","placeID":"2427032","placeName":"Indianapolis","searchUrl":"http:\/\/twitter.com\/search?q=Belgium","trendMapped":"belgium","trendVolume":854414},{"stateName":"IN","trendName":"Brussels","placeID":"2427032","placeName":"Indianapolis","searchUrl":"http:\/\/twitter.com\/search?q=Brussels","trendMapped":"brussels","trendVolume":4533417},{"stateName":"KY","trendName":"#Brussels","placeID":"2442327","placeName":"Louisville","searchUrl":"http:\/\/twitter.com\/search?q=%23Brussels","trendMapped":"brussels","trendVolume":1975302},{"stateName":"KY","trendName":"#EBGodGaveMeYou","placeID":"2442327","placeName":"Louisville","searchUrl":"http:\/\/twitter.com\/search?q=%23EBGodGaveMeYou","trendMapped":"eb+god+gave+me+you","trendVolume":2126374},{"stateName":"KY","trendName":"Brussels","placeID":"2442327","placeName":"Louisville","searchUrl":"http:\/\/twitter.com\/search?q=Brussels","trendMapped":"brussels","trendVolume":3851085},{"stateName":"LA","trendName":"#Brussels","placeID":"2458833","placeName":"New Orleans","searchUrl":"http:\/\/twitter.com\/search?q=%23Brussels","trendMapped":"brussels","trendVolume":1986477},{"stateName":"LA","trendName":"#EBGodGaveMeYou","placeID":"2458833","placeName":"New Orleans","searchUrl":"http:\/\/twitter.com\/search?q=%23EBGodGaveMeYou","trendMapped":"eb+god+gave+me+you","trendVolume":2157069},{"stateName":"LA","trendName":"#NationalPuppyDay","placeID":"2458833","placeName":"New Orleans","searchUrl":"http:\/\/twitter.com\/search?q=%23NationalPuppyDay","trendMapped":"national+puppy+day","trendVolume":444743},{"stateName":"LA","trendName":"Brussels","placeID":"2359991","placeName":"Baton Rouge","searchUrl":"http:\/\/twitter.com\/search?q=Brussels","trendMapped":"brussels","trendVolume":4541126},{"stateName":"LA","trendName":"Cuba","placeID":"2458833","placeName":"New Orleans","searchUrl":"http:\/\/twitter.com\/search?q=Cuba","trendMapped":"cuba","trendVolume":600138},{"stateName":"MA","trendName":"#Brussels","placeID":"2367105","placeName":"Boston","searchUrl":"http:\/\/twitter.com\/search?q=%23Brussels","trendMapped":"brussels","trendVolume":1455486},{"stateName":"MA","trendName":"#EBGodGaveMeYou","placeID":"2367105","placeName":"Boston","searchUrl":"http:\/\/twitter.com\/search?q=%23EBGodGaveMeYou","trendMapped":"eb+god+gave+me+you","trendVolume":2144683},{"stateName":"MA","trendName":"#NationalPuppyDay","placeID":"2367105","placeName":"Boston","searchUrl":"http:\/\/twitter.com\/search?q=%23NationalPuppyDay","trendMapped":"national+puppy+day","trendVolume":210916},{"stateName":"MA","trendName":"Katt Williams","placeID":"2367105","placeName":"Boston","searchUrl":"http:\/\/twitter.com\/search?q=%22Katt+Williams%22","trendMapped":"Katt+Williams","trendVolume":181703},{"stateName":"MD","trendName":"#Brussels","placeID":"2358820","placeName":"Baltimore","searchUrl":"http:\/\/twitter.com\/search?q=%23Brussels","trendMapped":"brussels","trendVolume":2017031},{"stateName":"MD","trendName":"#EBGodGaveMeYou","placeID":"2358820","placeName":"Baltimore","searchUrl":"http:\/\/twitter.com\/search?q=%23EBGodGaveMeYou","trendMapped":"eb+god+gave+me+you","trendVolume":2182229},{"stateName":"MD","trendName":"#NationalPuppyDay","placeID":"2358820","placeName":"Baltimore","searchUrl":"http:\/\/twitter.com\/search?q=%23NationalPuppyDay","trendMapped":"national+puppy+day","trendVolume":224766},{"stateName":"MD","trendName":"Brussels","placeID":"2358820","placeName":"Baltimore","searchUrl":"http:\/\/twitter.com\/search?q=Brussels","trendMapped":"brussels","trendVolume":3112709},{"stateName":"MD","trendName":"Katt Williams","placeID":"2358820","placeName":"Baltimore","searchUrl":"http:\/\/twitter.com\/search?q=%22Katt+Williams%22","trendMapped":"Katt+Williams","trendVolume":195168},{"stateName":"MI","trendName":"#BatmanvSuperman","placeID":"2391585","placeName":"Detroit","searchUrl":"http:\/\/twitter.com\/search?q=%23BatmanvSuperman","trendMapped":"batmanv+superman","trendVolume":117655},{"stateName":"MI","trendName":"#Brussels","placeID":"2391585","placeName":"Detroit","searchUrl":"http:\/\/twitter.com\/search?q=%23Brussels","trendMapped":"brussels","trendVolume":1463475},{"stateName":"MI","trendName":"#BrusselsAttacks","placeID":"2391585","placeName":"Detroit","searchUrl":"http:\/\/twitter.com\/search?q=%23BrusselsAttacks","trendMapped":"brussels+attacks","trendVolume":255865},{"stateName":"MI","trendName":"#EBGodGaveMeYou","placeID":"2391585","placeName":"Detroit","searchUrl":"http:\/\/twitter.com\/search?q=%23EBGodGaveMeYou","trendMapped":"eb+god+gave+me+you","trendVolume":2163533},{"stateName":"MI","trendName":"Brussels","placeID":"2391585","placeName":"Detroit","searchUrl":"http:\/\/twitter.com\/search?q=Brussels","trendMapped":"brussels","trendVolume":1411937},{"stateName":"MI","trendName":"Katt Williams","placeID":"2391585","placeName":"Detroit","searchUrl":"http:\/\/twitter.com\/search?q=%22Katt+Williams%22","trendMapped":"Katt+Williams","trendVolume":155933},{"stateName":"MN","trendName":"#EBGodGaveMeYou","placeID":"2452078","placeName":"Minneapolis","searchUrl":"http:\/\/twitter.com\/search?q=%23EBGodGaveMeYou","trendMapped":"eb+god+gave+me+you","trendVolume":1780026},{"stateName":"MN","trendName":"#WorldWaterDay","placeID":"2452078","placeName":"Minneapolis","searchUrl":"http:\/\/twitter.com\/search?q=%23WorldWaterDay","trendMapped":"world+water+day","trendVolume":253918},{"stateName":"MN","trendName":"Brussels","placeID":"2452078","placeName":"Minneapolis","searchUrl":"http:\/\/twitter.com\/search?q=Brussels","trendMapped":"brussels","trendVolume":4308674},{"stateName":"MO","trendName":"#Brussels","placeID":"2486982","placeName":"St. Louis","searchUrl":"http:\/\/twitter.com\/search?q=%23Brussels","trendMapped":"brussels","trendVolume":2022310},{"stateName":"MO","trendName":"#EBGodGaveMeYou","placeID":"2486982","placeName":"St. Louis","searchUrl":"http:\/\/twitter.com\/search?q=%23EBGodGaveMeYou","trendMapped":"eb+god+gave+me+you","trendVolume":2144683},{"stateName":"MO","trendName":"#IndvsBan","placeID":"2486982","placeName":"St. Louis","searchUrl":"http:\/\/twitter.com\/search?q=%23IndvsBan","trendMapped":"indvs+ban","trendVolume":395101},{"stateName":"MO","trendName":"#NationalPuppyDay","placeID":"2486982","placeName":"St. Louis","searchUrl":"http:\/\/twitter.com\/search?q=%23NationalPuppyDay","trendMapped":"national+puppy+day","trendVolume":579162},{"stateName":"MO","trendName":"#WorldWaterDay","placeID":"2486982","placeName":"St. Louis","searchUrl":"http:\/\/twitter.com\/search?q=%23WorldWaterDay","trendMapped":"world+water+day","trendVolume":256797},{"stateName":"MO","trendName":"Brussels","placeID":"2430683","placeName":"Kansas City","searchUrl":"http:\/\/twitter.com\/search?q=Brussels","trendMapped":"brussels","trendVolume":1875724},{"stateName":"MO","trendName":"Katt Williams","placeID":"2486982","placeName":"St. Louis","searchUrl":"http:\/\/twitter.com\/search?q=%22Katt+Williams%22","trendMapped":"Katt+Williams","trendVolume":195168},{"stateName":"MS","trendName":"#Brussels","placeID":"2428184","placeName":"Jackson","searchUrl":"http:\/\/twitter.com\/search?q=%23Brussels","trendMapped":"brussels","trendVolume":1908799},{"stateName":"MS","trendName":"Brussels","placeID":"2428184","placeName":"Jackson","searchUrl":"http:\/\/twitter.com\/search?q=Brussels","trendMapped":"brussels","trendVolume":4059895},{"stateName":"NC","trendName":"#Brussels","placeID":"2478307","placeName":"Raleigh","searchUrl":"http:\/\/twitter.com\/search?q=%23Brussels","trendMapped":"brussels","trendVolume":2022310},{"stateName":"NC","trendName":"#BrusselsAttacks","placeID":"2478307","placeName":"Raleigh","searchUrl":"http:\/\/twitter.com\/search?q=%23BrusselsAttacks","trendMapped":"brussels+attacks","trendVolume":266344},{"stateName":"NC","trendName":"#EBGodGaveMeYou","placeID":"2478307","placeName":"Raleigh","searchUrl":"http:\/\/twitter.com\/search?q=%23EBGodGaveMeYou","trendMapped":"eb+god+gave+me+you","trendVolume":2025214},{"stateName":"NC","trendName":"#NationalPuppyDay","placeID":"2478307","placeName":"Raleigh","searchUrl":"http:\/\/twitter.com\/search?q=%23NationalPuppyDay","trendMapped":"national+puppy+day","trendVolume":579162},{"stateName":"NC","trendName":"Brussels","placeID":"2478307","placeName":"Raleigh","searchUrl":"http:\/\/twitter.com\/search?q=Brussels","trendMapped":"brussels","trendVolume":4507340},{"stateName":"NC","trendName":"House","placeID":"2478307","placeName":"Raleigh","searchUrl":"http:\/\/twitter.com\/search?q=House","trendMapped":"house","trendVolume":488337},{"stateName":"NC","trendName":"Katt Williams","placeID":"2478307","placeName":"Raleigh","searchUrl":"http:\/\/twitter.com\/search?q=%22Katt+Williams%22","trendMapped":"Katt+Williams","trendVolume":129883},{"stateName":"NE","trendName":"#EBGodGaveMeYou","placeID":"2465512","placeName":"Omaha","searchUrl":"http:\/\/twitter.com\/search?q=%23EBGodGaveMeYou","trendMapped":"eb+god+gave+me+you","trendVolume":1044415},{"stateName":"NE","trendName":"Belgium","placeID":"2465512","placeName":"Omaha","searchUrl":"http:\/\/twitter.com\/search?q=Belgium","trendMapped":"belgium","trendVolume":887053},{"stateName":"NE","trendName":"Brussels","placeID":"2465512","placeName":"Omaha","searchUrl":"http:\/\/twitter.com\/search?q=Brussels","trendMapped":"brussels","trendVolume":4492802},{"stateName":"NE","trendName":"Muslims","placeID":"2465512","placeName":"Omaha","searchUrl":"http:\/\/twitter.com\/search?q=Muslims","trendMapped":"muslims","trendVolume":321110},{"stateName":"NM","trendName":"#BrusselsAttacks","placeID":"2352824","placeName":"Albuquerque","searchUrl":"http:\/\/twitter.com\/search?q=%23BrusselsAttacks","trendMapped":"brussels+attacks","trendVolume":242989},{"stateName":"NM","trendName":"#EBGodGaveMeYou","placeID":"2352824","placeName":"Albuquerque","searchUrl":"http:\/\/twitter.com\/search?q=%23EBGodGaveMeYou","trendMapped":"eb+god+gave+me+you","trendVolume":2088848},{"stateName":"NM","trendName":"#IndvsBan","placeID":"2352824","placeName":"Albuquerque","searchUrl":"http:\/\/twitter.com\/search?q=%23IndvsBan","trendMapped":"indvs+ban","trendVolume":362353},{"stateName":"NM","trendName":"#NationalPuppyDay","placeID":"2352824","placeName":"Albuquerque","searchUrl":"http:\/\/twitter.com\/search?q=%23NationalPuppyDay","trendMapped":"national+puppy+day","trendVolume":549012},{"stateName":"NM","trendName":"#WeAreHereForYouJustin","placeID":"2352824","placeName":"Albuquerque","searchUrl":"http:\/\/twitter.com\/search?q=%23WeAreHereForYouJustin","trendMapped":"we+are+here+for+you+justin","trendVolume":214291},{"stateName":"NM","trendName":"Katt Williams","placeID":"2352824","placeName":"Albuquerque","searchUrl":"http:\/\/twitter.com\/search?q=%22Katt+Williams%22","trendMapped":"Katt+Williams","trendVolume":177941},{"stateName":"NV","trendName":"#Brussels","placeID":"2436704","placeName":"Las Vegas","searchUrl":"http:\/\/twitter.com\/search?q=%23Brussels","trendMapped":"brussels","trendVolume":1978739},{"stateName":"NV","trendName":"#BrusselsAttacks","placeID":"2436704","placeName":"Las Vegas","searchUrl":"http:\/\/twitter.com\/search?q=%23BrusselsAttacks","trendMapped":"brussels+attacks","trendVolume":213149},{"stateName":"NV","trendName":"#EBGodGaveMeYou","placeID":"2436704","placeName":"Las Vegas","searchUrl":"http:\/\/twitter.com\/search?q=%23EBGodGaveMeYou","trendMapped":"eb+god+gave+me+you","trendVolume":1141398},{"stateName":"NV","trendName":"Brussels","placeID":"2436704","placeName":"Las Vegas","searchUrl":"http:\/\/twitter.com\/search?q=Brussels","trendMapped":"brussels","trendVolume":3851085},{"stateName":"NY","trendName":"#BrusselsAttacks","placeID":"2459115","placeName":"New York","searchUrl":"http:\/\/twitter.com\/search?q=%23BrusselsAttacks","trendMapped":"brussels+attacks","trendVolume":242989},{"stateName":"NY","trendName":"#EBGodGaveMeYou","placeID":"2459115","placeName":"New York","searchUrl":"http:\/\/twitter.com\/search?q=%23EBGodGaveMeYou","trendMapped":"eb+god+gave+me+you","trendVolume":2144683},{"stateName":"NY","trendName":"#NationalPuppyDay","placeID":"2459115","placeName":"New York","searchUrl":"http:\/\/twitter.com\/search?q=%23NationalPuppyDay","trendMapped":"national+puppy+day","trendVolume":594380},{"stateName":"NY","trendName":"Craig Sager","placeID":"2459115","placeName":"New York","searchUrl":"http:\/\/twitter.com\/search?q=%22Craig+Sager%22","trendMapped":"Craig+Sager","trendVolume":77071},{"stateName":"NY","trendName":"Katt Williams","placeID":"2459115","placeName":"New York","searchUrl":"http:\/\/twitter.com\/search?q=%22Katt+Williams%22","trendMapped":"Katt+Williams","trendVolume":170822},{"stateName":"OH","trendName":"#Brussels","placeID":"2383660","placeName":"Columbus","searchUrl":"http:\/\/twitter.com\/search?q=%23Brussels","trendMapped":"brussels","trendVolume":1195753},{"stateName":"OH","trendName":"#BrusselsAttacks","placeID":"2383660","placeName":"Columbus","searchUrl":"http:\/\/twitter.com\/search?q=%23BrusselsAttacks","trendMapped":"brussels+attacks","trendVolume":322070},{"stateName":"OH","trendName":"#EBGodGaveMeYou","placeID":"2383660","placeName":"Columbus","searchUrl":"http:\/\/twitter.com\/search?q=%23EBGodGaveMeYou","trendMapped":"eb+god+gave+me+you","trendVolume":2095295},{"stateName":"OH","trendName":"#NationalPuppyDay","placeID":"2381475","placeName":"Cleveland","searchUrl":"http:\/\/twitter.com\/search?q=%23NationalPuppyDay","trendMapped":"national+puppy+day","trendVolume":540434},{"stateName":"OH","trendName":"Brussels","placeID":"2383660","placeName":"Columbus","searchUrl":"http:\/\/twitter.com\/search?q=Brussels","trendMapped":"brussels","trendVolume":4520397},{"stateName":"OH","trendName":"Cuba","placeID":"2380358","placeName":"Cincinnati","searchUrl":"http:\/\/twitter.com\/search?q=Cuba","trendMapped":"cuba","trendVolume":570701},{"stateName":"OH","trendName":"ISIS","placeID":"2380358","placeName":"Cincinnati","searchUrl":"http:\/\/twitter.com\/search?q=ISIS","trendMapped":"isis","trendVolume":494358},{"stateName":"OH","trendName":"Katt Williams","placeID":"2381475","placeName":"Cleveland","searchUrl":"http:\/\/twitter.com\/search?q=%22Katt+Williams%22","trendMapped":"Katt+Williams","trendVolume":139035},{"stateName":"OK","trendName":"#Brussels","placeID":"2464592","placeName":"Oklahoma City","searchUrl":"http:\/\/twitter.com\/search?q=%23Brussels","trendMapped":"brussels","trendVolume":798388},{"stateName":"OK","trendName":"#EBGodGaveMeYou","placeID":"2464592","placeName":"Oklahoma City","searchUrl":"http:\/\/twitter.com\/search?q=%23EBGodGaveMeYou","trendMapped":"eb+god+gave+me+you","trendVolume":1973157},{"stateName":"OK","trendName":"#IndvsBan","placeID":"2464592","placeName":"Oklahoma City","searchUrl":"http:\/\/twitter.com\/search?q=%23IndvsBan","trendMapped":"indvs+ban","trendVolume":381434},{"stateName":"OK","trendName":"#NationalPuppyDay","placeID":"2464592","placeName":"Oklahoma City","searchUrl":"http:\/\/twitter.com\/search?q=%23NationalPuppyDay","trendMapped":"national+puppy+day","trendVolume":590063},{"stateName":"OK","trendName":"#WeAreHereForYouJustin","placeID":"2464592","placeName":"Oklahoma City","searchUrl":"http:\/\/twitter.com\/search?q=%23WeAreHereForYouJustin","trendMapped":"we+are+here+for+you+justin","trendVolume":94389},{"stateName":"OK","trendName":"Brussels","placeID":"2464592","placeName":"Oklahoma City","searchUrl":"http:\/\/twitter.com\/search?q=Brussels","trendMapped":"brussels","trendVolume":4352703},{"stateName":"OK","trendName":"Craig Sager","placeID":"2464592","placeName":"Oklahoma City","searchUrl":"http:\/\/twitter.com\/search?q=%22Craig+Sager%22","trendMapped":"Craig+Sager","trendVolume":75235},{"stateName":"OK","trendName":"Katt Williams","placeID":"2464592","placeName":"Oklahoma City","searchUrl":"http:\/\/twitter.com\/search?q=%22Katt+Williams%22","trendMapped":"Katt+Williams","trendVolume":129883},{"stateName":"OR","trendName":"#Brussels","placeID":"2475687","placeName":"Portland","searchUrl":"http:\/\/twitter.com\/search?q=%23Brussels","trendMapped":"brussels","trendVolume":1467285},{"stateName":"OR","trendName":"#EBGodGaveMeYou","placeID":"2475687","placeName":"Portland","searchUrl":"http:\/\/twitter.com\/search?q=%23EBGodGaveMeYou","trendMapped":"eb+god+gave+me+you","trendVolume":1904868},{"stateName":"OR","trendName":"#WorldWaterDay","placeID":"2475687","placeName":"Portland","searchUrl":"http:\/\/twitter.com\/search?q=%23WorldWaterDay","trendMapped":"world+water+day","trendVolume":244073},{"stateName":"OR","trendName":"Brussels","placeID":"2475687","placeName":"Portland","searchUrl":"http:\/\/twitter.com\/search?q=Brussels","trendMapped":"brussels","trendVolume":4583236},{"stateName":"PA","trendName":"#Brussels","placeID":"2473224","placeName":"Pittsburgh","searchUrl":"http:\/\/twitter.com\/search?q=%23Brussels","trendMapped":"brussels","trendVolume":2022310},{"stateName":"PA","trendName":"#BrusselsAttacks","placeID":"2471217","placeName":"Philadelphia","searchUrl":"http:\/\/twitter.com\/search?q=%23BrusselsAttacks","trendMapped":"brussels+attacks","trendVolume":229991},{"stateName":"PA","trendName":"#EBGodGaveMeYou","placeID":"2473224","placeName":"Pittsburgh","searchUrl":"http:\/\/twitter.com\/search?q=%23EBGodGaveMeYou","trendMapped":"eb+god+gave+me+you","trendVolume":2163533},{"stateName":"PA","trendName":"#NationalPuppyDay","placeID":"2473224","placeName":"Pittsburgh","searchUrl":"http:\/\/twitter.com\/search?q=%23NationalPuppyDay","trendMapped":"national+puppy+day","trendVolume":610989},{"stateName":"PA","trendName":"#WeAreHereForYouJustin","placeID":"2471217","placeName":"Philadelphia","searchUrl":"http:\/\/twitter.com\/search?q=%23WeAreHereForYouJustin","trendMapped":"we+are+here+for+you+justin","trendVolume":218999},{"stateName":"PA","trendName":"Brussels","placeID":"2473224","placeName":"Pittsburgh","searchUrl":"http:\/\/twitter.com\/search?q=Brussels","trendMapped":"brussels","trendVolume":1889017},{"stateName":"PA","trendName":"Craig Sager","placeID":"2471217","placeName":"Philadelphia","searchUrl":"http:\/\/twitter.com\/search?q=%22Craig+Sager%22","trendMapped":"Craig+Sager","trendVolume":76198},{"stateName":"PA","trendName":"ISIS","placeID":"2473224","placeName":"Pittsburgh","searchUrl":"http:\/\/twitter.com\/search?q=ISIS","trendMapped":"isis","trendVolume":522940},{"stateName":"PA","trendName":"Katt Williams","placeID":"2471217","placeName":"Philadelphia","searchUrl":"http:\/\/twitter.com\/search?q=%22Katt+Williams%22","trendMapped":"Katt+Williams","trendVolume":188728},{"stateName":"PA","trendName":"Update","placeID":"2418046","placeName":"Harrisburg","searchUrl":"http:\/\/twitter.com\/search?q=Update","trendMapped":"update","trendVolume":493900},{"stateName":"RI","trendName":"#Brussels","placeID":"2477058","placeName":"Providence","searchUrl":"http:\/\/twitter.com\/search?q=%23Brussels","trendMapped":"brussels","trendVolume":506358},{"stateName":"RI","trendName":"#BrusselsAttacks","placeID":"2477058","placeName":"Providence","searchUrl":"http:\/\/twitter.com\/search?q=%23BrusselsAttacks","trendMapped":"brussels+attacks","trendVolume":262811},{"stateName":"RI","trendName":"#EBGodGaveMeYou","placeID":"2477058","placeName":"Providence","searchUrl":"http:\/\/twitter.com\/search?q=%23EBGodGaveMeYou","trendMapped":"eb+god+gave+me+you","trendVolume":1550073},{"stateName":"RI","trendName":"#NationalPuppyDay","placeID":"2477058","placeName":"Providence","searchUrl":"http:\/\/twitter.com\/search?q=%23NationalPuppyDay","trendMapped":"national+puppy+day","trendVolume":605460},{"stateName":"RI","trendName":"#WorldWaterDay","placeID":"2477058","placeName":"Providence","searchUrl":"http:\/\/twitter.com\/search?q=%23WorldWaterDay","trendMapped":"world+water+day","trendVolume":253918},{"stateName":"RI","trendName":"Brussels","placeID":"2477058","placeName":"Providence","searchUrl":"http:\/\/twitter.com\/search?q=Brussels","trendMapped":"brussels","trendVolume":4035614},{"stateName":"RI","trendName":"R.I.","placeID":"2477058","placeName":"Providence","searchUrl":"http:\/\/twitter.com\/search?q=R.I.","trendMapped":"r.i.","trendVolume":247572},{"stateName":"TN","trendName":"#Brussels","placeID":"2457170","placeName":"Nashville","searchUrl":"http:\/\/twitter.com\/search?q=%23Brussels","trendMapped":"brussels","trendVolume":2013715},{"stateName":"TN","trendName":"#BrusselsAttacks","placeID":"2457170","placeName":"Nashville","searchUrl":"http:\/\/twitter.com\/search?q=%23BrusselsAttacks","trendMapped":"brussels+attacks","trendVolume":258135},{"stateName":"TN","trendName":"#EBGodGaveMeYou","placeID":"2457170","placeName":"Nashville","searchUrl":"http:\/\/twitter.com\/search?q=%23EBGodGaveMeYou","trendMapped":"eb+god+gave+me+you","trendVolume":2163533},{"stateName":"TN","trendName":"#WorldWaterDay","placeID":"2457170","placeName":"Nashville","searchUrl":"http:\/\/twitter.com\/search?q=%23WorldWaterDay","trendMapped":"world+water+day","trendVolume":254541},{"stateName":"TN","trendName":"Brussels","placeID":"2457170","placeName":"Nashville","searchUrl":"http:\/\/twitter.com\/search?q=Brussels","trendMapped":"brussels","trendVolume":1599731},{"stateName":"TX","trendName":"#Brussels","placeID":"2487796","placeName":"San Antonio","searchUrl":"http:\/\/twitter.com\/search?q=%23Brussels","trendMapped":"brussels","trendVolume":2022310},{"stateName":"TX","trendName":"#BrusselsAttacks","placeID":"2487796","placeName":"San Antonio","searchUrl":"http:\/\/twitter.com\/search?q=%23BrusselsAttacks","trendMapped":"brussels+attacks","trendVolume":247138},{"stateName":"TX","trendName":"#EBGodGaveMeYou","placeID":"2487796","placeName":"San Antonio","searchUrl":"http:\/\/twitter.com\/search?q=%23EBGodGaveMeYou","trendMapped":"eb+god+gave+me+you","trendVolume":1550073},{"stateName":"TX","trendName":"#IndvsBan","placeID":"2357536","placeName":"Austin","searchUrl":"http:\/\/twitter.com\/search?q=%23IndvsBan","trendMapped":"indvs+ban","trendVolume":356110},{"stateName":"TX","trendName":"#WorldWaterDay","placeID":"2487796","placeName":"San Antonio","searchUrl":"http:\/\/twitter.com\/search?q=%23WorldWaterDay","trendMapped":"world+water+day","trendVolume":251822},{"stateName":"TX","trendName":"Brussels","placeID":"2487796","placeName":"San Antonio","searchUrl":"http:\/\/twitter.com\/search?q=Brussels","trendMapped":"brussels","trendVolume":4594463},{"stateName":"TX","trendName":"Craig Sager","placeID":"2424766","placeName":"Houston","searchUrl":"http:\/\/twitter.com\/search?q=%22Craig+Sager%22","trendMapped":"Craig+Sager","trendVolume":75235},{"stateName":"TX","trendName":"Superman","placeID":"2388929","placeName":"Dallas-Ft. Worth","searchUrl":"http:\/\/twitter.com\/search?q=Superman","trendMapped":"superman","trendVolume":274335},{"stateName":"UT","trendName":"#Brussels","placeID":"2487610","placeName":"Salt Lake City","searchUrl":"http:\/\/twitter.com\/search?q=%23Brussels","trendMapped":"brussels","trendVolume":2020247},{"stateName":"UT","trendName":"#EBGodGaveMeYou","placeID":"2487610","placeName":"Salt Lake City","searchUrl":"http:\/\/twitter.com\/search?q=%23EBGodGaveMeYou","trendMapped":"eb+god+gave+me+you","trendVolume":2068317},{"stateName":"UT","trendName":"#NationalPuppyDay","placeID":"2487610","placeName":"Salt Lake City","searchUrl":"http:\/\/twitter.com\/search?q=%23NationalPuppyDay","trendMapped":"national+puppy+day","trendVolume":605460},{"stateName":"UT","trendName":"Brussels","placeID":"2487610","placeName":"Salt Lake City","searchUrl":"http:\/\/twitter.com\/search?q=Brussels","trendMapped":"brussels","trendVolume":1730328},{"stateName":"VA","trendName":"#Brussels","placeID":"2480894","placeName":"Richmond","searchUrl":"http:\/\/twitter.com\/search?q=%23Brussels","trendMapped":"brussels","trendVolume":2020247},{"stateName":"VA","trendName":"#BrusselsAttacks","placeID":"2512636","placeName":"Virginia Beach","searchUrl":"http:\/\/twitter.com\/search?q=%23BrusselsAttacks","trendMapped":"brussels+attacks","trendVolume":250742},{"stateName":"VA","trendName":"#EBGodGaveMeYou","placeID":"2512636","placeName":"Virginia Beach","searchUrl":"http:\/\/twitter.com\/search?q=%23EBGodGaveMeYou","trendMapped":"eb+god+gave+me+you","trendVolume":2138592},{"stateName":"VA","trendName":"#IndvsBan","placeID":"2512636","placeName":"Virginia Beach","searchUrl":"http:\/\/twitter.com\/search?q=%23IndvsBan","trendMapped":"indvs+ban","trendVolume":372786},{"stateName":"VA","trendName":"#NationalPuppyDay","placeID":"2512636","placeName":"Virginia Beach","searchUrl":"http:\/\/twitter.com\/search?q=%23NationalPuppyDay","trendMapped":"national+puppy+day","trendVolume":621654},{"stateName":"VA","trendName":"#WeAreHereForYouJustin","placeID":"2512636","placeName":"Virginia Beach","searchUrl":"http:\/\/twitter.com\/search?q=%23WeAreHereForYouJustin","trendMapped":"we+are+here+for+you+justin","trendVolume":218999},{"stateName":"VA","trendName":"Brussels","placeID":"2460389","placeName":"Norfolk","searchUrl":"http:\/\/twitter.com\/search?q=Brussels","trendMapped":"brussels","trendVolume":1280917},{"stateName":"VA","trendName":"Craig Sager","placeID":"2512636","placeName":"Virginia Beach","searchUrl":"http:\/\/twitter.com\/search?q=%22Craig+Sager%22","trendMapped":"Craig+Sager","trendVolume":77071},{"stateName":"VA","trendName":"Katt Williams","placeID":"2512636","placeName":"Virginia Beach","searchUrl":"http:\/\/twitter.com\/search?q=%22Katt+Williams%22","trendMapped":"Katt+Williams","trendVolume":173168},{"stateName":"WA","trendName":"#Brussels","placeID":"2490383","placeName":"Seattle","searchUrl":"http:\/\/twitter.com\/search?q=%23Brussels","trendMapped":"brussels","trendVolume":1063750},{"stateName":"WA","trendName":"#EBGodGaveMeYou","placeID":"2490383","placeName":"Seattle","searchUrl":"http:\/\/twitter.com\/search?q=%23EBGodGaveMeYou","trendMapped":"eb+god+gave+me+you","trendVolume":2101699},{"stateName":"WA","trendName":"#IndvsBan","placeID":"2490383","placeName":"Seattle","searchUrl":"http:\/\/twitter.com\/search?q=%23IndvsBan","trendMapped":"indvs+ban","trendVolume":384996},{"stateName":"WA","trendName":"#NationalPuppyDay","placeID":"2490383","placeName":"Seattle","searchUrl":"http:\/\/twitter.com\/search?q=%23NationalPuppyDay","trendMapped":"national+puppy+day","trendVolume":509092},{"stateName":"WA","trendName":"#WorldWaterDay","placeID":"2490383","placeName":"Seattle","searchUrl":"http:\/\/twitter.com\/search?q=%23WorldWaterDay","trendMapped":"world+water+day","trendVolume":245259},{"stateName":"WA","trendName":"Brussels","placeID":"2490383","placeName":"Seattle","searchUrl":"http:\/\/twitter.com\/search?q=Brussels","trendMapped":"brussels","trendVolume":1304318},{"stateName":"WI","trendName":"#Brussels","placeID":"2451822","placeName":"Milwaukee","searchUrl":"http:\/\/twitter.com\/search?q=%23Brussels","trendMapped":"brussels","trendVolume":1992624},{"stateName":"WI","trendName":"#WorldWaterDay","placeID":"2451822","placeName":"Milwaukee","searchUrl":"http:\/\/twitter.com\/search?q=%23WorldWaterDay","trendMapped":"world+water+day","trendVolume":253074},{"stateName":"WI","trendName":"Brussels","placeID":"2451822","placeName":"Milwaukee","searchUrl":"http:\/\/twitter.com\/search?q=Brussels","trendMapped":"brussels","trendVolume":4308674},{"stateName":"WI","trendName":"Katt Williams","placeID":"2451822","placeName":"Milwaukee","searchUrl":"http:\/\/twitter.com\/search?q=%22Katt+Williams%22","trendMapped":"Katt+Williams","trendVolume":177941},{"stateName":"XX","trendName":"#BrusselsAttacks","placeID":"23424977","placeName":"United States","searchUrl":"http:\/\/twitter.com\/search?q=%23BrusselsAttacks","trendMapped":"brussels+attacks","trendVolume":252607},{"stateName":"XX","trendName":"#EBGodGaveMeYou","placeID":"23424977","placeName":"United States","searchUrl":"http:\/\/twitter.com\/search?q=%23EBGodGaveMeYou","trendMapped":"eb+god+gave+me+you","trendVolume":1835055},{"stateName":"XX","trendName":"#NationalPuppyDay","placeID":"23424977","placeName":"United States","searchUrl":"http:\/\/twitter.com\/search?q=%23NationalPuppyDay","trendMapped":"national+puppy+day","trendVolume":562452},{"stateName":"XX","trendName":"#WeAreHereForYouJustin","placeID":"23424977","placeName":"United States","searchUrl":"http:\/\/twitter.com\/search?q=%23WeAreHereForYouJustin","trendMapped":"we+are+here+for+you+justin","trendVolume":218999},{"stateName":"XX","trendName":"Craig Sager","placeID":"23424977","placeName":"United States","searchUrl":"http:\/\/twitter.com\/search?q=%22Craig+Sager%22","trendMapped":"Craig+Sager","trendVolume":75235},{"stateName":"XX","trendName":"Katt Williams","placeID":"23424977","placeName":"United States","searchUrl":"http:\/\/twitter.com\/search?q=%22Katt+Williams%22","trendMapped":"Katt+Williams","trendVolume":124024}]