[{"stateName":"AL","trendName":"#IndvsPak","placeID":"2364559","placeName":"Birmingham","searchUrl":"http:\/\/twitter.com\/search?q=%23IndvsPak","trendMapped":"indvs+pak","trendVolume":482090},{"stateName":"AL","trendName":"#MarchMadness","placeID":"2364559","placeName":"Birmingham","searchUrl":"http:\/\/twitter.com\/search?q=%23MarchMadness","trendMapped":"march+madness","trendVolume":393858},{"stateName":"AL","trendName":"Anne","placeID":"2364559","placeName":"Birmingham","searchUrl":"http:\/\/twitter.com\/search?q=Anne","trendMapped":"anne","trendVolume":325177},{"stateName":"AL","trendName":"Michigan State","placeID":"2364559","placeName":"Birmingham","searchUrl":"http:\/\/twitter.com\/search?q=%22Michigan+State%22","trendMapped":"Michigan+State","trendVolume":219456},{"stateName":"AZ","trendName":"#AusGP","placeID":"2508428","placeName":"Tucson","searchUrl":"http:\/\/twitter.com\/search?q=%23AusGP","trendMapped":"aus+gp","trendVolume":80662},{"stateName":"AZ","trendName":"#GetWellSoonDylan","placeID":"2449808","placeName":"Mesa","searchUrl":"http:\/\/twitter.com\/search?q=%23GetWellSoonDylan","trendMapped":"get+well+soon+dylan","trendVolume":209168},{"stateName":"AZ","trendName":"#IndvsPak","placeID":"2508428","placeName":"Tucson","searchUrl":"http:\/\/twitter.com\/search?q=%23IndvsPak","trendMapped":"indvs+pak","trendVolume":806831},{"stateName":"AZ","trendName":"#ULTRALIVE","placeID":"2508428","placeName":"Tucson","searchUrl":"http:\/\/twitter.com\/search?q=%23ULTRALIVE","trendMapped":"ultralive","trendVolume":181367},{"stateName":"AZ","trendName":"Anne","placeID":"2508428","placeName":"Tucson","searchUrl":"http:\/\/twitter.com\/search?q=Anne","trendMapped":"anne","trendVolume":340006},{"stateName":"AZ","trendName":"Michigan State","placeID":"2449808","placeName":"Mesa","searchUrl":"http:\/\/twitter.com\/search?q=%22Michigan+State%22","trendMapped":"Michigan+State","trendVolume":230323},{"stateName":"CA","trendName":"#AldenVsJeraldLSBPH","placeID":"2441472","placeName":"Long Beach","searchUrl":"http:\/\/twitter.com\/search?q=%23AldenVsJeraldLSBPH","trendMapped":"alden+vs+jerald+lsbph","trendVolume":297061},{"stateName":"CA","trendName":"#AusGP","placeID":"2442047","placeName":"Los Angeles","searchUrl":"http:\/\/twitter.com\/search?q=%23AusGP","trendMapped":"aus+gp","trendVolume":80662},{"stateName":"CA","trendName":"#GetWellSoonDylan","placeID":"2488042","placeName":"San Jose","searchUrl":"http:\/\/twitter.com\/search?q=%23GetWellSoonDylan","trendMapped":"get+well+soon+dylan","trendVolume":212056},{"stateName":"CA","trendName":"#IndvsPak","placeID":"2488042","placeName":"San Jose","searchUrl":"http:\/\/twitter.com\/search?q=%23IndvsPak","trendMapped":"indvs+pak","trendVolume":818400},{"stateName":"CA","trendName":"#MarchMadness","placeID":"2487956","placeName":"San Francisco","searchUrl":"http:\/\/twitter.com\/search?q=%23MarchMadness","trendMapped":"march+madness","trendVolume":395970},{"stateName":"CA","trendName":"#Taksim","placeID":"2488042","placeName":"San Jose","searchUrl":"http:\/\/twitter.com\/search?q=%23Taksim","trendMapped":"taksim","trendVolume":305152},{"stateName":"CA","trendName":"#ULTRALIVE","placeID":"2488042","placeName":"San Jose","searchUrl":"http:\/\/twitter.com\/search?q=%23ULTRALIVE","trendMapped":"ultralive","trendVolume":181505},{"stateName":"CA","trendName":"Anne","placeID":"2488042","placeName":"San Jose","searchUrl":"http:\/\/twitter.com\/search?q=Anne","trendMapped":"anne","trendVolume":345287},{"stateName":"CA","trendName":"Michigan State","placeID":"2487956","placeName":"San Francisco","searchUrl":"http:\/\/twitter.com\/search?q=%22Michigan+State%22","trendMapped":"Michigan+State","trendVolume":230323},{"stateName":"CO","trendName":"#GetWellSoonDylan","placeID":"2383489","placeName":"Colorado Springs","searchUrl":"http:\/\/twitter.com\/search?q=%23GetWellSoonDylan","trendMapped":"get+well+soon+dylan","trendVolume":210976},{"stateName":"CO","trendName":"#IndvsPak","placeID":"2391279","placeName":"Denver","searchUrl":"http:\/\/twitter.com\/search?q=%23IndvsPak","trendMapped":"indvs+pak","trendVolume":782285},{"stateName":"CO","trendName":"#MarchMadness","placeID":"2391279","placeName":"Denver","searchUrl":"http:\/\/twitter.com\/search?q=%23MarchMadness","trendMapped":"march+madness","trendVolume":393124},{"stateName":"CO","trendName":"#ULTRALIVE","placeID":"2383489","placeName":"Colorado Springs","searchUrl":"http:\/\/twitter.com\/search?q=%23ULTRALIVE","trendMapped":"ultralive","trendVolume":180994},{"stateName":"CO","trendName":"Anne","placeID":"2391279","placeName":"Denver","searchUrl":"http:\/\/twitter.com\/search?q=Anne","trendMapped":"anne","trendVolume":325177},{"stateName":"CO","trendName":"Michigan State","placeID":"2391279","placeName":"Denver","searchUrl":"http:\/\/twitter.com\/search?q=%22Michigan+State%22","trendMapped":"Michigan+State","trendVolume":234491},{"stateName":"CT","trendName":"#IndvsPak","placeID":"2458410","placeName":"New Haven","searchUrl":"http:\/\/twitter.com\/search?q=%23IndvsPak","trendMapped":"indvs+pak","trendVolume":809195},{"stateName":"CT","trendName":"#MarchMadness","placeID":"2458410","placeName":"New Haven","searchUrl":"http:\/\/twitter.com\/search?q=%23MarchMadness","trendMapped":"march+madness","trendVolume":395060},{"stateName":"CT","trendName":"Anne","placeID":"2458410","placeName":"New Haven","searchUrl":"http:\/\/twitter.com\/search?q=Anne","trendMapped":"anne","trendVolume":322526},{"stateName":"DC","trendName":"#GetWellSoonDylan","placeID":"2514815","placeName":"Washington","searchUrl":"http:\/\/twitter.com\/search?q=%23GetWellSoonDylan","trendMapped":"get+well+soon+dylan","trendVolume":213590},{"stateName":"DC","trendName":"#IndvsPak","placeID":"2514815","placeName":"Washington","searchUrl":"http:\/\/twitter.com\/search?q=%23IndvsPak","trendMapped":"indvs+pak","trendVolume":807290},{"stateName":"DC","trendName":"#MarchMadness","placeID":"2514815","placeName":"Washington","searchUrl":"http:\/\/twitter.com\/search?q=%23MarchMadness","trendMapped":"march+madness","trendVolume":395060},{"stateName":"DC","trendName":"#ULTRALIVE","placeID":"2514815","placeName":"Washington","searchUrl":"http:\/\/twitter.com\/search?q=%23ULTRALIVE","trendMapped":"ultralive","trendVolume":181367},{"stateName":"DC","trendName":"Anne","placeID":"2514815","placeName":"Washington","searchUrl":"http:\/\/twitter.com\/search?q=Anne","trendMapped":"anne","trendVolume":340006},{"stateName":"DC","trendName":"Michigan State","placeID":"2514815","placeName":"Washington","searchUrl":"http:\/\/twitter.com\/search?q=%22Michigan+State%22","trendMapped":"Michigan+State","trendVolume":229095},{"stateName":"FL","trendName":"#GetWellSoonDylan","placeID":"2503863","placeName":"Tampa","searchUrl":"http:\/\/twitter.com\/search?q=%23GetWellSoonDylan","trendMapped":"get+well+soon+dylan","trendVolume":209168},{"stateName":"FL","trendName":"#IndvsPak","placeID":"2503863","placeName":"Tampa","searchUrl":"http:\/\/twitter.com\/search?q=%23IndvsPak","trendMapped":"indvs+pak","trendVolume":810879},{"stateName":"FL","trendName":"#MarchMadness","placeID":"2503863","placeName":"Tampa","searchUrl":"http:\/\/twitter.com\/search?q=%23MarchMadness","trendMapped":"march+madness","trendVolume":395970},{"stateName":"FL","trendName":"#ULTRALIVE","placeID":"2503863","placeName":"Tampa","searchUrl":"http:\/\/twitter.com\/search?q=%23ULTRALIVE","trendMapped":"ultralive","trendVolume":180304},{"stateName":"FL","trendName":"Anne","placeID":"2503863","placeName":"Tampa","searchUrl":"http:\/\/twitter.com\/search?q=Anne","trendMapped":"anne","trendVolume":345287},{"stateName":"FL","trendName":"Michigan State","placeID":"2503863","placeName":"Tampa","searchUrl":"http:\/\/twitter.com\/search?q=%22Michigan+State%22","trendMapped":"Michigan+State","trendVolume":243289},{"stateName":"GA","trendName":"#IndvsPak","placeID":"2357024","placeName":"Atlanta","searchUrl":"http:\/\/twitter.com\/search?q=%23IndvsPak","trendMapped":"indvs+pak","trendVolume":806831},{"stateName":"GA","trendName":"#MarchMadness","placeID":"2357024","placeName":"Atlanta","searchUrl":"http:\/\/twitter.com\/search?q=%23MarchMadness","trendMapped":"march+madness","trendVolume":394463},{"stateName":"GA","trendName":"#ULTRALIVE","placeID":"2357024","placeName":"Atlanta","searchUrl":"http:\/\/twitter.com\/search?q=%23ULTRALIVE","trendMapped":"ultralive","trendVolume":178747},{"stateName":"GA","trendName":"Anne","placeID":"2357024","placeName":"Atlanta","searchUrl":"http:\/\/twitter.com\/search?q=Anne","trendMapped":"anne","trendVolume":317105},{"stateName":"GA","trendName":"Michigan State","placeID":"2357024","placeName":"Atlanta","searchUrl":"http:\/\/twitter.com\/search?q=%22Michigan+State%22","trendMapped":"Michigan+State","trendVolume":226916},{"stateName":"HI","trendName":"#IndvsPak","placeID":"2423945","placeName":"Honolulu","searchUrl":"http:\/\/twitter.com\/search?q=%23IndvsPak","trendMapped":"indvs+pak","trendVolume":805051},{"stateName":"HI","trendName":"#MarchMadness","placeID":"2423945","placeName":"Honolulu","searchUrl":"http:\/\/twitter.com\/search?q=%23MarchMadness","trendMapped":"march+madness","trendVolume":394463},{"stateName":"IL","trendName":"#IndvsPak","placeID":"2379574","placeName":"Chicago","searchUrl":"http:\/\/twitter.com\/search?q=%23IndvsPak","trendMapped":"indvs+pak","trendVolume":810879},{"stateName":"IL","trendName":"#MarchMadness","placeID":"2379574","placeName":"Chicago","searchUrl":"http:\/\/twitter.com\/search?q=%23MarchMadness","trendMapped":"march+madness","trendVolume":395060},{"stateName":"IL","trendName":"Michigan State","placeID":"2379574","placeName":"Chicago","searchUrl":"http:\/\/twitter.com\/search?q=%22Michigan+State%22","trendMapped":"Michigan+State","trendVolume":230323},{"stateName":"IN","trendName":"#IndvsPak","placeID":"2427032","placeName":"Indianapolis","searchUrl":"http:\/\/twitter.com\/search?q=%23IndvsPak","trendMapped":"indvs+pak","trendVolume":761852},{"stateName":"IN","trendName":"#MarchMadness","placeID":"2427032","placeName":"Indianapolis","searchUrl":"http:\/\/twitter.com\/search?q=%23MarchMadness","trendMapped":"march+madness","trendVolume":395970},{"stateName":"IN","trendName":"Anne","placeID":"2427032","placeName":"Indianapolis","searchUrl":"http:\/\/twitter.com\/search?q=Anne","trendMapped":"anne","trendVolume":347266},{"stateName":"IN","trendName":"Michigan State","placeID":"2427032","placeName":"Indianapolis","searchUrl":"http:\/\/twitter.com\/search?q=%22Michigan+State%22","trendMapped":"Michigan+State","trendVolume":220642},{"stateName":"KY","trendName":"#GetWellSoonDylan","placeID":"2442327","placeName":"Louisville","searchUrl":"http:\/\/twitter.com\/search?q=%23GetWellSoonDylan","trendMapped":"get+well+soon+dylan","trendVolume":251477},{"stateName":"KY","trendName":"#IndvsPak","placeID":"2442327","placeName":"Louisville","searchUrl":"http:\/\/twitter.com\/search?q=%23IndvsPak","trendMapped":"indvs+pak","trendVolume":805051},{"stateName":"KY","trendName":"#MarchMadness","placeID":"2442327","placeName":"Louisville","searchUrl":"http:\/\/twitter.com\/search?q=%23MarchMadness","trendMapped":"march+madness","trendVolume":393889},{"stateName":"KY","trendName":"Michigan State","placeID":"2442327","placeName":"Louisville","searchUrl":"http:\/\/twitter.com\/search?q=%22Michigan+State%22","trendMapped":"Michigan+State","trendVolume":238306},{"stateName":"LA","trendName":"#GetWellSoonDylan","placeID":"2359991","placeName":"Baton Rouge","searchUrl":"http:\/\/twitter.com\/search?q=%23GetWellSoonDylan","trendMapped":"get+well+soon+dylan","trendVolume":250208},{"stateName":"LA","trendName":"#IndvsPak","placeID":"2458833","placeName":"New Orleans","searchUrl":"http:\/\/twitter.com\/search?q=%23IndvsPak","trendMapped":"indvs+pak","trendVolume":811988},{"stateName":"LA","trendName":"#MarchMadness","placeID":"2458833","placeName":"New Orleans","searchUrl":"http:\/\/twitter.com\/search?q=%23MarchMadness","trendMapped":"march+madness","trendVolume":392696},{"stateName":"LA","trendName":"Anne","placeID":"2359991","placeName":"Baton Rouge","searchUrl":"http:\/\/twitter.com\/search?q=Anne","trendMapped":"anne","trendVolume":325177},{"stateName":"LA","trendName":"March Madness","placeID":"2359991","placeName":"Baton Rouge","searchUrl":"http:\/\/twitter.com\/search?q=%22March+Madness%22","trendMapped":"March+Madness","trendVolume":145744},{"stateName":"LA","trendName":"Michigan State","placeID":"2458833","placeName":"New Orleans","searchUrl":"http:\/\/twitter.com\/search?q=%22Michigan+State%22","trendMapped":"Michigan+State","trendVolume":242998},{"stateName":"MA","trendName":"#IndvsPak","placeID":"2367105","placeName":"Boston","searchUrl":"http:\/\/twitter.com\/search?q=%23IndvsPak","trendMapped":"indvs+pak","trendVolume":810879},{"stateName":"MA","trendName":"#MarchMadness","placeID":"2367105","placeName":"Boston","searchUrl":"http:\/\/twitter.com\/search?q=%23MarchMadness","trendMapped":"march+madness","trendVolume":396130},{"stateName":"MA","trendName":"Michigan State","placeID":"2367105","placeName":"Boston","searchUrl":"http:\/\/twitter.com\/search?q=%22Michigan+State%22","trendMapped":"Michigan+State","trendVolume":224161},{"stateName":"MD","trendName":"#MarchMadness","placeID":"2358820","placeName":"Baltimore","searchUrl":"http:\/\/twitter.com\/search?q=%23MarchMadness","trendMapped":"march+madness","trendVolume":394463},{"stateName":"MI","trendName":"#IndvsPak","placeID":"2391585","placeName":"Detroit","searchUrl":"http:\/\/twitter.com\/search?q=%23IndvsPak","trendMapped":"indvs+pak","trendVolume":811988},{"stateName":"MI","trendName":"#MarchMadness","placeID":"2391585","placeName":"Detroit","searchUrl":"http:\/\/twitter.com\/search?q=%23MarchMadness","trendMapped":"march+madness","trendVolume":395060},{"stateName":"MI","trendName":"#ULTRALIVE","placeID":"2391585","placeName":"Detroit","searchUrl":"http:\/\/twitter.com\/search?q=%23ULTRALIVE","trendMapped":"ultralive","trendVolume":161952},{"stateName":"MI","trendName":"Anne","placeID":"2391585","placeName":"Detroit","searchUrl":"http:\/\/twitter.com\/search?q=Anne","trendMapped":"anne","trendVolume":340006},{"stateName":"MN","trendName":"#IndvsPak","placeID":"2452078","placeName":"Minneapolis","searchUrl":"http:\/\/twitter.com\/search?q=%23IndvsPak","trendMapped":"indvs+pak","trendVolume":782285},{"stateName":"MN","trendName":"#MarchMadness","placeID":"2452078","placeName":"Minneapolis","searchUrl":"http:\/\/twitter.com\/search?q=%23MarchMadness","trendMapped":"march+madness","trendVolume":394187},{"stateName":"MN","trendName":"Anne","placeID":"2452078","placeName":"Minneapolis","searchUrl":"http:\/\/twitter.com\/search?q=Anne","trendMapped":"anne","trendVolume":345287},{"stateName":"MN","trendName":"Michigan State","placeID":"2452078","placeName":"Minneapolis","searchUrl":"http:\/\/twitter.com\/search?q=%22Michigan+State%22","trendMapped":"Michigan+State","trendVolume":219456},{"stateName":"MO","trendName":"#IndvsPak","placeID":"2486982","placeName":"St. Louis","searchUrl":"http:\/\/twitter.com\/search?q=%23IndvsPak","trendMapped":"indvs+pak","trendVolume":810879},{"stateName":"MO","trendName":"#MarchMadness","placeID":"2486982","placeName":"St. Louis","searchUrl":"http:\/\/twitter.com\/search?q=%23MarchMadness","trendMapped":"march+madness","trendVolume":396130},{"stateName":"MO","trendName":"Anne","placeID":"2486982","placeName":"St. Louis","searchUrl":"http:\/\/twitter.com\/search?q=Anne","trendMapped":"anne","trendVolume":340006},{"stateName":"MO","trendName":"Michigan State","placeID":"2430683","placeName":"Kansas City","searchUrl":"http:\/\/twitter.com\/search?q=%22Michigan+State%22","trendMapped":"Michigan+State","trendVolume":239620},{"stateName":"MS","trendName":"#IndvsPak","placeID":"2428184","placeName":"Jackson","searchUrl":"http:\/\/twitter.com\/search?q=%23IndvsPak","trendMapped":"indvs+pak","trendVolume":809195},{"stateName":"MS","trendName":"#MarchMadness","placeID":"2428184","placeName":"Jackson","searchUrl":"http:\/\/twitter.com\/search?q=%23MarchMadness","trendMapped":"march+madness","trendVolume":395608},{"stateName":"MS","trendName":"St. Patrick's Day","placeID":"2428184","placeName":"Jackson","searchUrl":"http:\/\/twitter.com\/search?q=%22St.+Patrick%27s+Day%22","trendMapped":"St.+Patrick's+Day","trendVolume":230880},{"stateName":"NC","trendName":"#IndvsPak","placeID":"2478307","placeName":"Raleigh","searchUrl":"http:\/\/twitter.com\/search?q=%23IndvsPak","trendMapped":"indvs+pak","trendVolume":810293},{"stateName":"NC","trendName":"#MarchMadness","placeID":"2478307","placeName":"Raleigh","searchUrl":"http:\/\/twitter.com\/search?q=%23MarchMadness","trendMapped":"march+madness","trendVolume":396130},{"stateName":"NC","trendName":"#WT20","placeID":"2478307","placeName":"Raleigh","searchUrl":"http:\/\/twitter.com\/search?q=%23WT20","trendMapped":"wt20","trendVolume":265146},{"stateName":"NC","trendName":"Anne","placeID":"2414469","placeName":"Greensboro","searchUrl":"http:\/\/twitter.com\/search?q=Anne","trendMapped":"anne","trendVolume":345287},{"stateName":"NC","trendName":"Michigan State","placeID":"2478307","placeName":"Raleigh","searchUrl":"http:\/\/twitter.com\/search?q=%22Michigan+State%22","trendMapped":"Michigan+State","trendVolume":239962},{"stateName":"NE","trendName":"#IndvsPak","placeID":"2465512","placeName":"Omaha","searchUrl":"http:\/\/twitter.com\/search?q=%23IndvsPak","trendMapped":"indvs+pak","trendVolume":810293},{"stateName":"NE","trendName":"#MarchMadness","placeID":"2465512","placeName":"Omaha","searchUrl":"http:\/\/twitter.com\/search?q=%23MarchMadness","trendMapped":"march+madness","trendVolume":393889},{"stateName":"NM","trendName":"#AldenVsJeraldLSBPH","placeID":"2352824","placeName":"Albuquerque","searchUrl":"http:\/\/twitter.com\/search?q=%23AldenVsJeraldLSBPH","trendMapped":"alden+vs+jerald+lsbph","trendVolume":297061},{"stateName":"NM","trendName":"#IndvsPak","placeID":"2352824","placeName":"Albuquerque","searchUrl":"http:\/\/twitter.com\/search?q=%23IndvsPak","trendMapped":"indvs+pak","trendVolume":811988},{"stateName":"NM","trendName":"#Taksim","placeID":"2352824","placeName":"Albuquerque","searchUrl":"http:\/\/twitter.com\/search?q=%23Taksim","trendMapped":"taksim","trendVolume":305152},{"stateName":"NM","trendName":"#ULTRALIVE","placeID":"2352824","placeName":"Albuquerque","searchUrl":"http:\/\/twitter.com\/search?q=%23ULTRALIVE","trendMapped":"ultralive","trendVolume":181367},{"stateName":"NM","trendName":"Michigan State","placeID":"2352824","placeName":"Albuquerque","searchUrl":"http:\/\/twitter.com\/search?q=%22Michigan+State%22","trendMapped":"Michigan+State","trendVolume":229095},{"stateName":"NV","trendName":"#IndvsPak","placeID":"2436704","placeName":"Las Vegas","searchUrl":"http:\/\/twitter.com\/search?q=%23IndvsPak","trendMapped":"indvs+pak","trendVolume":810879},{"stateName":"NV","trendName":"#MarchMadness","placeID":"2436704","placeName":"Las Vegas","searchUrl":"http:\/\/twitter.com\/search?q=%23MarchMadness","trendMapped":"march+madness","trendVolume":395117},{"stateName":"NV","trendName":"Michigan State","placeID":"2436704","placeName":"Las Vegas","searchUrl":"http:\/\/twitter.com\/search?q=%22Michigan+State%22","trendMapped":"Michigan+State","trendVolume":222169},{"stateName":"NY","trendName":"#IndvsPak","placeID":"2459115","placeName":"New York","searchUrl":"http:\/\/twitter.com\/search?q=%23IndvsPak","trendMapped":"indvs+pak","trendVolume":797367},{"stateName":"NY","trendName":"#MarchMadness","placeID":"2459115","placeName":"New York","searchUrl":"http:\/\/twitter.com\/search?q=%23MarchMadness","trendMapped":"march+madness","trendVolume":395060},{"stateName":"NY","trendName":"#ULTRALIVE","placeID":"2459115","placeName":"New York","searchUrl":"http:\/\/twitter.com\/search?q=%23ULTRALIVE","trendMapped":"ultralive","trendVolume":167183},{"stateName":"NY","trendName":"Anne","placeID":"2459115","placeName":"New York","searchUrl":"http:\/\/twitter.com\/search?q=Anne","trendMapped":"anne","trendVolume":314224},{"stateName":"OH","trendName":"#IndvsPak","placeID":"2383660","placeName":"Columbus","searchUrl":"http:\/\/twitter.com\/search?q=%23IndvsPak","trendMapped":"indvs+pak","trendVolume":811988},{"stateName":"OH","trendName":"#MarchMadness","placeID":"2383660","placeName":"Columbus","searchUrl":"http:\/\/twitter.com\/search?q=%23MarchMadness","trendMapped":"march+madness","trendVolume":396130},{"stateName":"OH","trendName":"Anne","placeID":"2381475","placeName":"Cleveland","searchUrl":"http:\/\/twitter.com\/search?q=Anne","trendMapped":"anne","trendVolume":333551},{"stateName":"OH","trendName":"Michigan State","placeID":"2383660","placeName":"Columbus","searchUrl":"http:\/\/twitter.com\/search?q=%22Michigan+State%22","trendMapped":"Michigan+State","trendVolume":240625},{"stateName":"OK","trendName":"#IndvsPak","placeID":"2464592","placeName":"Oklahoma City","searchUrl":"http:\/\/twitter.com\/search?q=%23IndvsPak","trendMapped":"indvs+pak","trendVolume":810293},{"stateName":"OK","trendName":"#MarchMadness","placeID":"2464592","placeName":"Oklahoma City","searchUrl":"http:\/\/twitter.com\/search?q=%23MarchMadness","trendMapped":"march+madness","trendVolume":392696},{"stateName":"OK","trendName":"Anne","placeID":"2464592","placeName":"Oklahoma City","searchUrl":"http:\/\/twitter.com\/search?q=Anne","trendMapped":"anne","trendVolume":330509},{"stateName":"OK","trendName":"Michigan State","placeID":"2464592","placeName":"Oklahoma City","searchUrl":"http:\/\/twitter.com\/search?q=%22Michigan+State%22","trendMapped":"Michigan+State","trendVolume":240625},{"stateName":"OR","trendName":"#IndvsPak","placeID":"2475687","placeName":"Portland","searchUrl":"http:\/\/twitter.com\/search?q=%23IndvsPak","trendMapped":"indvs+pak","trendVolume":811988},{"stateName":"OR","trendName":"#MarchMadness","placeID":"2475687","placeName":"Portland","searchUrl":"http:\/\/twitter.com\/search?q=%23MarchMadness","trendMapped":"march+madness","trendVolume":394463},{"stateName":"OR","trendName":"Anne","placeID":"2475687","placeName":"Portland","searchUrl":"http:\/\/twitter.com\/search?q=Anne","trendMapped":"anne","trendVolume":333551},{"stateName":"OR","trendName":"Michigan State","placeID":"2475687","placeName":"Portland","searchUrl":"http:\/\/twitter.com\/search?q=%22Michigan+State%22","trendMapped":"Michigan+State","trendVolume":231581},{"stateName":"PA","trendName":"#AldenVsJeraldLSBPH","placeID":"2471217","placeName":"Philadelphia","searchUrl":"http:\/\/twitter.com\/search?q=%23AldenVsJeraldLSBPH","trendMapped":"alden+vs+jerald+lsbph","trendVolume":283374},{"stateName":"PA","trendName":"#IndvsPak","placeID":"2473224","placeName":"Pittsburgh","searchUrl":"http:\/\/twitter.com\/search?q=%23IndvsPak","trendMapped":"indvs+pak","trendVolume":810293},{"stateName":"PA","trendName":"#MarchMadness","placeID":"2473224","placeName":"Pittsburgh","searchUrl":"http:\/\/twitter.com\/search?q=%23MarchMadness","trendMapped":"march+madness","trendVolume":393424},{"stateName":"PA","trendName":"#ULTRALIVE","placeID":"2471217","placeName":"Philadelphia","searchUrl":"http:\/\/twitter.com\/search?q=%23ULTRALIVE","trendMapped":"ultralive","trendVolume":179254},{"stateName":"PA","trendName":"Anne","placeID":"2473224","placeName":"Pittsburgh","searchUrl":"http:\/\/twitter.com\/search?q=Anne","trendMapped":"anne","trendVolume":345287},{"stateName":"PA","trendName":"Michigan State","placeID":"2473224","placeName":"Pittsburgh","searchUrl":"http:\/\/twitter.com\/search?q=%22Michigan+State%22","trendMapped":"Michigan+State","trendVolume":226916},{"stateName":"RI","trendName":"#IndvsPak","placeID":"2477058","placeName":"Providence","searchUrl":"http:\/\/twitter.com\/search?q=%23IndvsPak","trendMapped":"indvs+pak","trendVolume":803973},{"stateName":"RI","trendName":"#MarchMadness","placeID":"2477058","placeName":"Providence","searchUrl":"http:\/\/twitter.com\/search?q=%23MarchMadness","trendMapped":"march+madness","trendVolume":393608},{"stateName":"RI","trendName":"Anne","placeID":"2477058","placeName":"Providence","searchUrl":"http:\/\/twitter.com\/search?q=Anne","trendMapped":"anne","trendVolume":335784},{"stateName":"RI","trendName":"Michigan State","placeID":"2477058","placeName":"Providence","searchUrl":"http:\/\/twitter.com\/search?q=%22Michigan+State%22","trendMapped":"Michigan+State","trendVolume":224161},{"stateName":"TN","trendName":"#GetWellSoonDylan","placeID":"2457170","placeName":"Nashville","searchUrl":"http:\/\/twitter.com\/search?q=%23GetWellSoonDylan","trendMapped":"get+well+soon+dylan","trendVolume":205141},{"stateName":"TN","trendName":"#IndvsPak","placeID":"2457170","placeName":"Nashville","searchUrl":"http:\/\/twitter.com\/search?q=%23IndvsPak","trendMapped":"indvs+pak","trendVolume":809195},{"stateName":"TN","trendName":"#MarchMadness","placeID":"2457170","placeName":"Nashville","searchUrl":"http:\/\/twitter.com\/search?q=%23MarchMadness","trendMapped":"march+madness","trendVolume":396130},{"stateName":"TN","trendName":"Michigan State","placeID":"2449323","placeName":"Memphis","searchUrl":"http:\/\/twitter.com\/search?q=%22Michigan+State%22","trendMapped":"Michigan+State","trendVolume":215391},{"stateName":"TX","trendName":"#AldenVsJeraldLSBPH","placeID":"2388929","placeName":"Dallas-Ft. Worth","searchUrl":"http:\/\/twitter.com\/search?q=%23AldenVsJeraldLSBPH","trendMapped":"alden+vs+jerald+lsbph","trendVolume":270510},{"stateName":"TX","trendName":"#GetWellSoonDylan","placeID":"2424766","placeName":"Houston","searchUrl":"http:\/\/twitter.com\/search?q=%23GetWellSoonDylan","trendMapped":"get+well+soon+dylan","trendVolume":188654},{"stateName":"TX","trendName":"#IndvsPak","placeID":"2487796","placeName":"San Antonio","searchUrl":"http:\/\/twitter.com\/search?q=%23IndvsPak","trendMapped":"indvs+pak","trendVolume":810879},{"stateName":"TX","trendName":"#MarchMadness","placeID":"2487796","placeName":"San Antonio","searchUrl":"http:\/\/twitter.com\/search?q=%23MarchMadness","trendMapped":"march+madness","trendVolume":395608},{"stateName":"TX","trendName":"#ULTRALIVE","placeID":"2424766","placeName":"Houston","searchUrl":"http:\/\/twitter.com\/search?q=%23ULTRALIVE","trendMapped":"ultralive","trendVolume":180304},{"stateName":"TX","trendName":"Anne","placeID":"2487796","placeName":"San Antonio","searchUrl":"http:\/\/twitter.com\/search?q=Anne","trendMapped":"anne","trendVolume":345287},{"stateName":"TX","trendName":"Michigan State","placeID":"2487796","placeName":"San Antonio","searchUrl":"http:\/\/twitter.com\/search?q=%22Michigan+State%22","trendMapped":"Michigan+State","trendVolume":240461},{"stateName":"UT","trendName":"#GetWellSoonDylan","placeID":"2487610","placeName":"Salt Lake City","searchUrl":"http:\/\/twitter.com\/search?q=%23GetWellSoonDylan","trendMapped":"get+well+soon+dylan","trendVolume":210976},{"stateName":"UT","trendName":"#IndvsPak","placeID":"2487610","placeName":"Salt Lake City","searchUrl":"http:\/\/twitter.com\/search?q=%23IndvsPak","trendMapped":"indvs+pak","trendVolume":447987},{"stateName":"UT","trendName":"#MarchMadness","placeID":"2487610","placeName":"Salt Lake City","searchUrl":"http:\/\/twitter.com\/search?q=%23MarchMadness","trendMapped":"march+madness","trendVolume":393287},{"stateName":"UT","trendName":"#ULTRALIVE","placeID":"2487610","placeName":"Salt Lake City","searchUrl":"http:\/\/twitter.com\/search?q=%23ULTRALIVE","trendMapped":"ultralive","trendVolume":167183},{"stateName":"UT","trendName":"Anne","placeID":"2487610","placeName":"Salt Lake City","searchUrl":"http:\/\/twitter.com\/search?q=Anne","trendMapped":"anne","trendVolume":345287},{"stateName":"UT","trendName":"Michigan State","placeID":"2487610","placeName":"Salt Lake City","searchUrl":"http:\/\/twitter.com\/search?q=%22Michigan+State%22","trendMapped":"Michigan+State","trendVolume":229095},{"stateName":"VA","trendName":"#AldenVsJeraldLSBPH","placeID":"2512636","placeName":"Virginia Beach","searchUrl":"http:\/\/twitter.com\/search?q=%23AldenVsJeraldLSBPH","trendMapped":"alden+vs+jerald+lsbph","trendVolume":297061},{"stateName":"VA","trendName":"#AusGP","placeID":"2512636","placeName":"Virginia Beach","searchUrl":"http:\/\/twitter.com\/search?q=%23AusGP","trendMapped":"aus+gp","trendVolume":80662},{"stateName":"VA","trendName":"#GetWellSoonDylan","placeID":"2512636","placeName":"Virginia Beach","searchUrl":"http:\/\/twitter.com\/search?q=%23GetWellSoonDylan","trendMapped":"get+well+soon+dylan","trendVolume":213590},{"stateName":"VA","trendName":"#IndvsPak","placeID":"2512636","placeName":"Virginia Beach","searchUrl":"http:\/\/twitter.com\/search?q=%23IndvsPak","trendMapped":"indvs+pak","trendVolume":810879},{"stateName":"VA","trendName":"#MarchMadness","placeID":"2480894","placeName":"Richmond","searchUrl":"http:\/\/twitter.com\/search?q=%23MarchMadness","trendMapped":"march+madness","trendVolume":394431},{"stateName":"VA","trendName":"#ULTRALIVE","placeID":"2512636","placeName":"Virginia Beach","searchUrl":"http:\/\/twitter.com\/search?q=%23ULTRALIVE","trendMapped":"ultralive","trendVolume":181367},{"stateName":"VA","trendName":"Anne","placeID":"2512636","placeName":"Virginia Beach","searchUrl":"http:\/\/twitter.com\/search?q=Anne","trendMapped":"anne","trendVolume":333551},{"stateName":"VA","trendName":"Michigan State","placeID":"2512636","placeName":"Virginia Beach","searchUrl":"http:\/\/twitter.com\/search?q=%22Michigan+State%22","trendMapped":"Michigan+State","trendVolume":233706},{"stateName":"WA","trendName":"#GetWellSoonDylan","placeID":"2490383","placeName":"Seattle","searchUrl":"http:\/\/twitter.com\/search?q=%23GetWellSoonDylan","trendMapped":"get+well+soon+dylan","trendVolume":205141},{"stateName":"WA","trendName":"#IndvsPak","placeID":"2490383","placeName":"Seattle","searchUrl":"http:\/\/twitter.com\/search?q=%23IndvsPak","trendMapped":"indvs+pak","trendVolume":810293},{"stateName":"WA","trendName":"#MarchMadness","placeID":"2490383","placeName":"Seattle","searchUrl":"http:\/\/twitter.com\/search?q=%23MarchMadness","trendMapped":"march+madness","trendVolume":394629},{"stateName":"WA","trendName":"#ULTRALIVE","placeID":"2490383","placeName":"Seattle","searchUrl":"http:\/\/twitter.com\/search?q=%23ULTRALIVE","trendMapped":"ultralive","trendVolume":176303},{"stateName":"WA","trendName":"Anne","placeID":"2490383","placeName":"Seattle","searchUrl":"http:\/\/twitter.com\/search?q=Anne","trendMapped":"anne","trendVolume":340006},{"stateName":"WA","trendName":"Michigan State","placeID":"2490383","placeName":"Seattle","searchUrl":"http:\/\/twitter.com\/search?q=%22Michigan+State%22","trendMapped":"Michigan+State","trendVolume":241070},{"stateName":"WI","trendName":"#IndvsPak","placeID":"2451822","placeName":"Milwaukee","searchUrl":"http:\/\/twitter.com\/search?q=%23IndvsPak","trendMapped":"indvs+pak","trendVolume":807290},{"stateName":"WI","trendName":"#MarchMadness","placeID":"2451822","placeName":"Milwaukee","searchUrl":"http:\/\/twitter.com\/search?q=%23MarchMadness","trendMapped":"march+madness","trendVolume":394431},{"stateName":"WI","trendName":"Anne","placeID":"2451822","placeName":"Milwaukee","searchUrl":"http:\/\/twitter.com\/search?q=Anne","trendMapped":"anne","trendVolume":340006},{"stateName":"WI","trendName":"Michigan State","placeID":"2451822","placeName":"Milwaukee","searchUrl":"http:\/\/twitter.com\/search?q=%22Michigan+State%22","trendMapped":"Michigan+State","trendVolume":232588},{"stateName":"XX","trendName":"#GetWellSoonDylan","placeID":"23424977","placeName":"United States","searchUrl":"http:\/\/twitter.com\/search?q=%23GetWellSoonDylan","trendMapped":"get+well+soon+dylan","trendVolume":210976},{"stateName":"XX","trendName":"#IndvsPak","placeID":"23424977","placeName":"United States","searchUrl":"http:\/\/twitter.com\/search?q=%23IndvsPak","trendMapped":"indvs+pak","trendVolume":795688},{"stateName":"XX","trendName":"#MarchMadness","placeID":"23424977","placeName":"United States","searchUrl":"http:\/\/twitter.com\/search?q=%23MarchMadness","trendMapped":"march+madness","trendVolume":395060},{"stateName":"XX","trendName":"#Taksim","placeID":"23424977","placeName":"United States","searchUrl":"http:\/\/twitter.com\/search?q=%23Taksim","trendMapped":"taksim","trendVolume":305152},{"stateName":"XX","trendName":"#ULTRALIVE","placeID":"23424977","placeName":"United States","searchUrl":"http:\/\/twitter.com\/search?q=%23ULTRALIVE","trendMapped":"ultralive","trendVolume":179677},{"stateName":"XX","trendName":"Anne","placeID":"23424977","placeName":"United States","searchUrl":"http:\/\/twitter.com\/search?q=Anne","trendMapped":"anne","trendVolume":333551},{"stateName":"XX","trendName":"Michigan State","placeID":"23424977","placeName":"United States","searchUrl":"http:\/\/twitter.com\/search?q=%22Michigan+State%22","trendMapped":"Michigan+State","trendVolume":218706}]