[{"stateName":"AL","trendName":"#FLY2NDWIN","placeID":"2364559","placeName":"Birmingham","searchUrl":"http:\/\/twitter.com\/search?q=%23FLY2NDWIN","trendMapped":"fly2+ndwin","trendVolume":1192233},{"stateName":"AL","trendName":"D'Angelo Russell","placeID":"2364559","placeName":"Birmingham","searchUrl":"http:\/\/twitter.com\/search?q=%22D%27Angelo+Russell%22","trendMapped":"D'Angelo+Russell","trendVolume":476492},{"stateName":"AL","trendName":"Empire","placeID":"2364559","placeName":"Birmingham","searchUrl":"http:\/\/twitter.com\/search?q=Empire","trendMapped":"empire","trendVolume":625067},{"stateName":"AZ","trendName":"#DolanTwinsNewVideo","placeID":"2508428","placeName":"Tucson","searchUrl":"http:\/\/twitter.com\/search?q=%23DolanTwinsNewVideo","trendMapped":"dolan+twins+new+video","trendVolume":253498},{"stateName":"AZ","trendName":"#Empire","placeID":"2508428","placeName":"Tucson","searchUrl":"http:\/\/twitter.com\/search?q=%23Empire","trendMapped":"empire","trendVolume":420671},{"stateName":"AZ","trendName":"#FLY2NDWIN","placeID":"2508428","placeName":"Tucson","searchUrl":"http:\/\/twitter.com\/search?q=%23FLY2NDWIN","trendMapped":"fly2+ndwin","trendVolume":1199291},{"stateName":"AZ","trendName":"#IndvsWI","placeID":"2508428","placeName":"Tucson","searchUrl":"http:\/\/twitter.com\/search?q=%23IndvsWI","trendMapped":"indvs+wi","trendVolume":530656},{"stateName":"AZ","trendName":"5H DAY","placeID":"2449808","placeName":"Mesa","searchUrl":"http:\/\/twitter.com\/search?q=%225H+DAY%22","trendMapped":"5H+DAY","trendVolume":766164},{"stateName":"AZ","trendName":"5SOS FAM DAY","placeID":"2471390","placeName":"Phoenix","searchUrl":"http:\/\/twitter.com\/search?q=%225SOS+FAM+DAY%22","trendMapped":"5SOS+FAM+DAY","trendVolume":1036388},{"stateName":"AZ","trendName":"April Fools","placeID":"2449808","placeName":"Mesa","searchUrl":"http:\/\/twitter.com\/search?q=%22April+Fools%22","trendMapped":"April+Fools","trendVolume":380697},{"stateName":"AZ","trendName":"Chris Brown","placeID":"2471390","placeName":"Phoenix","searchUrl":"http:\/\/twitter.com\/search?q=%22Chris+Brown%22","trendMapped":"Chris+Brown","trendVolume":315579},{"stateName":"AZ","trendName":"D'Angelo Russell","placeID":"2508428","placeName":"Tucson","searchUrl":"http:\/\/twitter.com\/search?q=%22D%27Angelo+Russell%22","trendMapped":"D'Angelo+Russell","trendVolume":477934},{"stateName":"CA","trendName":"#DolanTwinsNewVideo","placeID":"2487956","placeName":"San Francisco","searchUrl":"http:\/\/twitter.com\/search?q=%23DolanTwinsNewVideo","trendMapped":"dolan+twins+new+video","trendVolume":253498},{"stateName":"CA","trendName":"#Empire","placeID":"2488042","placeName":"San Jose","searchUrl":"http:\/\/twitter.com\/search?q=%23Empire","trendMapped":"empire","trendVolume":421541},{"stateName":"CA","trendName":"#FLY2NDWIN","placeID":"2488042","placeName":"San Jose","searchUrl":"http:\/\/twitter.com\/search?q=%23FLY2NDWIN","trendMapped":"fly2+ndwin","trendVolume":1133964},{"stateName":"CA","trendName":"#IndvsWI","placeID":"2488042","placeName":"San Jose","searchUrl":"http:\/\/twitter.com\/search?q=%23IndvsWI","trendMapped":"indvs+wi","trendVolume":530656},{"stateName":"CA","trendName":"5SOS FAM DAY","placeID":"2441472","placeName":"Long Beach","searchUrl":"http:\/\/twitter.com\/search?q=%225SOS+FAM+DAY%22","trendMapped":"5SOS+FAM+DAY","trendVolume":1048328},{"stateName":"CA","trendName":"April Fools","placeID":"2488042","placeName":"San Jose","searchUrl":"http:\/\/twitter.com\/search?q=%22April+Fools%22","trendMapped":"April+Fools","trendVolume":366816},{"stateName":"CA","trendName":"D'Angelo Russell","placeID":"2487956","placeName":"San Francisco","searchUrl":"http:\/\/twitter.com\/search?q=%22D%27Angelo+Russell%22","trendMapped":"D'Angelo+Russell","trendVolume":477116},{"stateName":"CA","trendName":"Empire","placeID":"2486340","placeName":"Sacramento","searchUrl":"http:\/\/twitter.com\/search?q=Empire","trendMapped":"empire","trendVolume":641048},{"stateName":"CA","trendName":"Kanye","placeID":"2487889","placeName":"San Diego","searchUrl":"http:\/\/twitter.com\/search?q=Kanye","trendMapped":"kanye","trendVolume":621246},{"stateName":"CO","trendName":"#Empire","placeID":"2383489","placeName":"Colorado Springs","searchUrl":"http:\/\/twitter.com\/search?q=%23Empire","trendMapped":"empire","trendVolume":420106},{"stateName":"CO","trendName":"#FLY2NDWIN","placeID":"2391279","placeName":"Denver","searchUrl":"http:\/\/twitter.com\/search?q=%23FLY2NDWIN","trendMapped":"fly2+ndwin","trendVolume":1065395},{"stateName":"CO","trendName":"#IndvsWI","placeID":"2391279","placeName":"Denver","searchUrl":"http:\/\/twitter.com\/search?q=%23IndvsWI","trendMapped":"indvs+wi","trendVolume":528516},{"stateName":"CO","trendName":"5SOS FAM DAY","placeID":"2383489","placeName":"Colorado Springs","searchUrl":"http:\/\/twitter.com\/search?q=%225SOS+FAM+DAY%22","trendMapped":"5SOS+FAM+DAY","trendVolume":993686},{"stateName":"CO","trendName":"April Fools","placeID":"2383489","placeName":"Colorado Springs","searchUrl":"http:\/\/twitter.com\/search?q=%22April+Fools%22","trendMapped":"April+Fools","trendVolume":286336},{"stateName":"CO","trendName":"D'Angelo Russell","placeID":"2391279","placeName":"Denver","searchUrl":"http:\/\/twitter.com\/search?q=%22D%27Angelo+Russell%22","trendMapped":"D'Angelo+Russell","trendVolume":476313},{"stateName":"CT","trendName":"#Empire","placeID":"2458410","placeName":"New Haven","searchUrl":"http:\/\/twitter.com\/search?q=%23Empire","trendMapped":"empire","trendVolume":426512},{"stateName":"CT","trendName":"#FLY2NDWIN","placeID":"2458410","placeName":"New Haven","searchUrl":"http:\/\/twitter.com\/search?q=%23FLY2NDWIN","trendMapped":"fly2+ndwin","trendVolume":1109771},{"stateName":"CT","trendName":"#IndvsWI","placeID":"2458410","placeName":"New Haven","searchUrl":"http:\/\/twitter.com\/search?q=%23IndvsWI","trendMapped":"indvs+wi","trendVolume":535282},{"stateName":"CT","trendName":"D'Angelo Russell","placeID":"2458410","placeName":"New Haven","searchUrl":"http:\/\/twitter.com\/search?q=%22D%27Angelo+Russell%22","trendMapped":"D'Angelo+Russell","trendVolume":476997},{"stateName":"DC","trendName":"#DolanTwinsNewVideo","placeID":"2514815","placeName":"Washington","searchUrl":"http:\/\/twitter.com\/search?q=%23DolanTwinsNewVideo","trendMapped":"dolan+twins+new+video","trendVolume":253276},{"stateName":"DC","trendName":"#Empire","placeID":"2514815","placeName":"Washington","searchUrl":"http:\/\/twitter.com\/search?q=%23Empire","trendMapped":"empire","trendVolume":410926},{"stateName":"DC","trendName":"#FLY2NDWIN","placeID":"2514815","placeName":"Washington","searchUrl":"http:\/\/twitter.com\/search?q=%23FLY2NDWIN","trendMapped":"fly2+ndwin","trendVolume":1192233},{"stateName":"DC","trendName":"#IndvsWI","placeID":"2514815","placeName":"Washington","searchUrl":"http:\/\/twitter.com\/search?q=%23IndvsWI","trendMapped":"indvs+wi","trendVolume":526452},{"stateName":"DC","trendName":"5SOS FAM DAY","placeID":"2514815","placeName":"Washington","searchUrl":"http:\/\/twitter.com\/search?q=%225SOS+FAM+DAY%22","trendMapped":"5SOS+FAM+DAY","trendVolume":1073436},{"stateName":"DC","trendName":"D'Angelo Russell","placeID":"2514815","placeName":"Washington","searchUrl":"http:\/\/twitter.com\/search?q=%22D%27Angelo+Russell%22","trendMapped":"D'Angelo+Russell","trendVolume":477108},{"stateName":"FL","trendName":"#DolanTwinsNewVideo","placeID":"2428344","placeName":"Jacksonville","searchUrl":"http:\/\/twitter.com\/search?q=%23DolanTwinsNewVideo","trendMapped":"dolan+twins+new+video","trendVolume":253077},{"stateName":"FL","trendName":"#Empire","placeID":"2503863","placeName":"Tampa","searchUrl":"http:\/\/twitter.com\/search?q=%23Empire","trendMapped":"empire","trendVolume":425280},{"stateName":"FL","trendName":"#FLY2NDWIN","placeID":"2503713","placeName":"Tallahassee","searchUrl":"http:\/\/twitter.com\/search?q=%23FLY2NDWIN","trendMapped":"fly2+ndwin","trendVolume":1176602},{"stateName":"FL","trendName":"#IndvsWI","placeID":"2503863","placeName":"Tampa","searchUrl":"http:\/\/twitter.com\/search?q=%23IndvsWI","trendMapped":"indvs+wi","trendVolume":530656},{"stateName":"FL","trendName":"5SOS FAM DAY","placeID":"2503863","placeName":"Tampa","searchUrl":"http:\/\/twitter.com\/search?q=%225SOS+FAM+DAY%22","trendMapped":"5SOS+FAM+DAY","trendVolume":1036388},{"stateName":"FL","trendName":"April Fools","placeID":"2503713","placeName":"Tallahassee","searchUrl":"http:\/\/twitter.com\/search?q=%22April+Fools%22","trendMapped":"April+Fools","trendVolume":295221},{"stateName":"FL","trendName":"D'Angelo Russell","placeID":"2503863","placeName":"Tampa","searchUrl":"http:\/\/twitter.com\/search?q=%22D%27Angelo+Russell%22","trendMapped":"D'Angelo+Russell","trendVolume":477934},{"stateName":"FL","trendName":"Empire","placeID":"2428344","placeName":"Jacksonville","searchUrl":"http:\/\/twitter.com\/search?q=Empire","trendMapped":"empire","trendVolume":611824},{"stateName":"FL","trendName":"Kanye","placeID":"2503863","placeName":"Tampa","searchUrl":"http:\/\/twitter.com\/search?q=Kanye","trendMapped":"kanye","trendVolume":631131},{"stateName":"GA","trendName":"#DolanTwinsNewVideo","placeID":"2357024","placeName":"Atlanta","searchUrl":"http:\/\/twitter.com\/search?q=%23DolanTwinsNewVideo","trendMapped":"dolan+twins+new+video","trendVolume":253498},{"stateName":"GA","trendName":"#Empire","placeID":"2357024","placeName":"Atlanta","searchUrl":"http:\/\/twitter.com\/search?q=%23Empire","trendMapped":"empire","trendVolume":421541},{"stateName":"GA","trendName":"#FLY2NDWIN","placeID":"2357024","placeName":"Atlanta","searchUrl":"http:\/\/twitter.com\/search?q=%23FLY2NDWIN","trendMapped":"fly2+ndwin","trendVolume":839974},{"stateName":"GA","trendName":"#IndvsWI","placeID":"2357024","placeName":"Atlanta","searchUrl":"http:\/\/twitter.com\/search?q=%23IndvsWI","trendMapped":"indvs+wi","trendVolume":522371},{"stateName":"GA","trendName":"D'Angelo Russell","placeID":"2357024","placeName":"Atlanta","searchUrl":"http:\/\/twitter.com\/search?q=%22D%27Angelo+Russell%22","trendMapped":"D'Angelo+Russell","trendVolume":475885},{"stateName":"HI","trendName":"#BestFanArmy","placeID":"2423945","placeName":"Honolulu","searchUrl":"http:\/\/twitter.com\/search?q=%23BestFanArmy","trendMapped":"best+fan+army","trendVolume":9063513},{"stateName":"HI","trendName":"Trump","placeID":"2423945","placeName":"Honolulu","searchUrl":"http:\/\/twitter.com\/search?q=Trump","trendMapped":"trump","trendVolume":1299547},{"stateName":"IL","trendName":"#DolanTwinsNewVideo","placeID":"2379574","placeName":"Chicago","searchUrl":"http:\/\/twitter.com\/search?q=%23DolanTwinsNewVideo","trendMapped":"dolan+twins+new+video","trendVolume":253470},{"stateName":"IL","trendName":"#Empire","placeID":"2379574","placeName":"Chicago","searchUrl":"http:\/\/twitter.com\/search?q=%23Empire","trendMapped":"empire","trendVolume":419229},{"stateName":"IL","trendName":"#FLY2NDWIN","placeID":"2379574","placeName":"Chicago","searchUrl":"http:\/\/twitter.com\/search?q=%23FLY2NDWIN","trendMapped":"fly2+ndwin","trendVolume":884439},{"stateName":"IL","trendName":"#IndvsWI","placeID":"2379574","placeName":"Chicago","searchUrl":"http:\/\/twitter.com\/search?q=%23IndvsWI","trendMapped":"indvs+wi","trendVolume":531481},{"stateName":"IL","trendName":"5SOS FAM DAY","placeID":"2379574","placeName":"Chicago","searchUrl":"http:\/\/twitter.com\/search?q=%225SOS+FAM+DAY%22","trendMapped":"5SOS+FAM+DAY","trendVolume":993686},{"stateName":"IN","trendName":"#FLY2NDWIN","placeID":"2427032","placeName":"Indianapolis","searchUrl":"http:\/\/twitter.com\/search?q=%23FLY2NDWIN","trendMapped":"fly2+ndwin","trendVolume":1065395},{"stateName":"IN","trendName":"#IndvsWI","placeID":"2427032","placeName":"Indianapolis","searchUrl":"http:\/\/twitter.com\/search?q=%23IndvsWI","trendMapped":"indvs+wi","trendVolume":529772},{"stateName":"IN","trendName":"5SOS FAM DAY","placeID":"2427032","placeName":"Indianapolis","searchUrl":"http:\/\/twitter.com\/search?q=%225SOS+FAM+DAY%22","trendMapped":"5SOS+FAM+DAY","trendVolume":1073436},{"stateName":"IN","trendName":"D'Angelo Russell","placeID":"2427032","placeName":"Indianapolis","searchUrl":"http:\/\/twitter.com\/search?q=%22D%27Angelo+Russell%22","trendMapped":"D'Angelo+Russell","trendVolume":477934},{"stateName":"KY","trendName":"#Empire","placeID":"2442327","placeName":"Louisville","searchUrl":"http:\/\/twitter.com\/search?q=%23Empire","trendMapped":"empire","trendVolume":426512},{"stateName":"KY","trendName":"#FLY2NDWIN","placeID":"2442327","placeName":"Louisville","searchUrl":"http:\/\/twitter.com\/search?q=%23FLY2NDWIN","trendMapped":"fly2+ndwin","trendVolume":991312},{"stateName":"KY","trendName":"#IndvsWI","placeID":"2442327","placeName":"Louisville","searchUrl":"http:\/\/twitter.com\/search?q=%23IndvsWI","trendMapped":"indvs+wi","trendVolume":530095},{"stateName":"KY","trendName":"5SOS FAM DAY","placeID":"2442327","placeName":"Louisville","searchUrl":"http:\/\/twitter.com\/search?q=%225SOS+FAM+DAY%22","trendMapped":"5SOS+FAM+DAY","trendVolume":993686},{"stateName":"KY","trendName":"D'Angelo Russell","placeID":"2442327","placeName":"Louisville","searchUrl":"http:\/\/twitter.com\/search?q=%22D%27Angelo+Russell%22","trendMapped":"D'Angelo+Russell","trendVolume":475733},{"stateName":"KY","trendName":"Trump","placeID":"2442327","placeName":"Louisville","searchUrl":"http:\/\/twitter.com\/search?q=Trump","trendMapped":"trump","trendVolume":1373310},{"stateName":"LA","trendName":"#Empire","placeID":"2458833","placeName":"New Orleans","searchUrl":"http:\/\/twitter.com\/search?q=%23Empire","trendMapped":"empire","trendVolume":426399},{"stateName":"LA","trendName":"#FLY2NDWIN","placeID":"2458833","placeName":"New Orleans","searchUrl":"http:\/\/twitter.com\/search?q=%23FLY2NDWIN","trendMapped":"fly2+ndwin","trendVolume":1133964},{"stateName":"LA","trendName":"#IndvsWI","placeID":"2458833","placeName":"New Orleans","searchUrl":"http:\/\/twitter.com\/search?q=%23IndvsWI","trendMapped":"indvs+wi","trendVolume":530656},{"stateName":"LA","trendName":"5H DAY","placeID":"2458833","placeName":"New Orleans","searchUrl":"http:\/\/twitter.com\/search?q=%225H+DAY%22","trendMapped":"5H+DAY","trendVolume":763933},{"stateName":"LA","trendName":"5SOS FAM DAY","placeID":"2458833","placeName":"New Orleans","searchUrl":"http:\/\/twitter.com\/search?q=%225SOS+FAM+DAY%22","trendMapped":"5SOS+FAM+DAY","trendVolume":1073436},{"stateName":"LA","trendName":"D'Angelo Russell","placeID":"2458833","placeName":"New Orleans","searchUrl":"http:\/\/twitter.com\/search?q=%22D%27Angelo+Russell%22","trendMapped":"D'Angelo+Russell","trendVolume":476110},{"stateName":"LA","trendName":"Kanye","placeID":"2359991","placeName":"Baton Rouge","searchUrl":"http:\/\/twitter.com\/search?q=Kanye","trendMapped":"kanye","trendVolume":729342},{"stateName":"MA","trendName":"#5SOSFam","placeID":"2367105","placeName":"Boston","searchUrl":"http:\/\/twitter.com\/search?q=%235SOSFam","trendMapped":"5+sos+fam","trendVolume":3768418},{"stateName":"MA","trendName":"#DolanTwinsNewVideo","placeID":"2367105","placeName":"Boston","searchUrl":"http:\/\/twitter.com\/search?q=%23DolanTwinsNewVideo","trendMapped":"dolan+twins+new+video","trendVolume":253077},{"stateName":"MA","trendName":"#Empire","placeID":"2367105","placeName":"Boston","searchUrl":"http:\/\/twitter.com\/search?q=%23Empire","trendMapped":"empire","trendVolume":400816},{"stateName":"MA","trendName":"#FLY2NDWIN","placeID":"2367105","placeName":"Boston","searchUrl":"http:\/\/twitter.com\/search?q=%23FLY2NDWIN","trendMapped":"fly2+ndwin","trendVolume":656234},{"stateName":"MA","trendName":"#IndvsWI","placeID":"2367105","placeName":"Boston","searchUrl":"http:\/\/twitter.com\/search?q=%23IndvsWI","trendMapped":"indvs+wi","trendVolume":353782},{"stateName":"MA","trendName":"5H DAY","placeID":"2367105","placeName":"Boston","searchUrl":"http:\/\/twitter.com\/search?q=%225H+DAY%22","trendMapped":"5H+DAY","trendVolume":1532497},{"stateName":"MA","trendName":"CHICKENS DAY","placeID":"2367105","placeName":"Boston","searchUrl":"http:\/\/twitter.com\/search?q=%22CHICKENS+DAY%22","trendMapped":"CHICKENS+DAY","trendVolume":1205548},{"stateName":"MA","trendName":"D'Angelo Russell","placeID":"2367105","placeName":"Boston","searchUrl":"http:\/\/twitter.com\/search?q=%22D%27Angelo+Russell%22","trendMapped":"D'Angelo+Russell","trendVolume":477934},{"stateName":"MD","trendName":"#Empire","placeID":"2358820","placeName":"Baltimore","searchUrl":"http:\/\/twitter.com\/search?q=%23Empire","trendMapped":"empire","trendVolume":419229},{"stateName":"MD","trendName":"#FLY2NDWIN","placeID":"2358820","placeName":"Baltimore","searchUrl":"http:\/\/twitter.com\/search?q=%23FLY2NDWIN","trendMapped":"fly2+ndwin","trendVolume":1157874},{"stateName":"MD","trendName":"#IndvsWI","placeID":"2358820","placeName":"Baltimore","searchUrl":"http:\/\/twitter.com\/search?q=%23IndvsWI","trendMapped":"indvs+wi","trendVolume":523225},{"stateName":"MD","trendName":"5SOS FAM DAY","placeID":"2358820","placeName":"Baltimore","searchUrl":"http:\/\/twitter.com\/search?q=%225SOS+FAM+DAY%22","trendMapped":"5SOS+FAM+DAY","trendVolume":993686},{"stateName":"MD","trendName":"D'Angelo Russell","placeID":"2358820","placeName":"Baltimore","searchUrl":"http:\/\/twitter.com\/search?q=%22D%27Angelo+Russell%22","trendMapped":"D'Angelo+Russell","trendVolume":476492},{"stateName":"MI","trendName":"#Empire","placeID":"2391585","placeName":"Detroit","searchUrl":"http:\/\/twitter.com\/search?q=%23Empire","trendMapped":"empire","trendVolume":391879},{"stateName":"MI","trendName":"#FLY2NDWIN","placeID":"2391585","placeName":"Detroit","searchUrl":"http:\/\/twitter.com\/search?q=%23FLY2NDWIN","trendMapped":"fly2+ndwin","trendVolume":1081905},{"stateName":"MI","trendName":"#IndvsWI","placeID":"2391585","placeName":"Detroit","searchUrl":"http:\/\/twitter.com\/search?q=%23IndvsWI","trendMapped":"indvs+wi","trendVolume":523225},{"stateName":"MI","trendName":"5H DAY","placeID":"2391585","placeName":"Detroit","searchUrl":"http:\/\/twitter.com\/search?q=%225H+DAY%22","trendMapped":"5H+DAY","trendVolume":1613492},{"stateName":"MI","trendName":"5SOS FAM DAY","placeID":"2391585","placeName":"Detroit","searchUrl":"http:\/\/twitter.com\/search?q=%225SOS+FAM+DAY%22","trendMapped":"5SOS+FAM+DAY","trendVolume":993686},{"stateName":"MI","trendName":"D'Angelo Russell","placeID":"2391585","placeName":"Detroit","searchUrl":"http:\/\/twitter.com\/search?q=%22D%27Angelo+Russell%22","trendMapped":"D'Angelo+Russell","trendVolume":477108},{"stateName":"MN","trendName":"#DolanTwinsNewVideo","placeID":"2452078","placeName":"Minneapolis","searchUrl":"http:\/\/twitter.com\/search?q=%23DolanTwinsNewVideo","trendMapped":"dolan+twins+new+video","trendVolume":253601},{"stateName":"MN","trendName":"#Empire","placeID":"2452078","placeName":"Minneapolis","searchUrl":"http:\/\/twitter.com\/search?q=%23Empire","trendMapped":"empire","trendVolume":422106},{"stateName":"MN","trendName":"#FLY2NDWIN","placeID":"2452078","placeName":"Minneapolis","searchUrl":"http:\/\/twitter.com\/search?q=%23FLY2NDWIN","trendMapped":"fly2+ndwin","trendVolume":724431},{"stateName":"MN","trendName":"#IndvsWI","placeID":"2452078","placeName":"Minneapolis","searchUrl":"http:\/\/twitter.com\/search?q=%23IndvsWI","trendMapped":"indvs+wi","trendVolume":531481},{"stateName":"MN","trendName":"April Fools","placeID":"2452078","placeName":"Minneapolis","searchUrl":"http:\/\/twitter.com\/search?q=%22April+Fools%22","trendMapped":"April+Fools","trendVolume":318610},{"stateName":"MO","trendName":"#Empire","placeID":"2486982","placeName":"St. Louis","searchUrl":"http:\/\/twitter.com\/search?q=%23Empire","trendMapped":"empire","trendVolume":416085},{"stateName":"MO","trendName":"#FLY2NDWIN","placeID":"2486982","placeName":"St. Louis","searchUrl":"http:\/\/twitter.com\/search?q=%23FLY2NDWIN","trendMapped":"fly2+ndwin","trendVolume":1032339},{"stateName":"MO","trendName":"#GOT7","placeID":"2430683","placeName":"Kansas City","searchUrl":"http:\/\/twitter.com\/search?q=%23GOT7","trendMapped":"got7","trendVolume":713397},{"stateName":"MO","trendName":"#IndvsWI","placeID":"2486982","placeName":"St. Louis","searchUrl":"http:\/\/twitter.com\/search?q=%23IndvsWI","trendMapped":"indvs+wi","trendVolume":530656},{"stateName":"MO","trendName":"5SOS FAM DAY","placeID":"2430683","placeName":"Kansas City","searchUrl":"http:\/\/twitter.com\/search?q=%225SOS+FAM+DAY%22","trendMapped":"5SOS+FAM+DAY","trendVolume":905852},{"stateName":"MO","trendName":"D'Angelo Russell","placeID":"2430683","placeName":"Kansas City","searchUrl":"http:\/\/twitter.com\/search?q=%22D%27Angelo+Russell%22","trendMapped":"D'Angelo+Russell","trendVolume":451168},{"stateName":"MO","trendName":"Kanye","placeID":"2486982","placeName":"St. Louis","searchUrl":"http:\/\/twitter.com\/search?q=Kanye","trendMapped":"kanye","trendVolume":621571},{"stateName":"MS","trendName":"#Empire","placeID":"2428184","placeName":"Jackson","searchUrl":"http:\/\/twitter.com\/search?q=%23Empire","trendMapped":"empire","trendVolume":394129},{"stateName":"MS","trendName":"#FLY2NDWIN","placeID":"2428184","placeName":"Jackson","searchUrl":"http:\/\/twitter.com\/search?q=%23FLY2NDWIN","trendMapped":"fly2+ndwin","trendVolume":969764},{"stateName":"MS","trendName":"#IndvsWI","placeID":"2428184","placeName":"Jackson","searchUrl":"http:\/\/twitter.com\/search?q=%23IndvsWI","trendMapped":"indvs+wi","trendVolume":499880},{"stateName":"MS","trendName":"5H DAY","placeID":"2428184","placeName":"Jackson","searchUrl":"http:\/\/twitter.com\/search?q=%225H+DAY%22","trendMapped":"5H+DAY","trendVolume":763933},{"stateName":"MS","trendName":"5SOS FAM DAY","placeID":"2428184","placeName":"Jackson","searchUrl":"http:\/\/twitter.com\/search?q=%225SOS+FAM+DAY%22","trendMapped":"5SOS+FAM+DAY","trendVolume":1060997},{"stateName":"MS","trendName":"D'Angelo Russell","placeID":"2428184","placeName":"Jackson","searchUrl":"http:\/\/twitter.com\/search?q=%22D%27Angelo+Russell%22","trendMapped":"D'Angelo+Russell","trendVolume":476110},{"stateName":"MS","trendName":"Empire","placeID":"2428184","placeName":"Jackson","searchUrl":"http:\/\/twitter.com\/search?q=Empire","trendMapped":"empire","trendVolume":634290},{"stateName":"NC","trendName":"#5SOSFam","placeID":"2414469","placeName":"Greensboro","searchUrl":"http:\/\/twitter.com\/search?q=%235SOSFam","trendMapped":"5+sos+fam","trendVolume":3509046},{"stateName":"NC","trendName":"#Empire","placeID":"2478307","placeName":"Raleigh","searchUrl":"http:\/\/twitter.com\/search?q=%23Empire","trendMapped":"empire","trendVolume":418373},{"stateName":"NC","trendName":"#FLY2NDWIN","placeID":"2478307","placeName":"Raleigh","searchUrl":"http:\/\/twitter.com\/search?q=%23FLY2NDWIN","trendMapped":"fly2+ndwin","trendVolume":1192233},{"stateName":"NC","trendName":"#IndvsWI","placeID":"2478307","placeName":"Raleigh","searchUrl":"http:\/\/twitter.com\/search?q=%23IndvsWI","trendMapped":"indvs+wi","trendVolume":529772},{"stateName":"NC","trendName":"5SOS FAM DAY","placeID":"2478307","placeName":"Raleigh","searchUrl":"http:\/\/twitter.com\/search?q=%225SOS+FAM+DAY%22","trendMapped":"5SOS+FAM+DAY","trendVolume":1048328},{"stateName":"NC","trendName":"Chris Brown","placeID":"2378426","placeName":"Charlotte","searchUrl":"http:\/\/twitter.com\/search?q=%22Chris+Brown%22","trendMapped":"Chris+Brown","trendVolume":316906},{"stateName":"NC","trendName":"D'Angelo Russell","placeID":"2478307","placeName":"Raleigh","searchUrl":"http:\/\/twitter.com\/search?q=%22D%27Angelo+Russell%22","trendMapped":"D'Angelo+Russell","trendVolume":477934},{"stateName":"NC","trendName":"Empire","placeID":"2378426","placeName":"Charlotte","searchUrl":"http:\/\/twitter.com\/search?q=Empire","trendMapped":"empire","trendVolume":625723},{"stateName":"NC","trendName":"Kanye","placeID":"2378426","placeName":"Charlotte","searchUrl":"http:\/\/twitter.com\/search?q=Kanye","trendMapped":"kanye","trendVolume":443762},{"stateName":"NE","trendName":"#FLY2NDWIN","placeID":"2465512","placeName":"Omaha","searchUrl":"http:\/\/twitter.com\/search?q=%23FLY2NDWIN","trendMapped":"fly2+ndwin","trendVolume":1157874},{"stateName":"NE","trendName":"Snapchat","placeID":"2465512","placeName":"Omaha","searchUrl":"http:\/\/twitter.com\/search?q=Snapchat","trendMapped":"snapchat","trendVolume":691660},{"stateName":"NM","trendName":"#DolanTwinsNewVideo","placeID":"2352824","placeName":"Albuquerque","searchUrl":"http:\/\/twitter.com\/search?q=%23DolanTwinsNewVideo","trendMapped":"dolan+twins+new+video","trendVolume":253276},{"stateName":"NM","trendName":"#Empire","placeID":"2352824","placeName":"Albuquerque","searchUrl":"http:\/\/twitter.com\/search?q=%23Empire","trendMapped":"empire","trendVolume":395358},{"stateName":"NM","trendName":"#FLY2NDWIN","placeID":"2352824","placeName":"Albuquerque","searchUrl":"http:\/\/twitter.com\/search?q=%23FLY2NDWIN","trendMapped":"fly2+ndwin","trendVolume":1157874},{"stateName":"NM","trendName":"#IndvsWI","placeID":"2352824","placeName":"Albuquerque","searchUrl":"http:\/\/twitter.com\/search?q=%23IndvsWI","trendMapped":"indvs+wi","trendVolume":530656},{"stateName":"NM","trendName":"April Fools","placeID":"2352824","placeName":"Albuquerque","searchUrl":"http:\/\/twitter.com\/search?q=%22April+Fools%22","trendMapped":"April+Fools","trendVolume":366816},{"stateName":"NV","trendName":"#Empire","placeID":"2436704","placeName":"Las Vegas","searchUrl":"http:\/\/twitter.com\/search?q=%23Empire","trendMapped":"empire","trendVolume":426795},{"stateName":"NV","trendName":"#FLY2NDWIN","placeID":"2436704","placeName":"Las Vegas","searchUrl":"http:\/\/twitter.com\/search?q=%23FLY2NDWIN","trendMapped":"fly2+ndwin","trendVolume":1081905},{"stateName":"NV","trendName":"#IndvsWI","placeID":"2436704","placeName":"Las Vegas","searchUrl":"http:\/\/twitter.com\/search?q=%23IndvsWI","trendMapped":"indvs+wi","trendVolume":522371},{"stateName":"NV","trendName":"5SOS FAM DAY","placeID":"2436704","placeName":"Las Vegas","searchUrl":"http:\/\/twitter.com\/search?q=%225SOS+FAM+DAY%22","trendMapped":"5SOS+FAM+DAY","trendVolume":1048328},{"stateName":"NV","trendName":"D'Angelo Russell","placeID":"2436704","placeName":"Las Vegas","searchUrl":"http:\/\/twitter.com\/search?q=%22D%27Angelo+Russell%22","trendMapped":"D'Angelo+Russell","trendVolume":477418},{"stateName":"NY","trendName":"#DolanTwinsNewVideo","placeID":"2459115","placeName":"New York","searchUrl":"http:\/\/twitter.com\/search?q=%23DolanTwinsNewVideo","trendMapped":"dolan+twins+new+video","trendVolume":253463},{"stateName":"NY","trendName":"#Empire","placeID":"2459115","placeName":"New York","searchUrl":"http:\/\/twitter.com\/search?q=%23Empire","trendMapped":"empire","trendVolume":420106},{"stateName":"NY","trendName":"#FLY2NDWIN","placeID":"2459115","placeName":"New York","searchUrl":"http:\/\/twitter.com\/search?q=%23FLY2NDWIN","trendMapped":"fly2+ndwin","trendVolume":1199291},{"stateName":"NY","trendName":"#IndvsWI","placeID":"2459115","placeName":"New York","searchUrl":"http:\/\/twitter.com\/search?q=%23IndvsWI","trendMapped":"indvs+wi","trendVolume":528516},{"stateName":"NY","trendName":"April Fools","placeID":"2459115","placeName":"New York","searchUrl":"http:\/\/twitter.com\/search?q=%22April+Fools%22","trendMapped":"April+Fools","trendVolume":380697},{"stateName":"NY","trendName":"D'Angelo Russell","placeID":"2459115","placeName":"New York","searchUrl":"http:\/\/twitter.com\/search?q=%22D%27Angelo+Russell%22","trendMapped":"D'Angelo+Russell","trendVolume":476856},{"stateName":"OH","trendName":"#Empire","placeID":"2381475","placeName":"Cleveland","searchUrl":"http:\/\/twitter.com\/search?q=%23Empire","trendMapped":"empire","trendVolume":420976},{"stateName":"OH","trendName":"#FLY2NDWIN","placeID":"2383660","placeName":"Columbus","searchUrl":"http:\/\/twitter.com\/search?q=%23FLY2NDWIN","trendMapped":"fly2+ndwin","trendVolume":1098296},{"stateName":"OH","trendName":"#IndvsWI","placeID":"2383660","placeName":"Columbus","searchUrl":"http:\/\/twitter.com\/search?q=%23IndvsWI","trendMapped":"indvs+wi","trendVolume":530934},{"stateName":"OH","trendName":"5H DAY","placeID":"2381475","placeName":"Cleveland","searchUrl":"http:\/\/twitter.com\/search?q=%225H+DAY%22","trendMapped":"5H+DAY","trendVolume":763933},{"stateName":"OH","trendName":"5SOS FAM DAY","placeID":"2383660","placeName":"Columbus","searchUrl":"http:\/\/twitter.com\/search?q=%225SOS+FAM+DAY%22","trendMapped":"5SOS+FAM+DAY","trendVolume":1048328},{"stateName":"OH","trendName":"April Fools","placeID":"2380358","placeName":"Cincinnati","searchUrl":"http:\/\/twitter.com\/search?q=%22April+Fools%22","trendMapped":"April+Fools","trendVolume":346906},{"stateName":"OH","trendName":"D'Angelo Russell","placeID":"2383660","placeName":"Columbus","searchUrl":"http:\/\/twitter.com\/search?q=%22D%27Angelo+Russell%22","trendMapped":"D'Angelo+Russell","trendVolume":477418},{"stateName":"OK","trendName":"#5SOSFam","placeID":"2464592","placeName":"Oklahoma City","searchUrl":"http:\/\/twitter.com\/search?q=%235SOSFam","trendMapped":"5+sos+fam","trendVolume":3614147},{"stateName":"OK","trendName":"#BestFanArmy","placeID":"2464592","placeName":"Oklahoma City","searchUrl":"http:\/\/twitter.com\/search?q=%23BestFanArmy","trendMapped":"best+fan+army","trendVolume":9014092},{"stateName":"OK","trendName":"#Empire","placeID":"2464592","placeName":"Oklahoma City","searchUrl":"http:\/\/twitter.com\/search?q=%23Empire","trendMapped":"empire","trendVolume":423171},{"stateName":"OK","trendName":"April Fools","placeID":"2464592","placeName":"Oklahoma City","searchUrl":"http:\/\/twitter.com\/search?q=%22April+Fools%22","trendMapped":"April+Fools","trendVolume":295221},{"stateName":"OR","trendName":"#FLY2NDWIN","placeID":"2475687","placeName":"Portland","searchUrl":"http:\/\/twitter.com\/search?q=%23FLY2NDWIN","trendMapped":"fly2+ndwin","trendVolume":1032339},{"stateName":"OR","trendName":"April Fools","placeID":"2475687","placeName":"Portland","searchUrl":"http:\/\/twitter.com\/search?q=%22April+Fools%22","trendMapped":"April+Fools","trendVolume":334852},{"stateName":"OR","trendName":"D'Angelo Russell","placeID":"2475687","placeName":"Portland","searchUrl":"http:\/\/twitter.com\/search?q=%22D%27Angelo+Russell%22","trendMapped":"D'Angelo+Russell","trendVolume":476997},{"stateName":"PA","trendName":"#DolanTwinsNewVideo","placeID":"2471217","placeName":"Philadelphia","searchUrl":"http:\/\/twitter.com\/search?q=%23DolanTwinsNewVideo","trendMapped":"dolan+twins+new+video","trendVolume":253470},{"stateName":"PA","trendName":"#Empire","placeID":"2473224","placeName":"Pittsburgh","searchUrl":"http:\/\/twitter.com\/search?q=%23Empire","trendMapped":"empire","trendVolume":418990},{"stateName":"PA","trendName":"#FLY2NDWIN","placeID":"2473224","placeName":"Pittsburgh","searchUrl":"http:\/\/twitter.com\/search?q=%23FLY2NDWIN","trendMapped":"fly2+ndwin","trendVolume":1176602},{"stateName":"PA","trendName":"#IndvsWI","placeID":"2473224","placeName":"Pittsburgh","searchUrl":"http:\/\/twitter.com\/search?q=%23IndvsWI","trendMapped":"indvs+wi","trendVolume":525704},{"stateName":"PA","trendName":"5H DAY","placeID":"2473224","placeName":"Pittsburgh","searchUrl":"http:\/\/twitter.com\/search?q=%225H+DAY%22","trendMapped":"5H+DAY","trendVolume":766164},{"stateName":"PA","trendName":"5SOS FAM DAY","placeID":"2473224","placeName":"Pittsburgh","searchUrl":"http:\/\/twitter.com\/search?q=%225SOS+FAM+DAY%22","trendMapped":"5SOS+FAM+DAY","trendVolume":993686},{"stateName":"PA","trendName":"April Fools","placeID":"2471217","placeName":"Philadelphia","searchUrl":"http:\/\/twitter.com\/search?q=%22April+Fools%22","trendMapped":"April+Fools","trendVolume":330626},{"stateName":"PA","trendName":"D'Angelo Russell","placeID":"2473224","placeName":"Pittsburgh","searchUrl":"http:\/\/twitter.com\/search?q=%22D%27Angelo+Russell%22","trendMapped":"D'Angelo+Russell","trendVolume":477934},{"stateName":"RI","trendName":"#FLY2NDWIN","placeID":"2477058","placeName":"Providence","searchUrl":"http:\/\/twitter.com\/search?q=%23FLY2NDWIN","trendMapped":"fly2+ndwin","trendVolume":1098296},{"stateName":"RI","trendName":"#IndvsWI","placeID":"2477058","placeName":"Providence","searchUrl":"http:\/\/twitter.com\/search?q=%23IndvsWI","trendMapped":"indvs+wi","trendVolume":529772},{"stateName":"RI","trendName":"April Fools","placeID":"2477058","placeName":"Providence","searchUrl":"http:\/\/twitter.com\/search?q=%22April+Fools%22","trendMapped":"April+Fools","trendVolume":306332},{"stateName":"RI","trendName":"D'Angelo Russell","placeID":"2477058","placeName":"Providence","searchUrl":"http:\/\/twitter.com\/search?q=%22D%27Angelo+Russell%22","trendMapped":"D'Angelo+Russell","trendVolume":477934},{"stateName":"RI","trendName":"Empire","placeID":"2477058","placeName":"Providence","searchUrl":"http:\/\/twitter.com\/search?q=Empire","trendMapped":"empire","trendVolume":625723},{"stateName":"TN","trendName":"#Empire","placeID":"2457170","placeName":"Nashville","searchUrl":"http:\/\/twitter.com\/search?q=%23Empire","trendMapped":"empire","trendVolume":416511},{"stateName":"TN","trendName":"#FLY2NDWIN","placeID":"2457170","placeName":"Nashville","searchUrl":"http:\/\/twitter.com\/search?q=%23FLY2NDWIN","trendMapped":"fly2+ndwin","trendVolume":1122678},{"stateName":"TN","trendName":"#IndvsWI","placeID":"2449323","placeName":"Memphis","searchUrl":"http:\/\/twitter.com\/search?q=%23IndvsWI","trendMapped":"indvs+wi","trendVolume":514974},{"stateName":"TN","trendName":"5SOS FAM DAY","placeID":"2457170","placeName":"Nashville","searchUrl":"http:\/\/twitter.com\/search?q=%225SOS+FAM+DAY%22","trendMapped":"5SOS+FAM+DAY","trendVolume":993686},{"stateName":"TN","trendName":"Chris Brown","placeID":"2457170","placeName":"Nashville","searchUrl":"http:\/\/twitter.com\/search?q=%22Chris+Brown%22","trendMapped":"Chris+Brown","trendVolume":315304},{"stateName":"TN","trendName":"D'Angelo Russell","placeID":"2457170","placeName":"Nashville","searchUrl":"http:\/\/twitter.com\/search?q=%22D%27Angelo+Russell%22","trendMapped":"D'Angelo+Russell","trendVolume":476856},{"stateName":"TN","trendName":"Empire","placeID":"2449323","placeName":"Memphis","searchUrl":"http:\/\/twitter.com\/search?q=Empire","trendMapped":"empire","trendVolume":624034},{"stateName":"TX","trendName":"#Empire","placeID":"2424766","placeName":"Houston","searchUrl":"http:\/\/twitter.com\/search?q=%23Empire","trendMapped":"empire","trendVolume":426168},{"stateName":"TX","trendName":"#FLY2NDWIN","placeID":"2487796","placeName":"San Antonio","searchUrl":"http:\/\/twitter.com\/search?q=%23FLY2NDWIN","trendMapped":"fly2+ndwin","trendVolume":1192233},{"stateName":"TX","trendName":"#IndvsWI","placeID":"2487796","placeName":"San Antonio","searchUrl":"http:\/\/twitter.com\/search?q=%23IndvsWI","trendMapped":"indvs+wi","trendVolume":524971},{"stateName":"TX","trendName":"5H DAY","placeID":"2388929","placeName":"Dallas-Ft. Worth","searchUrl":"http:\/\/twitter.com\/search?q=%225H+DAY%22","trendMapped":"5H+DAY","trendVolume":665158},{"stateName":"TX","trendName":"5SOS FAM DAY","placeID":"2487796","placeName":"San Antonio","searchUrl":"http:\/\/twitter.com\/search?q=%225SOS+FAM+DAY%22","trendMapped":"5SOS+FAM+DAY","trendVolume":1100911},{"stateName":"TX","trendName":"April Fools","placeID":"2487796","placeName":"San Antonio","searchUrl":"http:\/\/twitter.com\/search?q=%22April+Fools%22","trendMapped":"April+Fools","trendVolume":318610},{"stateName":"TX","trendName":"D'Angelo Russell","placeID":"2487796","placeName":"San Antonio","searchUrl":"http:\/\/twitter.com\/search?q=%22D%27Angelo+Russell%22","trendMapped":"D'Angelo+Russell","trendVolume":477116},{"stateName":"TX","trendName":"Russell","placeID":"2487796","placeName":"San Antonio","searchUrl":"http:\/\/twitter.com\/search?q=Russell","trendMapped":"russell","trendVolume":555315},{"stateName":"TX","trendName":"Trump","placeID":"2397816","placeName":"El Paso","searchUrl":"http:\/\/twitter.com\/search?q=Trump","trendMapped":"trump","trendVolume":1431548},{"stateName":"UT","trendName":"#Empire","placeID":"2487610","placeName":"Salt Lake City","searchUrl":"http:\/\/twitter.com\/search?q=%23Empire","trendMapped":"empire","trendVolume":415963},{"stateName":"UT","trendName":"#FLY2NDWIN","placeID":"2487610","placeName":"Salt Lake City","searchUrl":"http:\/\/twitter.com\/search?q=%23FLY2NDWIN","trendMapped":"fly2+ndwin","trendVolume":1157874},{"stateName":"UT","trendName":"#IndvsWI","placeID":"2487610","placeName":"Salt Lake City","searchUrl":"http:\/\/twitter.com\/search?q=%23IndvsWI","trendMapped":"indvs+wi","trendVolume":511525},{"stateName":"UT","trendName":"April Fools","placeID":"2487610","placeName":"Salt Lake City","searchUrl":"http:\/\/twitter.com\/search?q=%22April+Fools%22","trendMapped":"April+Fools","trendVolume":330626},{"stateName":"UT","trendName":"D'Angelo Russell","placeID":"2487610","placeName":"Salt Lake City","searchUrl":"http:\/\/twitter.com\/search?q=%22D%27Angelo+Russell%22","trendMapped":"D'Angelo+Russell","trendVolume":477418},{"stateName":"VA","trendName":"#Empire","placeID":"2512636","placeName":"Virginia Beach","searchUrl":"http:\/\/twitter.com\/search?q=%23Empire","trendMapped":"empire","trendVolume":417500},{"stateName":"VA","trendName":"#FLY2NDWIN","placeID":"2512636","placeName":"Virginia Beach","searchUrl":"http:\/\/twitter.com\/search?q=%23FLY2NDWIN","trendMapped":"fly2+ndwin","trendVolume":1176602},{"stateName":"VA","trendName":"#IndvsWI","placeID":"2512636","placeName":"Virginia Beach","searchUrl":"http:\/\/twitter.com\/search?q=%23IndvsWI","trendMapped":"indvs+wi","trendVolume":528516},{"stateName":"VA","trendName":"5SOS FAM DAY","placeID":"2512636","placeName":"Virginia Beach","searchUrl":"http:\/\/twitter.com\/search?q=%225SOS+FAM+DAY%22","trendMapped":"5SOS+FAM+DAY","trendVolume":1016231},{"stateName":"VA","trendName":"D'Angelo Russell","placeID":"2512636","placeName":"Virginia Beach","searchUrl":"http:\/\/twitter.com\/search?q=%22D%27Angelo+Russell%22","trendMapped":"D'Angelo+Russell","trendVolume":477108},{"stateName":"VA","trendName":"Empire","placeID":"2480894","placeName":"Richmond","searchUrl":"http:\/\/twitter.com\/search?q=Empire","trendMapped":"empire","trendVolume":629314},{"stateName":"VA","trendName":"Kanye","placeID":"2460389","placeName":"Norfolk","searchUrl":"http:\/\/twitter.com\/search?q=Kanye","trendMapped":"kanye","trendVolume":723431},{"stateName":"WA","trendName":"#Empire","placeID":"2490383","placeName":"Seattle","searchUrl":"http:\/\/twitter.com\/search?q=%23Empire","trendMapped":"empire","trendVolume":422650},{"stateName":"WA","trendName":"#FLY2NDWIN","placeID":"2490383","placeName":"Seattle","searchUrl":"http:\/\/twitter.com\/search?q=%23FLY2NDWIN","trendMapped":"fly2+ndwin","trendVolume":948624},{"stateName":"WA","trendName":"#IndvsWI","placeID":"2490383","placeName":"Seattle","searchUrl":"http:\/\/twitter.com\/search?q=%23IndvsWI","trendMapped":"indvs+wi","trendVolume":527237},{"stateName":"WA","trendName":"5SOS FAM DAY","placeID":"2490383","placeName":"Seattle","searchUrl":"http:\/\/twitter.com\/search?q=%225SOS+FAM+DAY%22","trendMapped":"5SOS+FAM+DAY","trendVolume":1073436},{"stateName":"WA","trendName":"April Fools","placeID":"2490383","placeName":"Seattle","searchUrl":"http:\/\/twitter.com\/search?q=%22April+Fools%22","trendMapped":"April+Fools","trendVolume":346906},{"stateName":"WA","trendName":"D'Angelo","placeID":"2490383","placeName":"Seattle","searchUrl":"http:\/\/twitter.com\/search?q=D%27Angelo","trendMapped":"d'+angelo","trendVolume":459368},{"stateName":"WA","trendName":"D'Angelo Russell","placeID":"2490383","placeName":"Seattle","searchUrl":"http:\/\/twitter.com\/search?q=%22D%27Angelo+Russell%22","trendMapped":"D'Angelo+Russell","trendVolume":477418},{"stateName":"WI","trendName":"#Empire","placeID":"2451822","placeName":"Milwaukee","searchUrl":"http:\/\/twitter.com\/search?q=%23Empire","trendMapped":"empire","trendVolume":420976},{"stateName":"WI","trendName":"#IndvsWI","placeID":"2451822","placeName":"Milwaukee","searchUrl":"http:\/\/twitter.com\/search?q=%23IndvsWI","trendMapped":"indvs+wi","trendVolume":530656},{"stateName":"WI","trendName":"D'Angelo Russell","placeID":"2451822","placeName":"Milwaukee","searchUrl":"http:\/\/twitter.com\/search?q=%22D%27Angelo+Russell%22","trendMapped":"D'Angelo+Russell","trendVolume":475017},{"stateName":"WI","trendName":"Trump","placeID":"2451822","placeName":"Milwaukee","searchUrl":"http:\/\/twitter.com\/search?q=Trump","trendMapped":"trump","trendVolume":1336374},{"stateName":"XX","trendName":"#DolanTwinsNewVideo","placeID":"23424977","placeName":"United States","searchUrl":"http:\/\/twitter.com\/search?q=%23DolanTwinsNewVideo","trendMapped":"dolan+twins+new+video","trendVolume":253470},{"stateName":"XX","trendName":"#Empire","placeID":"23424977","placeName":"United States","searchUrl":"http:\/\/twitter.com\/search?q=%23Empire","trendMapped":"empire","trendVolume":386069},{"stateName":"XX","trendName":"#FLY2NDWIN","placeID":"23424977","placeName":"United States","searchUrl":"http:\/\/twitter.com\/search?q=%23FLY2NDWIN","trendMapped":"fly2+ndwin","trendVolume":1199291},{"stateName":"XX","trendName":"#IndvsWI","placeID":"23424977","placeName":"United States","searchUrl":"http:\/\/twitter.com\/search?q=%23IndvsWI","trendMapped":"indvs+wi","trendVolume":504202},{"stateName":"XX","trendName":"April Fools","placeID":"23424977","placeName":"United States","searchUrl":"http:\/\/twitter.com\/search?q=%22April+Fools%22","trendMapped":"April+Fools","trendVolume":373820},{"stateName":"XX","trendName":"D'Angelo Russell","placeID":"23424977","placeName":"United States","searchUrl":"http:\/\/twitter.com\/search?q=%22D%27Angelo+Russell%22","trendMapped":"D'Angelo+Russell","trendVolume":477342}]