[{"stateName":"AL","trendName":"#FLIGHT_LOG","placeID":"2364559","placeName":"Birmingham","searchUrl":"http:\/\/twitter.com\/search?q=%23FLIGHT_LOG","trendMapped":"flight+log","trendVolume":372046},{"stateName":"AL","trendName":"#KathNielASAPAllStarSummer","placeID":"2364559","placeName":"Birmingham","searchUrl":"http:\/\/twitter.com\/search?q=%23KathNielASAPAllStarSummer","trendMapped":"kath+niel+asap+all+star+summer","trendVolume":388983},{"stateName":"AL","trendName":"#PiliPinasDebates2016","placeID":"2364559","placeName":"Birmingham","searchUrl":"http:\/\/twitter.com\/search?q=%23PiliPinasDebates2016","trendMapped":"pili+pinas+debates2016","trendVolume":1070140},{"stateName":"AL","trendName":"Selena","placeID":"2364559","placeName":"Birmingham","searchUrl":"http:\/\/twitter.com\/search?q=Selena","trendMapped":"selena","trendVolume":335634},{"stateName":"AL","trendName":"Spurs","placeID":"2364559","placeName":"Birmingham","searchUrl":"http:\/\/twitter.com\/search?q=Spurs","trendMapped":"spurs","trendVolume":306169},{"stateName":"AZ","trendName":"#EXOluXionDotInSeoul","placeID":"2471390","placeName":"Phoenix","searchUrl":"http:\/\/twitter.com\/search?q=%23EXOluXionDotInSeoul","trendMapped":"ex+olu+xion+dot+in+seoul","trendVolume":298252},{"stateName":"AZ","trendName":"#FLIGHT_LOG","placeID":"2508428","placeName":"Tucson","searchUrl":"http:\/\/twitter.com\/search?q=%23FLIGHT_LOG","trendMapped":"flight+log","trendVolume":357911},{"stateName":"AZ","trendName":"#IndvsPak","placeID":"2508428","placeName":"Tucson","searchUrl":"http:\/\/twitter.com\/search?q=%23IndvsPak","trendMapped":"indvs+pak","trendVolume":833597},{"stateName":"AZ","trendName":"#MUFC","placeID":"2508428","placeName":"Tucson","searchUrl":"http:\/\/twitter.com\/search?q=%23MUFC","trendMapped":"mufc","trendVolume":212544},{"stateName":"AZ","trendName":"#PiliPinasDebates2016","placeID":"2508428","placeName":"Tucson","searchUrl":"http:\/\/twitter.com\/search?q=%23PiliPinasDebates2016","trendMapped":"pili+pinas+debates2016","trendVolume":1108426},{"stateName":"AZ","trendName":"Anne","placeID":"2508428","placeName":"Tucson","searchUrl":"http:\/\/twitter.com\/search?q=Anne","trendMapped":"anne","trendVolume":364162},{"stateName":"AZ","trendName":"Cuba","placeID":"2508428","placeName":"Tucson","searchUrl":"http:\/\/twitter.com\/search?q=Cuba","trendMapped":"cuba","trendVolume":574587},{"stateName":"AZ","trendName":"Selena","placeID":"2508428","placeName":"Tucson","searchUrl":"http:\/\/twitter.com\/search?q=Selena","trendMapped":"selena","trendVolume":357087},{"stateName":"AZ","trendName":"Spurs","placeID":"2508428","placeName":"Tucson","searchUrl":"http:\/\/twitter.com\/search?q=Spurs","trendMapped":"spurs","trendVolume":290488},{"stateName":"CA","trendName":"#EXOluXionDotInSeoul","placeID":"2486340","placeName":"Sacramento","searchUrl":"http:\/\/twitter.com\/search?q=%23EXOluXionDotInSeoul","trendMapped":"ex+olu+xion+dot+in+seoul","trendVolume":304844},{"stateName":"CA","trendName":"#FLIGHT_LOG","placeID":"2488042","placeName":"San Jose","searchUrl":"http:\/\/twitter.com\/search?q=%23FLIGHT_LOG","trendMapped":"flight+log","trendVolume":372046},{"stateName":"CA","trendName":"#IndvsPak","placeID":"2488042","placeName":"San Jose","searchUrl":"http:\/\/twitter.com\/search?q=%23IndvsPak","trendMapped":"indvs+pak","trendVolume":831822},{"stateName":"CA","trendName":"#InternationalDayOfHappiness","placeID":"2488042","placeName":"San Jose","searchUrl":"http:\/\/twitter.com\/search?q=%23InternationalDayOfHappiness","trendMapped":"international+day+of+happiness","trendVolume":297565},{"stateName":"CA","trendName":"#KathNielASAPAllStarSummer","placeID":"2487956","placeName":"San Francisco","searchUrl":"http:\/\/twitter.com\/search?q=%23KathNielASAPAllStarSummer","trendMapped":"kath+niel+asap+all+star+summer","trendVolume":397122},{"stateName":"CA","trendName":"#MUFC","placeID":"2487889","placeName":"San Diego","searchUrl":"http:\/\/twitter.com\/search?q=%23MUFC","trendMapped":"mufc","trendVolume":239219},{"stateName":"CA","trendName":"#MarchMadness","placeID":"2487889","placeName":"San Diego","searchUrl":"http:\/\/twitter.com\/search?q=%23MarchMadness","trendMapped":"march+madness","trendVolume":210450},{"stateName":"CA","trendName":"#PiliPinasDebates2016","placeID":"2488042","placeName":"San Jose","searchUrl":"http:\/\/twitter.com\/search?q=%23PiliPinasDebates2016","trendMapped":"pili+pinas+debates2016","trendVolume":1107684},{"stateName":"CA","trendName":"Anne","placeID":"2488042","placeName":"San Jose","searchUrl":"http:\/\/twitter.com\/search?q=Anne","trendMapped":"anne","trendVolume":372786},{"stateName":"CA","trendName":"Cuba","placeID":"2488042","placeName":"San Jose","searchUrl":"http:\/\/twitter.com\/search?q=Cuba","trendMapped":"cuba","trendVolume":569515},{"stateName":"CA","trendName":"Selena","placeID":"2488042","placeName":"San Jose","searchUrl":"http:\/\/twitter.com\/search?q=Selena","trendMapped":"selena","trendVolume":351954},{"stateName":"CA","trendName":"Spring","placeID":"2486340","placeName":"Sacramento","searchUrl":"http:\/\/twitter.com\/search?q=Spring","trendMapped":"spring","trendVolume":644893},{"stateName":"CA","trendName":"Spurs","placeID":"2488042","placeName":"San Jose","searchUrl":"http:\/\/twitter.com\/search?q=Spurs","trendMapped":"spurs","trendVolume":307981},{"stateName":"CA","trendName":"Warriors","placeID":"2487889","placeName":"San Diego","searchUrl":"http:\/\/twitter.com\/search?q=Warriors","trendMapped":"warriors","trendVolume":201337},{"stateName":"CO","trendName":"#EXOluXionDotInSeoul","placeID":"2391279","placeName":"Denver","searchUrl":"http:\/\/twitter.com\/search?q=%23EXOluXionDotInSeoul","trendMapped":"ex+olu+xion+dot+in+seoul","trendVolume":289352},{"stateName":"CO","trendName":"#FLIGHT_LOG","placeID":"2391279","placeName":"Denver","searchUrl":"http:\/\/twitter.com\/search?q=%23FLIGHT_LOG","trendMapped":"flight+log","trendVolume":365145},{"stateName":"CO","trendName":"#KathNielASAPAllStarSummer","placeID":"2391279","placeName":"Denver","searchUrl":"http:\/\/twitter.com\/search?q=%23KathNielASAPAllStarSummer","trendMapped":"kath+niel+asap+all+star+summer","trendVolume":396016},{"stateName":"CO","trendName":"#MUFC","placeID":"2391279","placeName":"Denver","searchUrl":"http:\/\/twitter.com\/search?q=%23MUFC","trendMapped":"mufc","trendVolume":236292},{"stateName":"CO","trendName":"#PiliPinasDebates2016","placeID":"2391279","placeName":"Denver","searchUrl":"http:\/\/twitter.com\/search?q=%23PiliPinasDebates2016","trendMapped":"pili+pinas+debates2016","trendVolume":1057585},{"stateName":"CO","trendName":"#ULTRALIVE","placeID":"2391279","placeName":"Denver","searchUrl":"http:\/\/twitter.com\/search?q=%23ULTRALIVE","trendMapped":"ultralive","trendVolume":199141},{"stateName":"CO","trendName":"Anne","placeID":"2391279","placeName":"Denver","searchUrl":"http:\/\/twitter.com\/search?q=Anne","trendMapped":"anne","trendVolume":368910},{"stateName":"CO","trendName":"Cuba","placeID":"2391279","placeName":"Denver","searchUrl":"http:\/\/twitter.com\/search?q=Cuba","trendMapped":"cuba","trendVolume":579112},{"stateName":"CO","trendName":"Selena","placeID":"2391279","placeName":"Denver","searchUrl":"http:\/\/twitter.com\/search?q=Selena","trendMapped":"selena","trendVolume":349885},{"stateName":"CO","trendName":"Spring","placeID":"2391279","placeName":"Denver","searchUrl":"http:\/\/twitter.com\/search?q=Spring","trendMapped":"spring","trendVolume":682811},{"stateName":"CO","trendName":"Spurs","placeID":"2391279","placeName":"Denver","searchUrl":"http:\/\/twitter.com\/search?q=Spurs","trendMapped":"spurs","trendVolume":290793},{"stateName":"CT","trendName":"#FLIGHT_LOG","placeID":"2458410","placeName":"New Haven","searchUrl":"http:\/\/twitter.com\/search?q=%23FLIGHT_LOG","trendMapped":"flight+log","trendVolume":381574},{"stateName":"CT","trendName":"#KathNielASAPAllStarSummer","placeID":"2458410","placeName":"New Haven","searchUrl":"http:\/\/twitter.com\/search?q=%23KathNielASAPAllStarSummer","trendMapped":"kath+niel+asap+all+star+summer","trendVolume":396016},{"stateName":"CT","trendName":"#PiliPinasDebates2016","placeID":"2458410","placeName":"New Haven","searchUrl":"http:\/\/twitter.com\/search?q=%23PiliPinasDebates2016","trendMapped":"pili+pinas+debates2016","trendVolume":1107684},{"stateName":"CT","trendName":"Anne","placeID":"2458410","placeName":"New Haven","searchUrl":"http:\/\/twitter.com\/search?q=Anne","trendMapped":"anne","trendVolume":364162},{"stateName":"CT","trendName":"Cuba","placeID":"2458410","placeName":"New Haven","searchUrl":"http:\/\/twitter.com\/search?q=Cuba","trendMapped":"cuba","trendVolume":559955},{"stateName":"CT","trendName":"Selena","placeID":"2458410","placeName":"New Haven","searchUrl":"http:\/\/twitter.com\/search?q=Selena","trendMapped":"selena","trendVolume":332844},{"stateName":"CT","trendName":"Spurs","placeID":"2458410","placeName":"New Haven","searchUrl":"http:\/\/twitter.com\/search?q=Spurs","trendMapped":"spurs","trendVolume":321294},{"stateName":"DC","trendName":"#FLIGHT_LOG","placeID":"2514815","placeName":"Washington","searchUrl":"http:\/\/twitter.com\/search?q=%23FLIGHT_LOG","trendMapped":"flight+log","trendVolume":365145},{"stateName":"DC","trendName":"#KathNielASAPAllStarSummer","placeID":"2514815","placeName":"Washington","searchUrl":"http:\/\/twitter.com\/search?q=%23KathNielASAPAllStarSummer","trendMapped":"kath+niel+asap+all+star+summer","trendVolume":385720},{"stateName":"DC","trendName":"Anne","placeID":"2514815","placeName":"Washington","searchUrl":"http:\/\/twitter.com\/search?q=Anne","trendMapped":"anne","trendVolume":372786},{"stateName":"DC","trendName":"Cuba","placeID":"2514815","placeName":"Washington","searchUrl":"http:\/\/twitter.com\/search?q=Cuba","trendMapped":"cuba","trendVolume":401782},{"stateName":"DC","trendName":"Selena","placeID":"2514815","placeName":"Washington","searchUrl":"http:\/\/twitter.com\/search?q=Selena","trendMapped":"selena","trendVolume":357087},{"stateName":"DC","trendName":"Spurs","placeID":"2514815","placeName":"Washington","searchUrl":"http:\/\/twitter.com\/search?q=Spurs","trendMapped":"spurs","trendVolume":278729},{"stateName":"FL","trendName":"#EXOluXionDotInSeoul","placeID":"2466256","placeName":"Orlando","searchUrl":"http:\/\/twitter.com\/search?q=%23EXOluXionDotInSeoul","trendMapped":"ex+olu+xion+dot+in+seoul","trendVolume":304844},{"stateName":"FL","trendName":"#FLIGHT_LOG","placeID":"2503863","placeName":"Tampa","searchUrl":"http:\/\/twitter.com\/search?q=%23FLIGHT_LOG","trendMapped":"flight+log","trendVolume":377431},{"stateName":"FL","trendName":"#IndvsPak","placeID":"2450022","placeName":"Miami","searchUrl":"http:\/\/twitter.com\/search?q=%23IndvsPak","trendMapped":"indvs+pak","trendVolume":817138},{"stateName":"FL","trendName":"#InternationalDayOfHappiness","placeID":"2503863","placeName":"Tampa","searchUrl":"http:\/\/twitter.com\/search?q=%23InternationalDayOfHappiness","trendMapped":"international+day+of+happiness","trendVolume":280659},{"stateName":"FL","trendName":"#KathNielASAPAllStarSummer","placeID":"2428344","placeName":"Jacksonville","searchUrl":"http:\/\/twitter.com\/search?q=%23KathNielASAPAllStarSummer","trendMapped":"kath+niel+asap+all+star+summer","trendVolume":413458},{"stateName":"FL","trendName":"#PiliPinasDebates2016","placeID":"2503863","placeName":"Tampa","searchUrl":"http:\/\/twitter.com\/search?q=%23PiliPinasDebates2016","trendMapped":"pili+pinas+debates2016","trendVolume":1107684},{"stateName":"FL","trendName":"America","placeID":"2503713","placeName":"Tallahassee","searchUrl":"http:\/\/twitter.com\/search?q=America","trendMapped":"america","trendVolume":299820},{"stateName":"FL","trendName":"Anne","placeID":"2503863","placeName":"Tampa","searchUrl":"http:\/\/twitter.com\/search?q=Anne","trendMapped":"anne","trendVolume":369928},{"stateName":"FL","trendName":"Cuba","placeID":"2503713","placeName":"Tallahassee","searchUrl":"http:\/\/twitter.com\/search?q=Cuba","trendMapped":"cuba","trendVolume":574587},{"stateName":"FL","trendName":"Madrid","placeID":"2503863","placeName":"Tampa","searchUrl":"http:\/\/twitter.com\/search?q=Madrid","trendMapped":"madrid","trendVolume":294962},{"stateName":"FL","trendName":"Selena","placeID":"2503863","placeName":"Tampa","searchUrl":"http:\/\/twitter.com\/search?q=Selena","trendMapped":"selena","trendVolume":335634},{"stateName":"FL","trendName":"Spring","placeID":"2466256","placeName":"Orlando","searchUrl":"http:\/\/twitter.com\/search?q=Spring","trendMapped":"spring","trendVolume":613150},{"stateName":"FL","trendName":"Spurs","placeID":"2503863","placeName":"Tampa","searchUrl":"http:\/\/twitter.com\/search?q=Spurs","trendMapped":"spurs","trendVolume":322300},{"stateName":"FL","trendName":"Ultra","placeID":"2503713","placeName":"Tallahassee","searchUrl":"http:\/\/twitter.com\/search?q=Ultra","trendMapped":"ultra","trendVolume":224268},{"stateName":"GA","trendName":"#FLIGHT_LOG","placeID":"2357024","placeName":"Atlanta","searchUrl":"http:\/\/twitter.com\/search?q=%23FLIGHT_LOG","trendMapped":"flight+log","trendVolume":336716},{"stateName":"GA","trendName":"#IndvsPak","placeID":"2357024","placeName":"Atlanta","searchUrl":"http:\/\/twitter.com\/search?q=%23IndvsPak","trendMapped":"indvs+pak","trendVolume":818588},{"stateName":"GA","trendName":"#KathNielASAPAllStarSummer","placeID":"2357024","placeName":"Atlanta","searchUrl":"http:\/\/twitter.com\/search?q=%23KathNielASAPAllStarSummer","trendMapped":"kath+niel+asap+all+star+summer","trendVolume":396016},{"stateName":"GA","trendName":"#PiliPinasDebates2016","placeID":"2357024","placeName":"Atlanta","searchUrl":"http:\/\/twitter.com\/search?q=%23PiliPinasDebates2016","trendMapped":"pili+pinas+debates2016","trendVolume":1070140},{"stateName":"GA","trendName":"Anne","placeID":"2357024","placeName":"Atlanta","searchUrl":"http:\/\/twitter.com\/search?q=Anne","trendMapped":"anne","trendVolume":371856},{"stateName":"GA","trendName":"Cuba","placeID":"2357024","placeName":"Atlanta","searchUrl":"http:\/\/twitter.com\/search?q=Cuba","trendMapped":"cuba","trendVolume":530029},{"stateName":"GA","trendName":"Selena","placeID":"2357024","placeName":"Atlanta","searchUrl":"http:\/\/twitter.com\/search?q=Selena","trendMapped":"selena","trendVolume":345952},{"stateName":"GA","trendName":"Spurs","placeID":"2357024","placeName":"Atlanta","searchUrl":"http:\/\/twitter.com\/search?q=Spurs","trendMapped":"spurs","trendVolume":323669},{"stateName":"HI","trendName":"#EXOluXionDotInSeoul","placeID":"2423945","placeName":"Honolulu","searchUrl":"http:\/\/twitter.com\/search?q=%23EXOluXionDotInSeoul","trendMapped":"ex+olu+xion+dot+in+seoul","trendVolume":298252},{"stateName":"HI","trendName":"#FLIGHT_LOG","placeID":"2423945","placeName":"Honolulu","searchUrl":"http:\/\/twitter.com\/search?q=%23FLIGHT_LOG","trendMapped":"flight+log","trendVolume":348277},{"stateName":"HI","trendName":"#PiliPinasDebates2016","placeID":"2423945","placeName":"Honolulu","searchUrl":"http:\/\/twitter.com\/search?q=%23PiliPinasDebates2016","trendMapped":"pili+pinas+debates2016","trendVolume":1094349},{"stateName":"HI","trendName":"Anne","placeID":"2423945","placeName":"Honolulu","searchUrl":"http:\/\/twitter.com\/search?q=Anne","trendMapped":"anne","trendVolume":369928},{"stateName":"HI","trendName":"Cuba","placeID":"2423945","placeName":"Honolulu","searchUrl":"http:\/\/twitter.com\/search?q=Cuba","trendMapped":"cuba","trendVolume":554879},{"stateName":"HI","trendName":"Selena","placeID":"2423945","placeName":"Honolulu","searchUrl":"http:\/\/twitter.com\/search?q=Selena","trendMapped":"selena","trendVolume":319933},{"stateName":"HI","trendName":"Spurs","placeID":"2423945","placeName":"Honolulu","searchUrl":"http:\/\/twitter.com\/search?q=Spurs","trendMapped":"spurs","trendVolume":284651},{"stateName":"IL","trendName":"#EXOluXionDotInSeoul","placeID":"2379574","placeName":"Chicago","searchUrl":"http:\/\/twitter.com\/search?q=%23EXOluXionDotInSeoul","trendMapped":"ex+olu+xion+dot+in+seoul","trendVolume":289352},{"stateName":"IL","trendName":"#FLIGHT_LOG","placeID":"2379574","placeName":"Chicago","searchUrl":"http:\/\/twitter.com\/search?q=%23FLIGHT_LOG","trendMapped":"flight+log","trendVolume":377431},{"stateName":"IL","trendName":"#KathNielASAPAllStarSummer","placeID":"2379574","placeName":"Chicago","searchUrl":"http:\/\/twitter.com\/search?q=%23KathNielASAPAllStarSummer","trendMapped":"kath+niel+asap+all+star+summer","trendVolume":392040},{"stateName":"IL","trendName":"#MUFC","placeID":"2379574","placeName":"Chicago","searchUrl":"http:\/\/twitter.com\/search?q=%23MUFC","trendMapped":"mufc","trendVolume":239219},{"stateName":"IL","trendName":"#PiliPinasDebates2016","placeID":"2379574","placeName":"Chicago","searchUrl":"http:\/\/twitter.com\/search?q=%23PiliPinasDebates2016","trendMapped":"pili+pinas+debates2016","trendVolume":1105772},{"stateName":"IL","trendName":"Anne","placeID":"2379574","placeName":"Chicago","searchUrl":"http:\/\/twitter.com\/search?q=Anne","trendMapped":"anne","trendVolume":372786},{"stateName":"IL","trendName":"Cuba","placeID":"2379574","placeName":"Chicago","searchUrl":"http:\/\/twitter.com\/search?q=Cuba","trendMapped":"cuba","trendVolume":549738},{"stateName":"IL","trendName":"Selena","placeID":"2379574","placeName":"Chicago","searchUrl":"http:\/\/twitter.com\/search?q=Selena","trendMapped":"selena","trendVolume":348113},{"stateName":"IL","trendName":"Warriors","placeID":"2379574","placeName":"Chicago","searchUrl":"http:\/\/twitter.com\/search?q=Warriors","trendMapped":"warriors","trendVolume":201294},{"stateName":"IN","trendName":"#FLIGHT_LOG","placeID":"2427032","placeName":"Indianapolis","searchUrl":"http:\/\/twitter.com\/search?q=%23FLIGHT_LOG","trendMapped":"flight+log","trendVolume":373956},{"stateName":"IN","trendName":"#InternationalDayOfHappiness","placeID":"2427032","placeName":"Indianapolis","searchUrl":"http:\/\/twitter.com\/search?q=%23InternationalDayOfHappiness","trendMapped":"international+day+of+happiness","trendVolume":210436},{"stateName":"IN","trendName":"#KathNielASAPAllStarSummer","placeID":"2427032","placeName":"Indianapolis","searchUrl":"http:\/\/twitter.com\/search?q=%23KathNielASAPAllStarSummer","trendMapped":"kath+niel+asap+all+star+summer","trendVolume":389999},{"stateName":"IN","trendName":"#PiliPinasDebates2016","placeID":"2427032","placeName":"Indianapolis","searchUrl":"http:\/\/twitter.com\/search?q=%23PiliPinasDebates2016","trendMapped":"pili+pinas+debates2016","trendVolume":1107684},{"stateName":"IN","trendName":"Anne","placeID":"2427032","placeName":"Indianapolis","searchUrl":"http:\/\/twitter.com\/search?q=Anne","trendMapped":"anne","trendVolume":364162},{"stateName":"IN","trendName":"Cuba","placeID":"2427032","placeName":"Indianapolis","searchUrl":"http:\/\/twitter.com\/search?q=Cuba","trendMapped":"cuba","trendVolume":523898},{"stateName":"IN","trendName":"Selena","placeID":"2427032","placeName":"Indianapolis","searchUrl":"http:\/\/twitter.com\/search?q=Selena","trendMapped":"selena","trendVolume":335634},{"stateName":"IN","trendName":"Spurs","placeID":"2427032","placeName":"Indianapolis","searchUrl":"http:\/\/twitter.com\/search?q=Spurs","trendMapped":"spurs","trendVolume":276165},{"stateName":"KY","trendName":"#EXOluXionDotInSeoul","placeID":"2442327","placeName":"Louisville","searchUrl":"http:\/\/twitter.com\/search?q=%23EXOluXionDotInSeoul","trendMapped":"ex+olu+xion+dot+in+seoul","trendVolume":303503},{"stateName":"KY","trendName":"#KathNielASAPAllStarSummer","placeID":"2442327","placeName":"Louisville","searchUrl":"http:\/\/twitter.com\/search?q=%23KathNielASAPAllStarSummer","trendMapped":"kath+niel+asap+all+star+summer","trendVolume":396016},{"stateName":"KY","trendName":"#MUFC","placeID":"2442327","placeName":"Louisville","searchUrl":"http:\/\/twitter.com\/search?q=%23MUFC","trendMapped":"mufc","trendVolume":234354},{"stateName":"KY","trendName":"#PiliPinasDebates2016","placeID":"2442327","placeName":"Louisville","searchUrl":"http:\/\/twitter.com\/search?q=%23PiliPinasDebates2016","trendMapped":"pili+pinas+debates2016","trendVolume":1107684},{"stateName":"KY","trendName":"Anne","placeID":"2442327","placeName":"Louisville","searchUrl":"http:\/\/twitter.com\/search?q=Anne","trendMapped":"anne","trendVolume":372786},{"stateName":"KY","trendName":"Cuba","placeID":"2442327","placeName":"Louisville","searchUrl":"http:\/\/twitter.com\/search?q=Cuba","trendMapped":"cuba","trendVolume":443904},{"stateName":"KY","trendName":"Selena","placeID":"2442327","placeName":"Louisville","searchUrl":"http:\/\/twitter.com\/search?q=Selena","trendMapped":"selena","trendVolume":317139},{"stateName":"KY","trendName":"Spring","placeID":"2442327","placeName":"Louisville","searchUrl":"http:\/\/twitter.com\/search?q=Spring","trendMapped":"spring","trendVolume":625672},{"stateName":"KY","trendName":"Spurs","placeID":"2442327","placeName":"Louisville","searchUrl":"http:\/\/twitter.com\/search?q=Spurs","trendMapped":"spurs","trendVolume":276103},{"stateName":"LA","trendName":"#EXOluXionDotInSeoul","placeID":"2458833","placeName":"New Orleans","searchUrl":"http:\/\/twitter.com\/search?q=%23EXOluXionDotInSeoul","trendMapped":"ex+olu+xion+dot+in+seoul","trendVolume":306929},{"stateName":"LA","trendName":"#FLIGHT_LOG","placeID":"2359991","placeName":"Baton Rouge","searchUrl":"http:\/\/twitter.com\/search?q=%23FLIGHT_LOG","trendMapped":"flight+log","trendVolume":357911},{"stateName":"LA","trendName":"#KathNielASAPAllStarSummer","placeID":"2458833","placeName":"New Orleans","searchUrl":"http:\/\/twitter.com\/search?q=%23KathNielASAPAllStarSummer","trendMapped":"kath+niel+asap+all+star+summer","trendVolume":392040},{"stateName":"LA","trendName":"#MUFC","placeID":"2359991","placeName":"Baton Rouge","searchUrl":"http:\/\/twitter.com\/search?q=%23MUFC","trendMapped":"mufc","trendVolume":212544},{"stateName":"LA","trendName":"#PiliPinasDebates2016","placeID":"2458833","placeName":"New Orleans","searchUrl":"http:\/\/twitter.com\/search?q=%23PiliPinasDebates2016","trendMapped":"pili+pinas+debates2016","trendVolume":1105772},{"stateName":"LA","trendName":"Anne","placeID":"2458833","placeName":"New Orleans","searchUrl":"http:\/\/twitter.com\/search?q=Anne","trendMapped":"anne","trendVolume":359597},{"stateName":"LA","trendName":"Cuba","placeID":"2359991","placeName":"Baton Rouge","searchUrl":"http:\/\/twitter.com\/search?q=Cuba","trendMapped":"cuba","trendVolume":554879},{"stateName":"LA","trendName":"Selena","placeID":"2458833","placeName":"New Orleans","searchUrl":"http:\/\/twitter.com\/search?q=Selena","trendMapped":"selena","trendVolume":357087},{"stateName":"LA","trendName":"Spring","placeID":"2458833","placeName":"New Orleans","searchUrl":"http:\/\/twitter.com\/search?q=Spring","trendMapped":"spring","trendVolume":736018},{"stateName":"LA","trendName":"Spurs","placeID":"2359991","placeName":"Baton Rouge","searchUrl":"http:\/\/twitter.com\/search?q=Spurs","trendMapped":"spurs","trendVolume":277575},{"stateName":"MA","trendName":"#EXOluXionDotInSeoul","placeID":"2367105","placeName":"Boston","searchUrl":"http:\/\/twitter.com\/search?q=%23EXOluXionDotInSeoul","trendMapped":"ex+olu+xion+dot+in+seoul","trendVolume":298252},{"stateName":"MA","trendName":"#FLIGHT_LOG","placeID":"2367105","placeName":"Boston","searchUrl":"http:\/\/twitter.com\/search?q=%23FLIGHT_LOG","trendMapped":"flight+log","trendVolume":336716},{"stateName":"MA","trendName":"#PiliPinasDebates2016","placeID":"2367105","placeName":"Boston","searchUrl":"http:\/\/twitter.com\/search?q=%23PiliPinasDebates2016","trendMapped":"pili+pinas+debates2016","trendVolume":1117905},{"stateName":"MA","trendName":"Cuba","placeID":"2367105","placeName":"Boston","searchUrl":"http:\/\/twitter.com\/search?q=Cuba","trendMapped":"cuba","trendVolume":465002},{"stateName":"MA","trendName":"Selena","placeID":"2367105","placeName":"Boston","searchUrl":"http:\/\/twitter.com\/search?q=Selena","trendMapped":"selena","trendVolume":355468},{"stateName":"MA","trendName":"Spring","placeID":"2367105","placeName":"Boston","searchUrl":"http:\/\/twitter.com\/search?q=Spring","trendMapped":"spring","trendVolume":584503},{"stateName":"MA","trendName":"Spurs","placeID":"2367105","placeName":"Boston","searchUrl":"http:\/\/twitter.com\/search?q=Spurs","trendMapped":"spurs","trendVolume":282717},{"stateName":"MD","trendName":"#KathNielASAPAllStarSummer","placeID":"2358820","placeName":"Baltimore","searchUrl":"http:\/\/twitter.com\/search?q=%23KathNielASAPAllStarSummer","trendMapped":"kath+niel+asap+all+star+summer","trendVolume":397122},{"stateName":"MD","trendName":"#PiliPinasDebates2016","placeID":"2358820","placeName":"Baltimore","searchUrl":"http:\/\/twitter.com\/search?q=%23PiliPinasDebates2016","trendMapped":"pili+pinas+debates2016","trendVolume":1098073},{"stateName":"MD","trendName":"Anne","placeID":"2358820","placeName":"Baltimore","searchUrl":"http:\/\/twitter.com\/search?q=Anne","trendMapped":"anne","trendVolume":372786},{"stateName":"MD","trendName":"Cuba","placeID":"2358820","placeName":"Baltimore","searchUrl":"http:\/\/twitter.com\/search?q=Cuba","trendMapped":"cuba","trendVolume":579112},{"stateName":"MD","trendName":"Selena","placeID":"2358820","placeName":"Baltimore","searchUrl":"http:\/\/twitter.com\/search?q=Selena","trendMapped":"selena","trendVolume":465897},{"stateName":"MI","trendName":"#KathNielASAPAllStarSummer","placeID":"2391585","placeName":"Detroit","searchUrl":"http:\/\/twitter.com\/search?q=%23KathNielASAPAllStarSummer","trendMapped":"kath+niel+asap+all+star+summer","trendVolume":393349},{"stateName":"MI","trendName":"#MarchMadness","placeID":"2391585","placeName":"Detroit","searchUrl":"http:\/\/twitter.com\/search?q=%23MarchMadness","trendMapped":"march+madness","trendVolume":201392},{"stateName":"MI","trendName":"#PiliPinasDebates2016","placeID":"2391585","placeName":"Detroit","searchUrl":"http:\/\/twitter.com\/search?q=%23PiliPinasDebates2016","trendMapped":"pili+pinas+debates2016","trendVolume":1105772},{"stateName":"MI","trendName":"Selena","placeID":"2391585","placeName":"Detroit","searchUrl":"http:\/\/twitter.com\/search?q=Selena","trendMapped":"selena","trendVolume":335634},{"stateName":"MI","trendName":"Spring","placeID":"2391585","placeName":"Detroit","searchUrl":"http:\/\/twitter.com\/search?q=Spring","trendMapped":"spring","trendVolume":738798},{"stateName":"MI","trendName":"Spurs","placeID":"2391585","placeName":"Detroit","searchUrl":"http:\/\/twitter.com\/search?q=Spurs","trendMapped":"spurs","trendVolume":306169},{"stateName":"MN","trendName":"#EXOluXionDotInSeoul","placeID":"2452078","placeName":"Minneapolis","searchUrl":"http:\/\/twitter.com\/search?q=%23EXOluXionDotInSeoul","trendMapped":"ex+olu+xion+dot+in+seoul","trendVolume":289352},{"stateName":"MN","trendName":"#FLIGHT_LOG","placeID":"2452078","placeName":"Minneapolis","searchUrl":"http:\/\/twitter.com\/search?q=%23FLIGHT_LOG","trendMapped":"flight+log","trendVolume":372046},{"stateName":"MN","trendName":"#MUFC","placeID":"2452078","placeName":"Minneapolis","searchUrl":"http:\/\/twitter.com\/search?q=%23MUFC","trendMapped":"mufc","trendVolume":231619},{"stateName":"MN","trendName":"#PiliPinasDebates2016","placeID":"2452078","placeName":"Minneapolis","searchUrl":"http:\/\/twitter.com\/search?q=%23PiliPinasDebates2016","trendMapped":"pili+pinas+debates2016","trendVolume":1034773},{"stateName":"MN","trendName":"Cuba","placeID":"2452078","placeName":"Minneapolis","searchUrl":"http:\/\/twitter.com\/search?q=Cuba","trendMapped":"cuba","trendVolume":569515},{"stateName":"MN","trendName":"Selena","placeID":"2452078","placeName":"Minneapolis","searchUrl":"http:\/\/twitter.com\/search?q=Selena","trendMapped":"selena","trendVolume":360480},{"stateName":"MN","trendName":"Spurs","placeID":"2452078","placeName":"Minneapolis","searchUrl":"http:\/\/twitter.com\/search?q=Spurs","trendMapped":"spurs","trendVolume":277053},{"stateName":"MN","trendName":"Warriors","placeID":"2452078","placeName":"Minneapolis","searchUrl":"http:\/\/twitter.com\/search?q=Warriors","trendMapped":"warriors","trendVolume":201526},{"stateName":"MO","trendName":"#EXOluXionDotInSeoul","placeID":"2430683","placeName":"Kansas City","searchUrl":"http:\/\/twitter.com\/search?q=%23EXOluXionDotInSeoul","trendMapped":"ex+olu+xion+dot+in+seoul","trendVolume":293360},{"stateName":"MO","trendName":"#FLIGHT_LOG","placeID":"2486982","placeName":"St. Louis","searchUrl":"http:\/\/twitter.com\/search?q=%23FLIGHT_LOG","trendMapped":"flight+log","trendVolume":328540},{"stateName":"MO","trendName":"#IndvsPak","placeID":"2486982","placeName":"St. Louis","searchUrl":"http:\/\/twitter.com\/search?q=%23IndvsPak","trendMapped":"indvs+pak","trendVolume":832491},{"stateName":"MO","trendName":"#KathNielASAPAllStarSummer","placeID":"2486982","placeName":"St. Louis","searchUrl":"http:\/\/twitter.com\/search?q=%23KathNielASAPAllStarSummer","trendMapped":"kath+niel+asap+all+star+summer","trendVolume":393349},{"stateName":"MO","trendName":"#MUFC","placeID":"2486982","placeName":"St. Louis","searchUrl":"http:\/\/twitter.com\/search?q=%23MUFC","trendMapped":"mufc","trendVolume":212544},{"stateName":"MO","trendName":"#PiliPinasDebates2016","placeID":"2486982","placeName":"St. Louis","searchUrl":"http:\/\/twitter.com\/search?q=%23PiliPinasDebates2016","trendMapped":"pili+pinas+debates2016","trendVolume":1057585},{"stateName":"MO","trendName":"Anne","placeID":"2486982","placeName":"St. Louis","searchUrl":"http:\/\/twitter.com\/search?q=Anne","trendMapped":"anne","trendVolume":409881},{"stateName":"MO","trendName":"Cuba","placeID":"2486982","placeName":"St. Louis","searchUrl":"http:\/\/twitter.com\/search?q=Cuba","trendMapped":"cuba","trendVolume":401782},{"stateName":"MO","trendName":"Selena","placeID":"2486982","placeName":"St. Louis","searchUrl":"http:\/\/twitter.com\/search?q=Selena","trendMapped":"selena","trendVolume":349885},{"stateName":"MO","trendName":"Spurs","placeID":"2486982","placeName":"St. Louis","searchUrl":"http:\/\/twitter.com\/search?q=Spurs","trendMapped":"spurs","trendVolume":281851},{"stateName":"MS","trendName":"#EXOluXionDotInSeoul","placeID":"2428184","placeName":"Jackson","searchUrl":"http:\/\/twitter.com\/search?q=%23EXOluXionDotInSeoul","trendMapped":"ex+olu+xion+dot+in+seoul","trendVolume":289352},{"stateName":"MS","trendName":"#PiliPinasDebates2016","placeID":"2428184","placeName":"Jackson","searchUrl":"http:\/\/twitter.com\/search?q=%23PiliPinasDebates2016","trendMapped":"pili+pinas+debates2016","trendVolume":1103521},{"stateName":"MS","trendName":"Anne","placeID":"2428184","placeName":"Jackson","searchUrl":"http:\/\/twitter.com\/search?q=Anne","trendMapped":"anne","trendVolume":364162},{"stateName":"MS","trendName":"Cuba","placeID":"2428184","placeName":"Jackson","searchUrl":"http:\/\/twitter.com\/search?q=Cuba","trendMapped":"cuba","trendVolume":579112},{"stateName":"MS","trendName":"Selena","placeID":"2428184","placeName":"Jackson","searchUrl":"http:\/\/twitter.com\/search?q=Selena","trendMapped":"selena","trendVolume":360480},{"stateName":"MS","trendName":"Spurs","placeID":"2428184","placeName":"Jackson","searchUrl":"http:\/\/twitter.com\/search?q=Spurs","trendMapped":"spurs","trendVolume":286062},{"stateName":"NC","trendName":"#EXOluXionDotInSeoul","placeID":"2478307","placeName":"Raleigh","searchUrl":"http:\/\/twitter.com\/search?q=%23EXOluXionDotInSeoul","trendMapped":"ex+olu+xion+dot+in+seoul","trendVolume":304844},{"stateName":"NC","trendName":"#KathNielASAPAllStarSummer","placeID":"2478307","placeName":"Raleigh","searchUrl":"http:\/\/twitter.com\/search?q=%23KathNielASAPAllStarSummer","trendMapped":"kath+niel+asap+all+star+summer","trendVolume":388983},{"stateName":"NC","trendName":"#PiliPinasDebates2016","placeID":"2478307","placeName":"Raleigh","searchUrl":"http:\/\/twitter.com\/search?q=%23PiliPinasDebates2016","trendMapped":"pili+pinas+debates2016","trendVolume":1107684},{"stateName":"NC","trendName":"Anne","placeID":"2478307","placeName":"Raleigh","searchUrl":"http:\/\/twitter.com\/search?q=Anne","trendMapped":"anne","trendVolume":369928},{"stateName":"NC","trendName":"Cuba","placeID":"2478307","placeName":"Raleigh","searchUrl":"http:\/\/twitter.com\/search?q=Cuba","trendMapped":"cuba","trendVolume":574587},{"stateName":"NC","trendName":"Selena","placeID":"2478307","placeName":"Raleigh","searchUrl":"http:\/\/twitter.com\/search?q=Selena","trendMapped":"selena","trendVolume":355468},{"stateName":"NC","trendName":"Spring","placeID":"2478307","placeName":"Raleigh","searchUrl":"http:\/\/twitter.com\/search?q=Spring","trendMapped":"spring","trendVolume":738798},{"stateName":"NC","trendName":"Spurs","placeID":"2478307","placeName":"Raleigh","searchUrl":"http:\/\/twitter.com\/search?q=Spurs","trendMapped":"spurs","trendVolume":290488},{"stateName":"NE","trendName":"#EXOluXionDotInSeoul","placeID":"2465512","placeName":"Omaha","searchUrl":"http:\/\/twitter.com\/search?q=%23EXOluXionDotInSeoul","trendMapped":"ex+olu+xion+dot+in+seoul","trendVolume":306929},{"stateName":"NE","trendName":"#FLIGHT_LOG","placeID":"2465512","placeName":"Omaha","searchUrl":"http:\/\/twitter.com\/search?q=%23FLIGHT_LOG","trendMapped":"flight+log","trendVolume":365145},{"stateName":"NE","trendName":"#KathNielASAPAllStarSummer","placeID":"2465512","placeName":"Omaha","searchUrl":"http:\/\/twitter.com\/search?q=%23KathNielASAPAllStarSummer","trendMapped":"kath+niel+asap+all+star+summer","trendVolume":396016},{"stateName":"NE","trendName":"#MarchMadness","placeID":"2465512","placeName":"Omaha","searchUrl":"http:\/\/twitter.com\/search?q=%23MarchMadness","trendMapped":"march+madness","trendVolume":199251},{"stateName":"NE","trendName":"#PiliPinasDebates2016","placeID":"2465512","placeName":"Omaha","searchUrl":"http:\/\/twitter.com\/search?q=%23PiliPinasDebates2016","trendMapped":"pili+pinas+debates2016","trendVolume":1101448},{"stateName":"NE","trendName":"Anne","placeID":"2465512","placeName":"Omaha","searchUrl":"http:\/\/twitter.com\/search?q=Anne","trendMapped":"anne","trendVolume":369928},{"stateName":"NE","trendName":"Cuba","placeID":"2465512","placeName":"Omaha","searchUrl":"http:\/\/twitter.com\/search?q=Cuba","trendMapped":"cuba","trendVolume":341513},{"stateName":"NE","trendName":"Selena","placeID":"2465512","placeName":"Omaha","searchUrl":"http:\/\/twitter.com\/search?q=Selena","trendMapped":"selena","trendVolume":340809},{"stateName":"NE","trendName":"Spurs","placeID":"2465512","placeName":"Omaha","searchUrl":"http:\/\/twitter.com\/search?q=Spurs","trendMapped":"spurs","trendVolume":273055},{"stateName":"NE","trendName":"Warriors","placeID":"2465512","placeName":"Omaha","searchUrl":"http:\/\/twitter.com\/search?q=Warriors","trendMapped":"warriors","trendVolume":201526},{"stateName":"NM","trendName":"#FLIGHT_LOG","placeID":"2352824","placeName":"Albuquerque","searchUrl":"http:\/\/twitter.com\/search?q=%23FLIGHT_LOG","trendMapped":"flight+log","trendVolume":323969},{"stateName":"NM","trendName":"#IndvsPak","placeID":"2352824","placeName":"Albuquerque","searchUrl":"http:\/\/twitter.com\/search?q=%23IndvsPak","trendMapped":"indvs+pak","trendVolume":832855},{"stateName":"NM","trendName":"#InternationalDayOfHappiness","placeID":"2352824","placeName":"Albuquerque","searchUrl":"http:\/\/twitter.com\/search?q=%23InternationalDayOfHappiness","trendMapped":"international+day+of+happiness","trendVolume":208141},{"stateName":"NM","trendName":"#KathNielASAPAllStarSummer","placeID":"2352824","placeName":"Albuquerque","searchUrl":"http:\/\/twitter.com\/search?q=%23KathNielASAPAllStarSummer","trendMapped":"kath+niel+asap+all+star+summer","trendVolume":392040},{"stateName":"NM","trendName":"#PiliPinasDebates2016","placeID":"2352824","placeName":"Albuquerque","searchUrl":"http:\/\/twitter.com\/search?q=%23PiliPinasDebates2016","trendMapped":"pili+pinas+debates2016","trendVolume":1057585},{"stateName":"NM","trendName":"Anne","placeID":"2352824","placeName":"Albuquerque","searchUrl":"http:\/\/twitter.com\/search?q=Anne","trendMapped":"anne","trendVolume":350794},{"stateName":"NM","trendName":"Cuba","placeID":"2352824","placeName":"Albuquerque","searchUrl":"http:\/\/twitter.com\/search?q=Cuba","trendMapped":"cuba","trendVolume":569515},{"stateName":"NM","trendName":"Selena","placeID":"2352824","placeName":"Albuquerque","searchUrl":"http:\/\/twitter.com\/search?q=Selena","trendMapped":"selena","trendVolume":357087},{"stateName":"NM","trendName":"Spurs","placeID":"2352824","placeName":"Albuquerque","searchUrl":"http:\/\/twitter.com\/search?q=Spurs","trendMapped":"spurs","trendVolume":267512},{"stateName":"NV","trendName":"#KathNielASAPAllStarSummer","placeID":"2436704","placeName":"Las Vegas","searchUrl":"http:\/\/twitter.com\/search?q=%23KathNielASAPAllStarSummer","trendMapped":"kath+niel+asap+all+star+summer","trendVolume":392040},{"stateName":"NV","trendName":"#MUFC","placeID":"2436704","placeName":"Las Vegas","searchUrl":"http:\/\/twitter.com\/search?q=%23MUFC","trendMapped":"mufc","trendVolume":229918},{"stateName":"NV","trendName":"#PiliPinasDebates2016","placeID":"2436704","placeName":"Las Vegas","searchUrl":"http:\/\/twitter.com\/search?q=%23PiliPinasDebates2016","trendMapped":"pili+pinas+debates2016","trendVolume":1101448},{"stateName":"NV","trendName":"Anne","placeID":"2436704","placeName":"Las Vegas","searchUrl":"http:\/\/twitter.com\/search?q=Anne","trendMapped":"anne","trendVolume":359597},{"stateName":"NV","trendName":"Cuba","placeID":"2436704","placeName":"Las Vegas","searchUrl":"http:\/\/twitter.com\/search?q=Cuba","trendMapped":"cuba","trendVolume":401782},{"stateName":"NV","trendName":"Selena","placeID":"2436704","placeName":"Las Vegas","searchUrl":"http:\/\/twitter.com\/search?q=Selena","trendMapped":"selena","trendVolume":317139},{"stateName":"NV","trendName":"Spurs","placeID":"2436704","placeName":"Las Vegas","searchUrl":"http:\/\/twitter.com\/search?q=Spurs","trendMapped":"spurs","trendVolume":281496},{"stateName":"NY","trendName":"#1YearWithoutGlee","placeID":"2459115","placeName":"New York","searchUrl":"http:\/\/twitter.com\/search?q=%231YearWithoutGlee","trendMapped":"1+year+without+glee","trendVolume":90861},{"stateName":"NY","trendName":"#FLIGHT_LOG","placeID":"2459115","placeName":"New York","searchUrl":"http:\/\/twitter.com\/search?q=%23FLIGHT_LOG","trendMapped":"flight+log","trendVolume":377431},{"stateName":"NY","trendName":"#InternationalDayOfHappiness","placeID":"2459115","placeName":"New York","searchUrl":"http:\/\/twitter.com\/search?q=%23InternationalDayOfHappiness","trendMapped":"international+day+of+happiness","trendVolume":210436},{"stateName":"NY","trendName":"#KathNielASAPAllStarSummer","placeID":"2459115","placeName":"New York","searchUrl":"http:\/\/twitter.com\/search?q=%23KathNielASAPAllStarSummer","trendMapped":"kath+niel+asap+all+star+summer","trendVolume":397122},{"stateName":"NY","trendName":"#MUFC","placeID":"2459115","placeName":"New York","searchUrl":"http:\/\/twitter.com\/search?q=%23MUFC","trendMapped":"mufc","trendVolume":239219},{"stateName":"NY","trendName":"#PiliPinasDebates2016","placeID":"2459115","placeName":"New York","searchUrl":"http:\/\/twitter.com\/search?q=%23PiliPinasDebates2016","trendMapped":"pili+pinas+debates2016","trendVolume":1070140},{"stateName":"NY","trendName":"Anne","placeID":"2459115","placeName":"New York","searchUrl":"http:\/\/twitter.com\/search?q=Anne","trendMapped":"anne","trendVolume":367089},{"stateName":"NY","trendName":"Cuba","placeID":"2459115","placeName":"New York","searchUrl":"http:\/\/twitter.com\/search?q=Cuba","trendMapped":"cuba","trendVolume":465002},{"stateName":"NY","trendName":"Selena","placeID":"2459115","placeName":"New York","searchUrl":"http:\/\/twitter.com\/search?q=Selena","trendMapped":"selena","trendVolume":343018},{"stateName":"NY","trendName":"Spurs","placeID":"2459115","placeName":"New York","searchUrl":"http:\/\/twitter.com\/search?q=Spurs","trendMapped":"spurs","trendVolume":285483},{"stateName":"OH","trendName":"#EXOluXionDotInSeoul","placeID":"2383660","placeName":"Columbus","searchUrl":"http:\/\/twitter.com\/search?q=%23EXOluXionDotInSeoul","trendMapped":"ex+olu+xion+dot+in+seoul","trendVolume":298252},{"stateName":"OH","trendName":"#FLIGHT_LOG","placeID":"2380358","placeName":"Cincinnati","searchUrl":"http:\/\/twitter.com\/search?q=%23FLIGHT_LOG","trendMapped":"flight+log","trendVolume":379124},{"stateName":"OH","trendName":"#KathNielASAPAllStarSummer","placeID":"2383660","placeName":"Columbus","searchUrl":"http:\/\/twitter.com\/search?q=%23KathNielASAPAllStarSummer","trendMapped":"kath+niel+asap+all+star+summer","trendVolume":396016},{"stateName":"OH","trendName":"#MUFC","placeID":"2383660","placeName":"Columbus","searchUrl":"http:\/\/twitter.com\/search?q=%23MUFC","trendMapped":"mufc","trendVolume":239219},{"stateName":"OH","trendName":"#MarchMadness","placeID":"2381475","placeName":"Cleveland","searchUrl":"http:\/\/twitter.com\/search?q=%23MarchMadness","trendMapped":"march+madness","trendVolume":210042},{"stateName":"OH","trendName":"#PiliPinasDebates2016","placeID":"2383660","placeName":"Columbus","searchUrl":"http:\/\/twitter.com\/search?q=%23PiliPinasDebates2016","trendMapped":"pili+pinas+debates2016","trendVolume":1105772},{"stateName":"OH","trendName":"Anne","placeID":"2383660","placeName":"Columbus","searchUrl":"http:\/\/twitter.com\/search?q=Anne","trendMapped":"anne","trendVolume":368910},{"stateName":"OH","trendName":"Cuba","placeID":"2383660","placeName":"Columbus","searchUrl":"http:\/\/twitter.com\/search?q=Cuba","trendMapped":"cuba","trendVolume":559955},{"stateName":"OH","trendName":"Selena","placeID":"2383660","placeName":"Columbus","searchUrl":"http:\/\/twitter.com\/search?q=Selena","trendMapped":"selena","trendVolume":351954},{"stateName":"OH","trendName":"Spring","placeID":"2381475","placeName":"Cleveland","searchUrl":"http:\/\/twitter.com\/search?q=Spring","trendMapped":"spring","trendVolume":748186},{"stateName":"OH","trendName":"Spurs","placeID":"2383660","placeName":"Columbus","searchUrl":"http:\/\/twitter.com\/search?q=Spurs","trendMapped":"spurs","trendVolume":276103},{"stateName":"OK","trendName":"#KathNielASAPAllStarSummer","placeID":"2464592","placeName":"Oklahoma City","searchUrl":"http:\/\/twitter.com\/search?q=%23KathNielASAPAllStarSummer","trendMapped":"kath+niel+asap+all+star+summer","trendVolume":396016},{"stateName":"OK","trendName":"Anne","placeID":"2464592","placeName":"Oklahoma City","searchUrl":"http:\/\/twitter.com\/search?q=Anne","trendMapped":"anne","trendVolume":367089},{"stateName":"OK","trendName":"Selena","placeID":"2464592","placeName":"Oklahoma City","searchUrl":"http:\/\/twitter.com\/search?q=Selena","trendMapped":"selena","trendVolume":327005},{"stateName":"OK","trendName":"Spring","placeID":"2464592","placeName":"Oklahoma City","searchUrl":"http:\/\/twitter.com\/search?q=Spring","trendMapped":"spring","trendVolume":709644},{"stateName":"OK","trendName":"Spurs","placeID":"2464592","placeName":"Oklahoma City","searchUrl":"http:\/\/twitter.com\/search?q=Spurs","trendMapped":"spurs","trendVolume":267512},{"stateName":"OR","trendName":"#EXOluXionDotInSeoul","placeID":"2475687","placeName":"Portland","searchUrl":"http:\/\/twitter.com\/search?q=%23EXOluXionDotInSeoul","trendMapped":"ex+olu+xion+dot+in+seoul","trendVolume":294845},{"stateName":"OR","trendName":"#FLIGHT_LOG","placeID":"2475687","placeName":"Portland","searchUrl":"http:\/\/twitter.com\/search?q=%23FLIGHT_LOG","trendMapped":"flight+log","trendVolume":377431},{"stateName":"OR","trendName":"#PiliPinasDebates2016","placeID":"2475687","placeName":"Portland","searchUrl":"http:\/\/twitter.com\/search?q=%23PiliPinasDebates2016","trendMapped":"pili+pinas+debates2016","trendVolume":1100044},{"stateName":"OR","trendName":"Anne","placeID":"2475687","placeName":"Portland","searchUrl":"http:\/\/twitter.com\/search?q=Anne","trendMapped":"anne","trendVolume":372786},{"stateName":"OR","trendName":"Cuba","placeID":"2475687","placeName":"Portland","searchUrl":"http:\/\/twitter.com\/search?q=Cuba","trendMapped":"cuba","trendVolume":544548},{"stateName":"OR","trendName":"Selena","placeID":"2475687","placeName":"Portland","searchUrl":"http:\/\/twitter.com\/search?q=Selena","trendMapped":"selena","trendVolume":327005},{"stateName":"OR","trendName":"Spurs","placeID":"2475687","placeName":"Portland","searchUrl":"http:\/\/twitter.com\/search?q=Spurs","trendMapped":"spurs","trendVolume":322839},{"stateName":"PA","trendName":"#AusGP","placeID":"2471217","placeName":"Philadelphia","searchUrl":"http:\/\/twitter.com\/search?q=%23AusGP","trendMapped":"aus+gp","trendVolume":200450},{"stateName":"PA","trendName":"#EXOluXionDotInSeoul","placeID":"2473224","placeName":"Pittsburgh","searchUrl":"http:\/\/twitter.com\/search?q=%23EXOluXionDotInSeoul","trendMapped":"ex+olu+xion+dot+in+seoul","trendVolume":289352},{"stateName":"PA","trendName":"#FLIGHT_LOG","placeID":"2418046","placeName":"Harrisburg","searchUrl":"http:\/\/twitter.com\/search?q=%23FLIGHT_LOG","trendMapped":"flight+log","trendVolume":377431},{"stateName":"PA","trendName":"#MUFC","placeID":"2418046","placeName":"Harrisburg","searchUrl":"http:\/\/twitter.com\/search?q=%23MUFC","trendMapped":"mufc","trendVolume":239219},{"stateName":"PA","trendName":"#PiliPinasDebates2016","placeID":"2473224","placeName":"Pittsburgh","searchUrl":"http:\/\/twitter.com\/search?q=%23PiliPinasDebates2016","trendMapped":"pili+pinas+debates2016","trendVolume":1092370},{"stateName":"PA","trendName":"Anne","placeID":"2471217","placeName":"Philadelphia","searchUrl":"http:\/\/twitter.com\/search?q=Anne","trendMapped":"anne","trendVolume":372786},{"stateName":"PA","trendName":"Cuba","placeID":"2471217","placeName":"Philadelphia","searchUrl":"http:\/\/twitter.com\/search?q=Cuba","trendMapped":"cuba","trendVolume":530029},{"stateName":"PA","trendName":"Selena","placeID":"2473224","placeName":"Pittsburgh","searchUrl":"http:\/\/twitter.com\/search?q=Selena","trendMapped":"selena","trendVolume":343018},{"stateName":"PA","trendName":"Spring","placeID":"2473224","placeName":"Pittsburgh","searchUrl":"http:\/\/twitter.com\/search?q=Spring","trendMapped":"spring","trendVolume":738510},{"stateName":"PA","trendName":"Spurs","placeID":"2473224","placeName":"Pittsburgh","searchUrl":"http:\/\/twitter.com\/search?q=Spurs","trendMapped":"spurs","trendVolume":285725},{"stateName":"RI","trendName":"#EXOluXionDotInSeoul","placeID":"2477058","placeName":"Providence","searchUrl":"http:\/\/twitter.com\/search?q=%23EXOluXionDotInSeoul","trendMapped":"ex+olu+xion+dot+in+seoul","trendVolume":298252},{"stateName":"RI","trendName":"#PiliPinasDebates2016","placeID":"2477058","placeName":"Providence","searchUrl":"http:\/\/twitter.com\/search?q=%23PiliPinasDebates2016","trendMapped":"pili+pinas+debates2016","trendVolume":1034773},{"stateName":"RI","trendName":"Selena","placeID":"2477058","placeName":"Providence","searchUrl":"http:\/\/twitter.com\/search?q=Selena","trendMapped":"selena","trendVolume":317139},{"stateName":"RI","trendName":"Snapchat","placeID":"2477058","placeName":"Providence","searchUrl":"http:\/\/twitter.com\/search?q=Snapchat","trendMapped":"snapchat","trendVolume":343499},{"stateName":"RI","trendName":"Spurs","placeID":"2477058","placeName":"Providence","searchUrl":"http:\/\/twitter.com\/search?q=Spurs","trendMapped":"spurs","trendVolume":290488},{"stateName":"TN","trendName":"#EXOluXionDotInSeoul","placeID":"2457170","placeName":"Nashville","searchUrl":"http:\/\/twitter.com\/search?q=%23EXOluXionDotInSeoul","trendMapped":"ex+olu+xion+dot+in+seoul","trendVolume":298252},{"stateName":"TN","trendName":"#FLIGHT_LOG","placeID":"2449323","placeName":"Memphis","searchUrl":"http:\/\/twitter.com\/search?q=%23FLIGHT_LOG","trendMapped":"flight+log","trendVolume":377431},{"stateName":"TN","trendName":"#PiliPinasDebates2016","placeID":"2457170","placeName":"Nashville","searchUrl":"http:\/\/twitter.com\/search?q=%23PiliPinasDebates2016","trendMapped":"pili+pinas+debates2016","trendVolume":1107684},{"stateName":"TN","trendName":"Anne","placeID":"2449323","placeName":"Memphis","searchUrl":"http:\/\/twitter.com\/search?q=Anne","trendMapped":"anne","trendVolume":362939},{"stateName":"TN","trendName":"Cuba","placeID":"2457170","placeName":"Nashville","searchUrl":"http:\/\/twitter.com\/search?q=Cuba","trendMapped":"cuba","trendVolume":549738},{"stateName":"TN","trendName":"Selena","placeID":"2457170","placeName":"Nashville","searchUrl":"http:\/\/twitter.com\/search?q=Selena","trendMapped":"selena","trendVolume":355468},{"stateName":"TN","trendName":"Spring","placeID":"2457170","placeName":"Nashville","searchUrl":"http:\/\/twitter.com\/search?q=Spring","trendMapped":"spring","trendVolume":738798},{"stateName":"TN","trendName":"Spurs","placeID":"2457170","placeName":"Nashville","searchUrl":"http:\/\/twitter.com\/search?q=Spurs","trendMapped":"spurs","trendVolume":290793},{"stateName":"TX","trendName":"#AusGP","placeID":"2487796","placeName":"San Antonio","searchUrl":"http:\/\/twitter.com\/search?q=%23AusGP","trendMapped":"aus+gp","trendVolume":201532},{"stateName":"TX","trendName":"#EXOluXionDotInSeoul","placeID":"2397816","placeName":"El Paso","searchUrl":"http:\/\/twitter.com\/search?q=%23EXOluXionDotInSeoul","trendMapped":"ex+olu+xion+dot+in+seoul","trendVolume":304844},{"stateName":"TX","trendName":"#FLIGHT_LOG","placeID":"2424766","placeName":"Houston","searchUrl":"http:\/\/twitter.com\/search?q=%23FLIGHT_LOG","trendMapped":"flight+log","trendVolume":377431},{"stateName":"TX","trendName":"#IndvsPak","placeID":"2487796","placeName":"San Antonio","searchUrl":"http:\/\/twitter.com\/search?q=%23IndvsPak","trendMapped":"indvs+pak","trendVolume":817700},{"stateName":"TX","trendName":"#InternationalDayOfHappiness","placeID":"2397816","placeName":"El Paso","searchUrl":"http:\/\/twitter.com\/search?q=%23InternationalDayOfHappiness","trendMapped":"international+day+of+happiness","trendVolume":286300},{"stateName":"TX","trendName":"#KathNielASAPAllStarSummer","placeID":"2487796","placeName":"San Antonio","searchUrl":"http:\/\/twitter.com\/search?q=%23KathNielASAPAllStarSummer","trendMapped":"kath+niel+asap+all+star+summer","trendVolume":396016},{"stateName":"TX","trendName":"#MUFC","placeID":"2487796","placeName":"San Antonio","searchUrl":"http:\/\/twitter.com\/search?q=%23MUFC","trendMapped":"mufc","trendVolume":236292},{"stateName":"TX","trendName":"#MarchMadness","placeID":"2357536","placeName":"Austin","searchUrl":"http:\/\/twitter.com\/search?q=%23MarchMadness","trendMapped":"march+madness","trendVolume":199683},{"stateName":"TX","trendName":"#PiliPinasDebates2016","placeID":"2487796","placeName":"San Antonio","searchUrl":"http:\/\/twitter.com\/search?q=%23PiliPinasDebates2016","trendMapped":"pili+pinas+debates2016","trendVolume":1103521},{"stateName":"TX","trendName":"Anne","placeID":"2487796","placeName":"San Antonio","searchUrl":"http:\/\/twitter.com\/search?q=Anne","trendMapped":"anne","trendVolume":372786},{"stateName":"TX","trendName":"Cuba","placeID":"2487796","placeName":"San Antonio","searchUrl":"http:\/\/twitter.com\/search?q=Cuba","trendMapped":"cuba","trendVolume":569515},{"stateName":"TX","trendName":"Hardwell","placeID":"2487796","placeName":"San Antonio","searchUrl":"http:\/\/twitter.com\/search?q=Hardwell","trendMapped":"hardwell","trendVolume":70656},{"stateName":"TX","trendName":"Selena","placeID":"2487796","placeName":"San Antonio","searchUrl":"http:\/\/twitter.com\/search?q=Selena","trendMapped":"selena","trendVolume":360480},{"stateName":"TX","trendName":"Spring","placeID":"2424766","placeName":"Houston","searchUrl":"http:\/\/twitter.com\/search?q=Spring","trendMapped":"spring","trendVolume":613150},{"stateName":"TX","trendName":"Spurs","placeID":"2424766","placeName":"Houston","searchUrl":"http:\/\/twitter.com\/search?q=Spurs","trendMapped":"spurs","trendVolume":321289},{"stateName":"UT","trendName":"#EXOluXionDotInSeoul","placeID":"2487610","placeName":"Salt Lake City","searchUrl":"http:\/\/twitter.com\/search?q=%23EXOluXionDotInSeoul","trendMapped":"ex+olu+xion+dot+in+seoul","trendVolume":303503},{"stateName":"UT","trendName":"#KathNielASAPAllStarSummer","placeID":"2487610","placeName":"Salt Lake City","searchUrl":"http:\/\/twitter.com\/search?q=%23KathNielASAPAllStarSummer","trendMapped":"kath+niel+asap+all+star+summer","trendVolume":389999},{"stateName":"UT","trendName":"#MUFC","placeID":"2487610","placeName":"Salt Lake City","searchUrl":"http:\/\/twitter.com\/search?q=%23MUFC","trendMapped":"mufc","trendVolume":212544},{"stateName":"UT","trendName":"#PiliPinasDebates2016","placeID":"2487610","placeName":"Salt Lake City","searchUrl":"http:\/\/twitter.com\/search?q=%23PiliPinasDebates2016","trendMapped":"pili+pinas+debates2016","trendVolume":1101448},{"stateName":"UT","trendName":"Anne","placeID":"2487610","placeName":"Salt Lake City","searchUrl":"http:\/\/twitter.com\/search?q=Anne","trendMapped":"anne","trendVolume":367089},{"stateName":"UT","trendName":"Selena","placeID":"2487610","placeName":"Salt Lake City","searchUrl":"http:\/\/twitter.com\/search?q=Selena","trendMapped":"selena","trendVolume":335634},{"stateName":"UT","trendName":"Spurs","placeID":"2487610","placeName":"Salt Lake City","searchUrl":"http:\/\/twitter.com\/search?q=Spurs","trendMapped":"spurs","trendVolume":289019},{"stateName":"VA","trendName":"#EXOluXionDotInSeoul","placeID":"2480894","placeName":"Richmond","searchUrl":"http:\/\/twitter.com\/search?q=%23EXOluXionDotInSeoul","trendMapped":"ex+olu+xion+dot+in+seoul","trendVolume":297105},{"stateName":"VA","trendName":"#FLIGHT_LOG","placeID":"2512636","placeName":"Virginia Beach","searchUrl":"http:\/\/twitter.com\/search?q=%23FLIGHT_LOG","trendMapped":"flight+log","trendVolume":365145},{"stateName":"VA","trendName":"#IndvsPak","placeID":"2512636","placeName":"Virginia Beach","searchUrl":"http:\/\/twitter.com\/search?q=%23IndvsPak","trendMapped":"indvs+pak","trendVolume":817700},{"stateName":"VA","trendName":"#InternationalDayOfHappiness","placeID":"2512636","placeName":"Virginia Beach","searchUrl":"http:\/\/twitter.com\/search?q=%23InternationalDayOfHappiness","trendMapped":"international+day+of+happiness","trendVolume":208141},{"stateName":"VA","trendName":"#KathNielASAPAllStarSummer","placeID":"2512636","placeName":"Virginia Beach","searchUrl":"http:\/\/twitter.com\/search?q=%23KathNielASAPAllStarSummer","trendMapped":"kath+niel+asap+all+star+summer","trendVolume":397122},{"stateName":"VA","trendName":"#MUFC","placeID":"2480894","placeName":"Richmond","searchUrl":"http:\/\/twitter.com\/search?q=%23MUFC","trendMapped":"mufc","trendVolume":239219},{"stateName":"VA","trendName":"#PiliPinasDebates2016","placeID":"2512636","placeName":"Virginia Beach","searchUrl":"http:\/\/twitter.com\/search?q=%23PiliPinasDebates2016","trendMapped":"pili+pinas+debates2016","trendVolume":1103521},{"stateName":"VA","trendName":"Anne","placeID":"2512636","placeName":"Virginia Beach","searchUrl":"http:\/\/twitter.com\/search?q=Anne","trendMapped":"anne","trendVolume":367089},{"stateName":"VA","trendName":"Cuba","placeID":"2512636","placeName":"Virginia Beach","searchUrl":"http:\/\/twitter.com\/search?q=Cuba","trendMapped":"cuba","trendVolume":569515},{"stateName":"VA","trendName":"Selena","placeID":"2512636","placeName":"Virginia Beach","searchUrl":"http:\/\/twitter.com\/search?q=Selena","trendMapped":"selena","trendVolume":355468},{"stateName":"VA","trendName":"Spring","placeID":"2460389","placeName":"Norfolk","searchUrl":"http:\/\/twitter.com\/search?q=Spring","trendMapped":"spring","trendVolume":697621},{"stateName":"VA","trendName":"Spurs","placeID":"2512636","placeName":"Virginia Beach","searchUrl":"http:\/\/twitter.com\/search?q=Spurs","trendMapped":"spurs","trendVolume":290488},{"stateName":"WA","trendName":"#EXOluXionDotInSeoul","placeID":"2490383","placeName":"Seattle","searchUrl":"http:\/\/twitter.com\/search?q=%23EXOluXionDotInSeoul","trendMapped":"ex+olu+xion+dot+in+seoul","trendVolume":301769},{"stateName":"WA","trendName":"#FLIGHT_LOG","placeID":"2490383","placeName":"Seattle","searchUrl":"http:\/\/twitter.com\/search?q=%23FLIGHT_LOG","trendMapped":"flight+log","trendVolume":357911},{"stateName":"WA","trendName":"#PiliPinasDebates2016","placeID":"2490383","placeName":"Seattle","searchUrl":"http:\/\/twitter.com\/search?q=%23PiliPinasDebates2016","trendMapped":"pili+pinas+debates2016","trendVolume":1103521},{"stateName":"WA","trendName":"Cuba","placeID":"2490383","placeName":"Seattle","searchUrl":"http:\/\/twitter.com\/search?q=Cuba","trendMapped":"cuba","trendVolume":554879},{"stateName":"WA","trendName":"Selena","placeID":"2490383","placeName":"Seattle","searchUrl":"http:\/\/twitter.com\/search?q=Selena","trendMapped":"selena","trendVolume":327005},{"stateName":"WA","trendName":"Spring","placeID":"2490383","placeName":"Seattle","searchUrl":"http:\/\/twitter.com\/search?q=Spring","trendMapped":"spring","trendVolume":682811},{"stateName":"WA","trendName":"Spurs","placeID":"2490383","placeName":"Seattle","searchUrl":"http:\/\/twitter.com\/search?q=Spurs","trendMapped":"spurs","trendVolume":286062},{"stateName":"WI","trendName":"#EXOluXionDotInSeoul","placeID":"2451822","placeName":"Milwaukee","searchUrl":"http:\/\/twitter.com\/search?q=%23EXOluXionDotInSeoul","trendMapped":"ex+olu+xion+dot+in+seoul","trendVolume":298252},{"stateName":"WI","trendName":"#IndvsPak","placeID":"2451822","placeName":"Milwaukee","searchUrl":"http:\/\/twitter.com\/search?q=%23IndvsPak","trendMapped":"indvs+pak","trendVolume":832491},{"stateName":"WI","trendName":"#KathNielASAPAllStarSummer","placeID":"2451822","placeName":"Milwaukee","searchUrl":"http:\/\/twitter.com\/search?q=%23KathNielASAPAllStarSummer","trendMapped":"kath+niel+asap+all+star+summer","trendVolume":393349},{"stateName":"WI","trendName":"#PiliPinasDebates2016","placeID":"2451822","placeName":"Milwaukee","searchUrl":"http:\/\/twitter.com\/search?q=%23PiliPinasDebates2016","trendMapped":"pili+pinas+debates2016","trendVolume":1103521},{"stateName":"WI","trendName":"Anne","placeID":"2451822","placeName":"Milwaukee","searchUrl":"http:\/\/twitter.com\/search?q=Anne","trendMapped":"anne","trendVolume":412979},{"stateName":"WI","trendName":"Selena","placeID":"2451822","placeName":"Milwaukee","searchUrl":"http:\/\/twitter.com\/search?q=Selena","trendMapped":"selena","trendVolume":335634},{"stateName":"WI","trendName":"Spring","placeID":"2451822","placeName":"Milwaukee","searchUrl":"http:\/\/twitter.com\/search?q=Spring","trendMapped":"spring","trendVolume":730195},{"stateName":"WI","trendName":"Spurs","placeID":"2451822","placeName":"Milwaukee","searchUrl":"http:\/\/twitter.com\/search?q=Spurs","trendMapped":"spurs","trendVolume":282717},{"stateName":"XX","trendName":"#FLIGHT_LOG","placeID":"23424977","placeName":"United States","searchUrl":"http:\/\/twitter.com\/search?q=%23FLIGHT_LOG","trendMapped":"flight+log","trendVolume":336716},{"stateName":"XX","trendName":"#InternationalDayOfHappiness","placeID":"23424977","placeName":"United States","searchUrl":"http:\/\/twitter.com\/search?q=%23InternationalDayOfHappiness","trendMapped":"international+day+of+happiness","trendVolume":203310},{"stateName":"XX","trendName":"#PiliPinasDebates2016","placeID":"23424977","placeName":"United States","searchUrl":"http:\/\/twitter.com\/search?q=%23PiliPinasDebates2016","trendMapped":"pili+pinas+debates2016","trendVolume":1098073},{"stateName":"XX","trendName":"Anne","placeID":"23424977","placeName":"United States","searchUrl":"http:\/\/twitter.com\/search?q=Anne","trendMapped":"anne","trendVolume":367089},{"stateName":"XX","trendName":"Cuba","placeID":"23424977","placeName":"United States","searchUrl":"http:\/\/twitter.com\/search?q=Cuba","trendMapped":"cuba","trendVolume":574587},{"stateName":"XX","trendName":"Selena","placeID":"23424977","placeName":"United States","searchUrl":"http:\/\/twitter.com\/search?q=Selena","trendMapped":"selena","trendVolume":355468},{"stateName":"XX","trendName":"Spurs","placeID":"23424977","placeName":"United States","searchUrl":"http:\/\/twitter.com\/search?q=Spurs","trendMapped":"spurs","trendVolume":283874}]