[{"stateName":"AL","trendName":"#4YearsWithEXO","placeID":"2364559","placeName":"Birmingham","searchUrl":"http:\/\/twitter.com\/search?q=%234YearsWithEXO","trendMapped":"4+years+with+exo","trendVolume":770297},{"stateName":"AL","trendName":"#Empire","placeID":"2364559","placeName":"Birmingham","searchUrl":"http:\/\/twitter.com\/search?q=%23Empire","trendMapped":"empire","trendVolume":216175},{"stateName":"AL","trendName":"Archives","placeID":"2364559","placeName":"Birmingham","searchUrl":"http:\/\/twitter.com\/search?q=Archives","trendMapped":"archives","trendVolume":450007},{"stateName":"AL","trendName":"Star Wars","placeID":"2364559","placeName":"Birmingham","searchUrl":"http:\/\/twitter.com\/search?q=%22Star+Wars%22","trendMapped":"Star+Wars","trendVolume":385940},{"stateName":"AL","trendName":"Wolfsburg","placeID":"2364559","placeName":"Birmingham","searchUrl":"http:\/\/twitter.com\/search?q=Wolfsburg","trendMapped":"wolfsburg","trendVolume":256546},{"stateName":"AZ","trendName":"#4YearsWithEXO","placeID":"2508428","placeName":"Tucson","searchUrl":"http:\/\/twitter.com\/search?q=%234YearsWithEXO","trendMapped":"4+years+with+exo","trendVolume":783695},{"stateName":"AZ","trendName":"#Empire","placeID":"2508428","placeName":"Tucson","searchUrl":"http:\/\/twitter.com\/search?q=%23Empire","trendMapped":"empire","trendVolume":230343},{"stateName":"AZ","trendName":"#HillarySoQualified","placeID":"2508428","placeName":"Tucson","searchUrl":"http:\/\/twitter.com\/search?q=%23HillarySoQualified","trendMapped":"hillary+so+qualified","trendVolume":149931},{"stateName":"AZ","trendName":"#NationalBeerDay","placeID":"2471390","placeName":"Phoenix","searchUrl":"http:\/\/twitter.com\/search?q=%23NationalBeerDay","trendMapped":"national+beer+day","trendVolume":122961},{"stateName":"AZ","trendName":"#RogueOne","placeID":"2471390","placeName":"Phoenix","searchUrl":"http:\/\/twitter.com\/search?q=%23RogueOne","trendMapped":"rogue+one","trendVolume":223180},{"stateName":"AZ","trendName":"#WorldHealthDay","placeID":"2508428","placeName":"Tucson","searchUrl":"http:\/\/twitter.com\/search?q=%23WorldHealthDay","trendMapped":"world+health+day","trendVolume":181403},{"stateName":"AZ","trendName":"Archives","placeID":"2471390","placeName":"Phoenix","searchUrl":"http:\/\/twitter.com\/search?q=Archives","trendMapped":"archives","trendVolume":457990},{"stateName":"AZ","trendName":"Merle Haggard","placeID":"2471390","placeName":"Phoenix","searchUrl":"http:\/\/twitter.com\/search?q=%22Merle+Haggard%22","trendMapped":"Merle+Haggard","trendVolume":179060},{"stateName":"AZ","trendName":"Wolfsburg","placeID":"2508428","placeName":"Tucson","searchUrl":"http:\/\/twitter.com\/search?q=Wolfsburg","trendMapped":"wolfsburg","trendVolume":258031},{"stateName":"CA","trendName":"#4YearsWithEXO","placeID":"2488042","placeName":"San Jose","searchUrl":"http:\/\/twitter.com\/search?q=%234YearsWithEXO","trendMapped":"4+years+with+exo","trendVolume":788610},{"stateName":"CA","trendName":"#Arrow","placeID":"2487956","placeName":"San Francisco","searchUrl":"http:\/\/twitter.com\/search?q=%23Arrow","trendMapped":"arrow","trendVolume":53775},{"stateName":"CA","trendName":"#Empire","placeID":"2488042","placeName":"San Jose","searchUrl":"http:\/\/twitter.com\/search?q=%23Empire","trendMapped":"empire","trendVolume":229711},{"stateName":"CA","trendName":"#HillarySoQualified","placeID":"2488042","placeName":"San Jose","searchUrl":"http:\/\/twitter.com\/search?q=%23HillarySoQualified","trendMapped":"hillary+so+qualified","trendVolume":235640},{"stateName":"CA","trendName":"#NationalBeerDay","placeID":"2488042","placeName":"San Jose","searchUrl":"http:\/\/twitter.com\/search?q=%23NationalBeerDay","trendMapped":"national+beer+day","trendVolume":118770},{"stateName":"CA","trendName":"#WorldHealthDay","placeID":"2407517","placeName":"Fresno","searchUrl":"http:\/\/twitter.com\/search?q=%23WorldHealthDay","trendMapped":"world+health+day","trendVolume":180150},{"stateName":"CA","trendName":"Archives","placeID":"2488042","placeName":"San Jose","searchUrl":"http:\/\/twitter.com\/search?q=Archives","trendMapped":"archives","trendVolume":463022},{"stateName":"CA","trendName":"Merle Haggard","placeID":"2487956","placeName":"San Francisco","searchUrl":"http:\/\/twitter.com\/search?q=%22Merle+Haggard%22","trendMapped":"Merle+Haggard","trendVolume":174827},{"stateName":"CA","trendName":"Star Wars","placeID":"2487889","placeName":"San Diego","searchUrl":"http:\/\/twitter.com\/search?q=%22Star+Wars%22","trendMapped":"Star+Wars","trendVolume":373516},{"stateName":"CA","trendName":"Wolfsburg","placeID":"2488042","placeName":"San Jose","searchUrl":"http:\/\/twitter.com\/search?q=Wolfsburg","trendMapped":"wolfsburg","trendVolume":255787},{"stateName":"CO","trendName":"#4YearsWithEXO","placeID":"2391279","placeName":"Denver","searchUrl":"http:\/\/twitter.com\/search?q=%234YearsWithEXO","trendMapped":"4+years+with+exo","trendVolume":788610},{"stateName":"CO","trendName":"#Empire","placeID":"2391279","placeName":"Denver","searchUrl":"http:\/\/twitter.com\/search?q=%23Empire","trendMapped":"empire","trendVolume":222762},{"stateName":"CO","trendName":"#HillarySoQualified","placeID":"2391279","placeName":"Denver","searchUrl":"http:\/\/twitter.com\/search?q=%23HillarySoQualified","trendMapped":"hillary+so+qualified","trendVolume":241761},{"stateName":"CO","trendName":"#NationalBeerDay","placeID":"2383489","placeName":"Colorado Springs","searchUrl":"http:\/\/twitter.com\/search?q=%23NationalBeerDay","trendMapped":"national+beer+day","trendVolume":107933},{"stateName":"CO","trendName":"#WorldHealthDay","placeID":"2383489","placeName":"Colorado Springs","searchUrl":"http:\/\/twitter.com\/search?q=%23WorldHealthDay","trendMapped":"world+health+day","trendVolume":180150},{"stateName":"CO","trendName":"Archives","placeID":"2383489","placeName":"Colorado Springs","searchUrl":"http:\/\/twitter.com\/search?q=Archives","trendMapped":"archives","trendVolume":442006},{"stateName":"CT","trendName":"#4YearsWithEXO","placeID":"2458410","placeName":"New Haven","searchUrl":"http:\/\/twitter.com\/search?q=%234YearsWithEXO","trendMapped":"4+years+with+exo","trendVolume":772535},{"stateName":"CT","trendName":"#Empire","placeID":"2458410","placeName":"New Haven","searchUrl":"http:\/\/twitter.com\/search?q=%23Empire","trendMapped":"empire","trendVolume":222291},{"stateName":"CT","trendName":"#NationalBeerDay","placeID":"2458410","placeName":"New Haven","searchUrl":"http:\/\/twitter.com\/search?q=%23NationalBeerDay","trendMapped":"national+beer+day","trendVolume":117755},{"stateName":"CT","trendName":"#WisconsinPrimary","placeID":"2458410","placeName":"New Haven","searchUrl":"http:\/\/twitter.com\/search?q=%23WisconsinPrimary","trendMapped":"wisconsin+primary","trendVolume":82269},{"stateName":"CT","trendName":"Archives","placeID":"2458410","placeName":"New Haven","searchUrl":"http:\/\/twitter.com\/search?q=Archives","trendMapped":"archives","trendVolume":442006},{"stateName":"CT","trendName":"Masters","placeID":"2458410","placeName":"New Haven","searchUrl":"http:\/\/twitter.com\/search?q=Masters","trendMapped":"masters","trendVolume":191382},{"stateName":"CT","trendName":"Real Madrid","placeID":"2458410","placeName":"New Haven","searchUrl":"http:\/\/twitter.com\/search?q=%22Real+Madrid%22","trendMapped":"Real+Madrid","trendVolume":332909},{"stateName":"DC","trendName":"#4YearsWithEXO","placeID":"2514815","placeName":"Washington","searchUrl":"http:\/\/twitter.com\/search?q=%234YearsWithEXO","trendMapped":"4+years+with+exo","trendVolume":783695},{"stateName":"DC","trendName":"#Empire","placeID":"2514815","placeName":"Washington","searchUrl":"http:\/\/twitter.com\/search?q=%23Empire","trendMapped":"empire","trendVolume":222762},{"stateName":"DC","trendName":"#HillarySoQualified","placeID":"2514815","placeName":"Washington","searchUrl":"http:\/\/twitter.com\/search?q=%23HillarySoQualified","trendMapped":"hillary+so+qualified","trendVolume":153485},{"stateName":"DC","trendName":"#NationalBeerDay","placeID":"2514815","placeName":"Washington","searchUrl":"http:\/\/twitter.com\/search?q=%23NationalBeerDay","trendMapped":"national+beer+day","trendVolume":120883},{"stateName":"DC","trendName":"Liverpool","placeID":"2514815","placeName":"Washington","searchUrl":"http:\/\/twitter.com\/search?q=Liverpool","trendMapped":"liverpool","trendVolume":213474},{"stateName":"FL","trendName":"#4YearsWithEXO","placeID":"2503863","placeName":"Tampa","searchUrl":"http:\/\/twitter.com\/search?q=%234YearsWithEXO","trendMapped":"4+years+with+exo","trendVolume":852498},{"stateName":"FL","trendName":"#BlackGirlsRock","placeID":"2450022","placeName":"Miami","searchUrl":"http:\/\/twitter.com\/search?q=%23BlackGirlsRock","trendMapped":"black+girls+rock","trendVolume":161613},{"stateName":"FL","trendName":"#Empire","placeID":"2503863","placeName":"Tampa","searchUrl":"http:\/\/twitter.com\/search?q=%23Empire","trendMapped":"empire","trendVolume":233142},{"stateName":"FL","trendName":"#HillarySoQualified","placeID":"2503863","placeName":"Tampa","searchUrl":"http:\/\/twitter.com\/search?q=%23HillarySoQualified","trendMapped":"hillary+so+qualified","trendVolume":238758},{"stateName":"FL","trendName":"#NationalBeerDay","placeID":"2503713","placeName":"Tallahassee","searchUrl":"http:\/\/twitter.com\/search?q=%23NationalBeerDay","trendMapped":"national+beer+day","trendVolume":112638},{"stateName":"FL","trendName":"#RogueOne","placeID":"2450022","placeName":"Miami","searchUrl":"http:\/\/twitter.com\/search?q=%23RogueOne","trendMapped":"rogue+one","trendVolume":223436},{"stateName":"FL","trendName":"#WorldHealthDay","placeID":"2503713","placeName":"Tallahassee","searchUrl":"http:\/\/twitter.com\/search?q=%23WorldHealthDay","trendMapped":"world+health+day","trendVolume":181444},{"stateName":"FL","trendName":"Archives","placeID":"2503863","placeName":"Tampa","searchUrl":"http:\/\/twitter.com\/search?q=Archives","trendMapped":"archives","trendVolume":457990},{"stateName":"FL","trendName":"Merle Haggard","placeID":"2466256","placeName":"Orlando","searchUrl":"http:\/\/twitter.com\/search?q=%22Merle+Haggard%22","trendMapped":"Merle+Haggard","trendVolume":182971},{"stateName":"FL","trendName":"Rogue One","placeID":"2503863","placeName":"Tampa","searchUrl":"http:\/\/twitter.com\/search?q=%22Rogue+One%22","trendMapped":"Rogue+One","trendVolume":213579},{"stateName":"FL","trendName":"Star Wars","placeID":"2428344","placeName":"Jacksonville","searchUrl":"http:\/\/twitter.com\/search?q=%22Star+Wars%22","trendMapped":"Star+Wars","trendVolume":232185},{"stateName":"FL","trendName":"Wolfsburg","placeID":"2466256","placeName":"Orlando","searchUrl":"http:\/\/twitter.com\/search?q=Wolfsburg","trendMapped":"wolfsburg","trendVolume":255300},{"stateName":"GA","trendName":"#Empire","placeID":"2357024","placeName":"Atlanta","searchUrl":"http:\/\/twitter.com\/search?q=%23Empire","trendMapped":"empire","trendVolume":229476},{"stateName":"GA","trendName":"Archives","placeID":"2357024","placeName":"Atlanta","searchUrl":"http:\/\/twitter.com\/search?q=Archives","trendMapped":"archives","trendVolume":445066},{"stateName":"GA","trendName":"Papeles de Panam\u00e1","placeID":"2357024","placeName":"Atlanta","searchUrl":"http:\/\/twitter.com\/search?q=%22Papeles+de+Panam%C3%A1%22","trendMapped":"Papeles+de+Panam\u00e1","trendVolume":86256},{"stateName":"GA","trendName":"Rogue One","placeID":"2357024","placeName":"Atlanta","searchUrl":"http:\/\/twitter.com\/search?q=%22Rogue+One%22","trendMapped":"Rogue+One","trendVolume":342173},{"stateName":"GA","trendName":"Wolfsburg","placeID":"2357024","placeName":"Atlanta","searchUrl":"http:\/\/twitter.com\/search?q=Wolfsburg","trendMapped":"wolfsburg","trendVolume":255300},{"stateName":"HI","trendName":"#4YearsWithEXO","placeID":"2423945","placeName":"Honolulu","searchUrl":"http:\/\/twitter.com\/search?q=%234YearsWithEXO","trendMapped":"4+years+with+exo","trendVolume":723891},{"stateName":"HI","trendName":"Panama Papers","placeID":"2423945","placeName":"Honolulu","searchUrl":"http:\/\/twitter.com\/search?q=%22Panama+Papers%22","trendMapped":"Panama+Papers","trendVolume":314470},{"stateName":"HI","trendName":"Trump","placeID":"2423945","placeName":"Honolulu","searchUrl":"http:\/\/twitter.com\/search?q=Trump","trendMapped":"trump","trendVolume":886269},{"stateName":"IL","trendName":"#4YearsWithEXO","placeID":"2379574","placeName":"Chicago","searchUrl":"http:\/\/twitter.com\/search?q=%234YearsWithEXO","trendMapped":"4+years+with+exo","trendVolume":484465},{"stateName":"IL","trendName":"#Empire","placeID":"2379574","placeName":"Chicago","searchUrl":"http:\/\/twitter.com\/search?q=%23Empire","trendMapped":"empire","trendVolume":229233},{"stateName":"IL","trendName":"Wolfsburg","placeID":"2379574","placeName":"Chicago","searchUrl":"http:\/\/twitter.com\/search?q=Wolfsburg","trendMapped":"wolfsburg","trendVolume":254865},{"stateName":"IN","trendName":"#4YearsWithEXO","placeID":"2427032","placeName":"Indianapolis","searchUrl":"http:\/\/twitter.com\/search?q=%234YearsWithEXO","trendMapped":"4+years+with+exo","trendVolume":788610},{"stateName":"IN","trendName":"#Empire","placeID":"2427032","placeName":"Indianapolis","searchUrl":"http:\/\/twitter.com\/search?q=%23Empire","trendMapped":"empire","trendVolume":230192},{"stateName":"IN","trendName":"Star Wars","placeID":"2427032","placeName":"Indianapolis","searchUrl":"http:\/\/twitter.com\/search?q=%22Star+Wars%22","trendMapped":"Star+Wars","trendVolume":382763},{"stateName":"KY","trendName":"#4YearsWithEXO","placeID":"2442327","placeName":"Louisville","searchUrl":"http:\/\/twitter.com\/search?q=%234YearsWithEXO","trendMapped":"4+years+with+exo","trendVolume":778461},{"stateName":"KY","trendName":"Hillary","placeID":"2442327","placeName":"Louisville","searchUrl":"http:\/\/twitter.com\/search?q=Hillary","trendMapped":"hillary","trendVolume":291545},{"stateName":"KY","trendName":"Panama Papers","placeID":"2442327","placeName":"Louisville","searchUrl":"http:\/\/twitter.com\/search?q=%22Panama+Papers%22","trendMapped":"Panama+Papers","trendVolume":389721},{"stateName":"KY","trendName":"Rogue One","placeID":"2442327","placeName":"Louisville","searchUrl":"http:\/\/twitter.com\/search?q=%22Rogue+One%22","trendMapped":"Rogue+One","trendVolume":340573},{"stateName":"LA","trendName":"#4YearsWithEXO","placeID":"2458833","placeName":"New Orleans","searchUrl":"http:\/\/twitter.com\/search?q=%234YearsWithEXO","trendMapped":"4+years+with+exo","trendVolume":783695},{"stateName":"LA","trendName":"#Empire","placeID":"2458833","placeName":"New Orleans","searchUrl":"http:\/\/twitter.com\/search?q=%23Empire","trendMapped":"empire","trendVolume":230343},{"stateName":"LA","trendName":"#HillarySoQualified","placeID":"2458833","placeName":"New Orleans","searchUrl":"http:\/\/twitter.com\/search?q=%23HillarySoQualified","trendMapped":"hillary+so+qualified","trendVolume":238758},{"stateName":"LA","trendName":"America","placeID":"2359991","placeName":"Baton Rouge","searchUrl":"http:\/\/twitter.com\/search?q=America","trendMapped":"america","trendVolume":292176},{"stateName":"LA","trendName":"Archives","placeID":"2458833","placeName":"New Orleans","searchUrl":"http:\/\/twitter.com\/search?q=Archives","trendMapped":"archives","trendVolume":447328},{"stateName":"LA","trendName":"Bernie","placeID":"2359991","placeName":"Baton Rouge","searchUrl":"http:\/\/twitter.com\/search?q=Bernie","trendMapped":"bernie","trendVolume":352062},{"stateName":"LA","trendName":"Bernie Sanders","placeID":"2458833","placeName":"New Orleans","searchUrl":"http:\/\/twitter.com\/search?q=%22Bernie+Sanders%22","trendMapped":"Bernie+Sanders","trendVolume":195875},{"stateName":"LA","trendName":"Rogue One","placeID":"2359991","placeName":"Baton Rouge","searchUrl":"http:\/\/twitter.com\/search?q=%22Rogue+One%22","trendMapped":"Rogue+One","trendVolume":328675},{"stateName":"MA","trendName":"#4YearsWithEXO","placeID":"2367105","placeName":"Boston","searchUrl":"http:\/\/twitter.com\/search?q=%234YearsWithEXO","trendMapped":"4+years+with+exo","trendVolume":757052},{"stateName":"MA","trendName":"#Empire","placeID":"2367105","placeName":"Boston","searchUrl":"http:\/\/twitter.com\/search?q=%23Empire","trendMapped":"empire","trendVolume":227946},{"stateName":"MA","trendName":"#HillarySoQualified","placeID":"2367105","placeName":"Boston","searchUrl":"http:\/\/twitter.com\/search?q=%23HillarySoQualified","trendMapped":"hillary+so+qualified","trendVolume":155104},{"stateName":"MA","trendName":"#RogueOne","placeID":"2367105","placeName":"Boston","searchUrl":"http:\/\/twitter.com\/search?q=%23RogueOne","trendMapped":"rogue+one","trendVolume":225650},{"stateName":"MD","trendName":"#4YearsWithEXO","placeID":"2358820","placeName":"Baltimore","searchUrl":"http:\/\/twitter.com\/search?q=%234YearsWithEXO","trendMapped":"4+years+with+exo","trendVolume":746764},{"stateName":"MD","trendName":"#Empire","placeID":"2358820","placeName":"Baltimore","searchUrl":"http:\/\/twitter.com\/search?q=%23Empire","trendMapped":"empire","trendVolume":233511},{"stateName":"MD","trendName":"Wolfsburg","placeID":"2358820","placeName":"Baltimore","searchUrl":"http:\/\/twitter.com\/search?q=Wolfsburg","trendMapped":"wolfsburg","trendVolume":255787},{"stateName":"MI","trendName":"#4YearsWithEXO","placeID":"2391585","placeName":"Detroit","searchUrl":"http:\/\/twitter.com\/search?q=%234YearsWithEXO","trendMapped":"4+years+with+exo","trendVolume":788610},{"stateName":"MI","trendName":"#Empire","placeID":"2391585","placeName":"Detroit","searchUrl":"http:\/\/twitter.com\/search?q=%23Empire","trendMapped":"empire","trendVolume":204644},{"stateName":"MI","trendName":"#HillarySoQualified","placeID":"2391585","placeName":"Detroit","searchUrl":"http:\/\/twitter.com\/search?q=%23HillarySoQualified","trendMapped":"hillary+so+qualified","trendVolume":240255},{"stateName":"MI","trendName":"Star Wars","placeID":"2391585","placeName":"Detroit","searchUrl":"http:\/\/twitter.com\/search?q=%22Star+Wars%22","trendMapped":"Star+Wars","trendVolume":384906},{"stateName":"MN","trendName":"#4YearsWithEXO","placeID":"2452078","placeName":"Minneapolis","searchUrl":"http:\/\/twitter.com\/search?q=%234YearsWithEXO","trendMapped":"4+years+with+exo","trendVolume":778461},{"stateName":"MN","trendName":"#Empire","placeID":"2452078","placeName":"Minneapolis","searchUrl":"http:\/\/twitter.com\/search?q=%23Empire","trendMapped":"empire","trendVolume":222762},{"stateName":"MN","trendName":"#HillarySoQualified","placeID":"2452078","placeName":"Minneapolis","searchUrl":"http:\/\/twitter.com\/search?q=%23HillarySoQualified","trendMapped":"hillary+so+qualified","trendVolume":230831},{"stateName":"MN","trendName":"Archives","placeID":"2452078","placeName":"Minneapolis","searchUrl":"http:\/\/twitter.com\/search?q=Archives","trendMapped":"archives","trendVolume":457990},{"stateName":"MN","trendName":"Rogue One","placeID":"2452078","placeName":"Minneapolis","searchUrl":"http:\/\/twitter.com\/search?q=%22Rogue+One%22","trendMapped":"Rogue+One","trendVolume":335431},{"stateName":"MO","trendName":"#4YearsWithEXO","placeID":"2486982","placeName":"St. Louis","searchUrl":"http:\/\/twitter.com\/search?q=%234YearsWithEXO","trendMapped":"4+years+with+exo","trendVolume":783695},{"stateName":"MO","trendName":"#Empire","placeID":"2486982","placeName":"St. Louis","searchUrl":"http:\/\/twitter.com\/search?q=%23Empire","trendMapped":"empire","trendVolume":232930},{"stateName":"MO","trendName":"#HillarySoQualified","placeID":"2486982","placeName":"St. Louis","searchUrl":"http:\/\/twitter.com\/search?q=%23HillarySoQualified","trendMapped":"hillary+so+qualified","trendVolume":234027},{"stateName":"MO","trendName":"#RogueOne","placeID":"2430683","placeName":"Kansas City","searchUrl":"http:\/\/twitter.com\/search?q=%23RogueOne","trendMapped":"rogue+one","trendVolume":226825},{"stateName":"MO","trendName":"Clinton","placeID":"2430683","placeName":"Kansas City","searchUrl":"http:\/\/twitter.com\/search?q=Clinton","trendMapped":"clinton","trendVolume":255723},{"stateName":"MO","trendName":"Merle Haggard","placeID":"2430683","placeName":"Kansas City","searchUrl":"http:\/\/twitter.com\/search?q=%22Merle+Haggard%22","trendMapped":"Merle+Haggard","trendVolume":182971},{"stateName":"MO","trendName":"Wolfsburg","placeID":"2486982","placeName":"St. Louis","searchUrl":"http:\/\/twitter.com\/search?q=Wolfsburg","trendMapped":"wolfsburg","trendVolume":254473},{"stateName":"MS","trendName":"#4YearsWithEXO","placeID":"2428184","placeName":"Jackson","searchUrl":"http:\/\/twitter.com\/search?q=%234YearsWithEXO","trendMapped":"4+years+with+exo","trendVolume":778461},{"stateName":"MS","trendName":"#Empire","placeID":"2428184","placeName":"Jackson","searchUrl":"http:\/\/twitter.com\/search?q=%23Empire","trendMapped":"empire","trendVolume":233141},{"stateName":"MS","trendName":"Drake","placeID":"2428184","placeName":"Jackson","searchUrl":"http:\/\/twitter.com\/search?q=Drake","trendMapped":"drake","trendVolume":237073},{"stateName":"MS","trendName":"Wolfsburg","placeID":"2428184","placeName":"Jackson","searchUrl":"http:\/\/twitter.com\/search?q=Wolfsburg","trendMapped":"wolfsburg","trendVolume":255787},{"stateName":"NC","trendName":"#4YearsWithEXO","placeID":"2478307","placeName":"Raleigh","searchUrl":"http:\/\/twitter.com\/search?q=%234YearsWithEXO","trendMapped":"4+years+with+exo","trendVolume":788610},{"stateName":"NC","trendName":"#Empire","placeID":"2478307","placeName":"Raleigh","searchUrl":"http:\/\/twitter.com\/search?q=%23Empire","trendMapped":"empire","trendVolume":229887},{"stateName":"NC","trendName":"#HillarySoQualified","placeID":"2414469","placeName":"Greensboro","searchUrl":"http:\/\/twitter.com\/search?q=%23HillarySoQualified","trendMapped":"hillary+so+qualified","trendVolume":244302},{"stateName":"NC","trendName":"#RogueOne","placeID":"2478307","placeName":"Raleigh","searchUrl":"http:\/\/twitter.com\/search?q=%23RogueOne","trendMapped":"rogue+one","trendVolume":225575},{"stateName":"NC","trendName":"Archives","placeID":"2478307","placeName":"Raleigh","searchUrl":"http:\/\/twitter.com\/search?q=Archives","trendMapped":"archives","trendVolume":463022},{"stateName":"NC","trendName":"Merle Haggard","placeID":"2478307","placeName":"Raleigh","searchUrl":"http:\/\/twitter.com\/search?q=%22Merle+Haggard%22","trendMapped":"Merle+Haggard","trendVolume":175586},{"stateName":"NE","trendName":"#4YearsWithEXO","placeID":"2465512","placeName":"Omaha","searchUrl":"http:\/\/twitter.com\/search?q=%234YearsWithEXO","trendMapped":"4+years+with+exo","trendVolume":760238},{"stateName":"NE","trendName":"#HillarySoQualified","placeID":"2465512","placeName":"Omaha","searchUrl":"http:\/\/twitter.com\/search?q=%23HillarySoQualified","trendMapped":"hillary+so+qualified","trendVolume":237270},{"stateName":"NE","trendName":"Archives","placeID":"2465512","placeName":"Omaha","searchUrl":"http:\/\/twitter.com\/search?q=Archives","trendMapped":"archives","trendVolume":450007},{"stateName":"NE","trendName":"Hillary","placeID":"2465512","placeName":"Omaha","searchUrl":"http:\/\/twitter.com\/search?q=Hillary","trendMapped":"hillary","trendVolume":296182},{"stateName":"NE","trendName":"Merle Haggard","placeID":"2465512","placeName":"Omaha","searchUrl":"http:\/\/twitter.com\/search?q=%22Merle+Haggard%22","trendMapped":"Merle+Haggard","trendVolume":219483},{"stateName":"NM","trendName":"#4YearsWithEXO","placeID":"2352824","placeName":"Albuquerque","searchUrl":"http:\/\/twitter.com\/search?q=%234YearsWithEXO","trendMapped":"4+years+with+exo","trendVolume":723891},{"stateName":"NM","trendName":"#Empire","placeID":"2352824","placeName":"Albuquerque","searchUrl":"http:\/\/twitter.com\/search?q=%23Empire","trendMapped":"empire","trendVolume":204644},{"stateName":"NM","trendName":"#NationalBeerDay","placeID":"2352824","placeName":"Albuquerque","searchUrl":"http:\/\/twitter.com\/search?q=%23NationalBeerDay","trendMapped":"national+beer+day","trendVolume":120883},{"stateName":"NM","trendName":"#WorldHealthDay","placeID":"2352824","placeName":"Albuquerque","searchUrl":"http:\/\/twitter.com\/search?q=%23WorldHealthDay","trendMapped":"world+health+day","trendVolume":176697},{"stateName":"NM","trendName":"Archives","placeID":"2352824","placeName":"Albuquerque","searchUrl":"http:\/\/twitter.com\/search?q=Archives","trendMapped":"archives","trendVolume":445066},{"stateName":"NV","trendName":"#4YearsWithEXO","placeID":"2436704","placeName":"Las Vegas","searchUrl":"http:\/\/twitter.com\/search?q=%234YearsWithEXO","trendMapped":"4+years+with+exo","trendVolume":736354},{"stateName":"NV","trendName":"#Empire","placeID":"2436704","placeName":"Las Vegas","searchUrl":"http:\/\/twitter.com\/search?q=%23Empire","trendMapped":"empire","trendVolume":230318},{"stateName":"NV","trendName":"#RogueOne","placeID":"2436704","placeName":"Las Vegas","searchUrl":"http:\/\/twitter.com\/search?q=%23RogueOne","trendMapped":"rogue+one","trendVolume":223418},{"stateName":"NV","trendName":"#WednesdayWisdom","placeID":"2436704","placeName":"Las Vegas","searchUrl":"http:\/\/twitter.com\/search?q=%23WednesdayWisdom","trendMapped":"wednesday+wisdom","trendVolume":75552},{"stateName":"NY","trendName":"#4YearsWithEXO","placeID":"2459115","placeName":"New York","searchUrl":"http:\/\/twitter.com\/search?q=%234YearsWithEXO","trendMapped":"4+years+with+exo","trendVolume":746764},{"stateName":"NY","trendName":"#HillarySoQualified","placeID":"2459115","placeName":"New York","searchUrl":"http:\/\/twitter.com\/search?q=%23HillarySoQualified","trendMapped":"hillary+so+qualified","trendVolume":149931},{"stateName":"NY","trendName":"#WorldHealthDay","placeID":"2459115","placeName":"New York","searchUrl":"http:\/\/twitter.com\/search?q=%23WorldHealthDay","trendMapped":"world+health+day","trendVolume":180150},{"stateName":"NY","trendName":"Archives","placeID":"2459115","placeName":"New York","searchUrl":"http:\/\/twitter.com\/search?q=Archives","trendMapped":"archives","trendVolume":463022},{"stateName":"NY","trendName":"Merle Haggard","placeID":"2459115","placeName":"New York","searchUrl":"http:\/\/twitter.com\/search?q=%22Merle+Haggard%22","trendMapped":"Merle+Haggard","trendVolume":177035},{"stateName":"OH","trendName":"#4YearsWithEXO","placeID":"2383660","placeName":"Columbus","searchUrl":"http:\/\/twitter.com\/search?q=%234YearsWithEXO","trendMapped":"4+years+with+exo","trendVolume":781948},{"stateName":"OH","trendName":"#Empire","placeID":"2383660","placeName":"Columbus","searchUrl":"http:\/\/twitter.com\/search?q=%23Empire","trendMapped":"empire","trendVolume":233142},{"stateName":"OH","trendName":"#HillarySoQualified","placeID":"2383660","placeName":"Columbus","searchUrl":"http:\/\/twitter.com\/search?q=%23HillarySoQualified","trendMapped":"hillary+so+qualified","trendVolume":244302},{"stateName":"OH","trendName":"#RogueOne","placeID":"2383660","placeName":"Columbus","searchUrl":"http:\/\/twitter.com\/search?q=%23RogueOne","trendMapped":"rogue+one","trendVolume":219770},{"stateName":"OH","trendName":"Archives","placeID":"2383660","placeName":"Columbus","searchUrl":"http:\/\/twitter.com\/search?q=Archives","trendMapped":"archives","trendVolume":450007},{"stateName":"OH","trendName":"Bernie Sanders","placeID":"2380358","placeName":"Cincinnati","searchUrl":"http:\/\/twitter.com\/search?q=%22Bernie+Sanders%22","trendMapped":"Bernie+Sanders","trendVolume":197016},{"stateName":"OH","trendName":"Merle Haggard","placeID":"2383660","placeName":"Columbus","searchUrl":"http:\/\/twitter.com\/search?q=%22Merle+Haggard%22","trendMapped":"Merle+Haggard","trendVolume":174827},{"stateName":"OH","trendName":"Rogue One","placeID":"2381475","placeName":"Cleveland","searchUrl":"http:\/\/twitter.com\/search?q=%22Rogue+One%22","trendMapped":"Rogue+One","trendVolume":333598},{"stateName":"OH","trendName":"Star Wars","placeID":"2381475","placeName":"Cleveland","searchUrl":"http:\/\/twitter.com\/search?q=%22Star+Wars%22","trendMapped":"Star+Wars","trendVolume":385940},{"stateName":"OH","trendName":"Wolfsburg","placeID":"2381475","placeName":"Cleveland","searchUrl":"http:\/\/twitter.com\/search?q=Wolfsburg","trendMapped":"wolfsburg","trendVolume":257592},{"stateName":"OK","trendName":"#4YearsWithEXO","placeID":"2464592","placeName":"Oklahoma City","searchUrl":"http:\/\/twitter.com\/search?q=%234YearsWithEXO","trendMapped":"4+years+with+exo","trendVolume":686372},{"stateName":"OK","trendName":"#HillarySoQualified","placeID":"2464592","placeName":"Oklahoma City","searchUrl":"http:\/\/twitter.com\/search?q=%23HillarySoQualified","trendMapped":"hillary+so+qualified","trendVolume":244302},{"stateName":"OK","trendName":"Archives","placeID":"2464592","placeName":"Oklahoma City","searchUrl":"http:\/\/twitter.com\/search?q=Archives","trendMapped":"archives","trendVolume":457990},{"stateName":"OK","trendName":"House","placeID":"2464592","placeName":"Oklahoma City","searchUrl":"http:\/\/twitter.com\/search?q=House","trendMapped":"house","trendVolume":486378},{"stateName":"OR","trendName":"#4YearsWithEXO","placeID":"2475687","placeName":"Portland","searchUrl":"http:\/\/twitter.com\/search?q=%234YearsWithEXO","trendMapped":"4+years+with+exo","trendVolume":778461},{"stateName":"OR","trendName":"#Empire","placeID":"2475687","placeName":"Portland","searchUrl":"http:\/\/twitter.com\/search?q=%23Empire","trendMapped":"empire","trendVolume":219437},{"stateName":"OR","trendName":"#PanamaPapers","placeID":"2475687","placeName":"Portland","searchUrl":"http:\/\/twitter.com\/search?q=%23PanamaPapers","trendMapped":"panama+papers","trendVolume":379993},{"stateName":"OR","trendName":"Archives","placeID":"2475687","placeName":"Portland","searchUrl":"http:\/\/twitter.com\/search?q=Archives","trendMapped":"archives","trendVolume":457990},{"stateName":"OR","trendName":"Merle Haggard","placeID":"2475687","placeName":"Portland","searchUrl":"http:\/\/twitter.com\/search?q=%22Merle+Haggard%22","trendMapped":"Merle+Haggard","trendVolume":219483},{"stateName":"OR","trendName":"Rogue One","placeID":"2475687","placeName":"Portland","searchUrl":"http:\/\/twitter.com\/search?q=%22Rogue+One%22","trendMapped":"Rogue+One","trendVolume":342173},{"stateName":"PA","trendName":"#4YearsWithEXO","placeID":"2473224","placeName":"Pittsburgh","searchUrl":"http:\/\/twitter.com\/search?q=%234YearsWithEXO","trendMapped":"4+years+with+exo","trendVolume":785360},{"stateName":"PA","trendName":"#Empire","placeID":"2473224","placeName":"Pittsburgh","searchUrl":"http:\/\/twitter.com\/search?q=%23Empire","trendMapped":"empire","trendVolume":206618},{"stateName":"PA","trendName":"#HillarySoQualified","placeID":"2473224","placeName":"Pittsburgh","searchUrl":"http:\/\/twitter.com\/search?q=%23HillarySoQualified","trendMapped":"hillary+so+qualified","trendVolume":242622},{"stateName":"PA","trendName":"#NationalBeerDay","placeID":"2471217","placeName":"Philadelphia","searchUrl":"http:\/\/twitter.com\/search?q=%23NationalBeerDay","trendMapped":"national+beer+day","trendVolume":106964},{"stateName":"PA","trendName":"#WorldHealthDay","placeID":"2471217","placeName":"Philadelphia","searchUrl":"http:\/\/twitter.com\/search?q=%23WorldHealthDay","trendMapped":"world+health+day","trendVolume":175238},{"stateName":"PA","trendName":"Archives","placeID":"2471217","placeName":"Philadelphia","searchUrl":"http:\/\/twitter.com\/search?q=Archives","trendMapped":"archives","trendVolume":457990},{"stateName":"PA","trendName":"Hillary","placeID":"2418046","placeName":"Harrisburg","searchUrl":"http:\/\/twitter.com\/search?q=Hillary","trendMapped":"hillary","trendVolume":288343},{"stateName":"PA","trendName":"Merle Haggard","placeID":"2471217","placeName":"Philadelphia","searchUrl":"http:\/\/twitter.com\/search?q=%22Merle+Haggard%22","trendMapped":"Merle+Haggard","trendVolume":177035},{"stateName":"PA","trendName":"Sanders","placeID":"2418046","placeName":"Harrisburg","searchUrl":"http:\/\/twitter.com\/search?q=Sanders","trendMapped":"sanders","trendVolume":380956},{"stateName":"PA","trendName":"Star Wars","placeID":"2473224","placeName":"Pittsburgh","searchUrl":"http:\/\/twitter.com\/search?q=%22Star+Wars%22","trendMapped":"Star+Wars","trendVolume":389053},{"stateName":"PA","trendName":"Wolfsburg","placeID":"2473224","placeName":"Pittsburgh","searchUrl":"http:\/\/twitter.com\/search?q=Wolfsburg","trendMapped":"wolfsburg","trendVolume":254473},{"stateName":"RI","trendName":"#4YearsWithEXO","placeID":"2477058","placeName":"Providence","searchUrl":"http:\/\/twitter.com\/search?q=%234YearsWithEXO","trendMapped":"4+years+with+exo","trendVolume":746764},{"stateName":"RI","trendName":"#Empire","placeID":"2477058","placeName":"Providence","searchUrl":"http:\/\/twitter.com\/search?q=%23Empire","trendMapped":"empire","trendVolume":229103},{"stateName":"RI","trendName":"#HillarySoQualified","placeID":"2477058","placeName":"Providence","searchUrl":"http:\/\/twitter.com\/search?q=%23HillarySoQualified","trendMapped":"hillary+so+qualified","trendVolume":245560},{"stateName":"RI","trendName":"#PanamaPapers","placeID":"2477058","placeName":"Providence","searchUrl":"http:\/\/twitter.com\/search?q=%23PanamaPapers","trendMapped":"panama+papers","trendVolume":379929},{"stateName":"RI","trendName":"Archives","placeID":"2477058","placeName":"Providence","searchUrl":"http:\/\/twitter.com\/search?q=Archives","trendMapped":"archives","trendVolume":445066},{"stateName":"RI","trendName":"Merle Haggard","placeID":"2477058","placeName":"Providence","searchUrl":"http:\/\/twitter.com\/search?q=%22Merle+Haggard%22","trendMapped":"Merle+Haggard","trendVolume":177035},{"stateName":"TN","trendName":"#4YearsWithEXO","placeID":"2457170","placeName":"Nashville","searchUrl":"http:\/\/twitter.com\/search?q=%234YearsWithEXO","trendMapped":"4+years+with+exo","trendVolume":783695},{"stateName":"TN","trendName":"#Arrow","placeID":"2457170","placeName":"Nashville","searchUrl":"http:\/\/twitter.com\/search?q=%23Arrow","trendMapped":"arrow","trendVolume":45789},{"stateName":"TN","trendName":"#Empire","placeID":"2457170","placeName":"Nashville","searchUrl":"http:\/\/twitter.com\/search?q=%23Empire","trendMapped":"empire","trendVolume":219437},{"stateName":"TN","trendName":"Archives","placeID":"2449323","placeName":"Memphis","searchUrl":"http:\/\/twitter.com\/search?q=Archives","trendMapped":"archives","trendVolume":455346},{"stateName":"TN","trendName":"Clinton","placeID":"2449323","placeName":"Memphis","searchUrl":"http:\/\/twitter.com\/search?q=Clinton","trendMapped":"clinton","trendVolume":263582},{"stateName":"TN","trendName":"Merle Haggard","placeID":"2449323","placeName":"Memphis","searchUrl":"http:\/\/twitter.com\/search?q=%22Merle+Haggard%22","trendMapped":"Merle+Haggard","trendVolume":181156},{"stateName":"TN","trendName":"Rogue One","placeID":"2457170","placeName":"Nashville","searchUrl":"http:\/\/twitter.com\/search?q=%22Rogue+One%22","trendMapped":"Rogue+One","trendVolume":342173},{"stateName":"TN","trendName":"Star Wars","placeID":"2449323","placeName":"Memphis","searchUrl":"http:\/\/twitter.com\/search?q=%22Star+Wars%22","trendMapped":"Star+Wars","trendVolume":389317},{"stateName":"TN","trendName":"Wolfsburg","placeID":"2449323","placeName":"Memphis","searchUrl":"http:\/\/twitter.com\/search?q=Wolfsburg","trendMapped":"wolfsburg","trendVolume":255300},{"stateName":"TX","trendName":"#4YearsWithEXO","placeID":"2487796","placeName":"San Antonio","searchUrl":"http:\/\/twitter.com\/search?q=%234YearsWithEXO","trendMapped":"4+years+with+exo","trendVolume":852498},{"stateName":"TX","trendName":"#Arrow","placeID":"2388929","placeName":"Dallas-Ft. Worth","searchUrl":"http:\/\/twitter.com\/search?q=%23Arrow","trendMapped":"arrow","trendVolume":53775},{"stateName":"TX","trendName":"#Empire","placeID":"2487796","placeName":"San Antonio","searchUrl":"http:\/\/twitter.com\/search?q=%23Empire","trendMapped":"empire","trendVolume":229684},{"stateName":"TX","trendName":"#HillarySoQualified","placeID":"2388929","placeName":"Dallas-Ft. Worth","searchUrl":"http:\/\/twitter.com\/search?q=%23HillarySoQualified","trendMapped":"hillary+so+qualified","trendVolume":244113},{"stateName":"TX","trendName":"#PanamaPapers","placeID":"2397816","placeName":"El Paso","searchUrl":"http:\/\/twitter.com\/search?q=%23PanamaPapers","trendMapped":"panama+papers","trendVolume":365276},{"stateName":"TX","trendName":"#WorldHealthDay","placeID":"2397816","placeName":"El Paso","searchUrl":"http:\/\/twitter.com\/search?q=%23WorldHealthDay","trendMapped":"world+health+day","trendVolume":181444},{"stateName":"TX","trendName":"#panamapapers","placeID":"2397816","placeName":"El Paso","searchUrl":"http:\/\/twitter.com\/search?q=%23panamapapers","trendMapped":"panamapapers","trendVolume":360689},{"stateName":"TX","trendName":"Archives","placeID":"2487796","placeName":"San Antonio","searchUrl":"http:\/\/twitter.com\/search?q=Archives","trendMapped":"archives","trendVolume":457990},{"stateName":"TX","trendName":"Bernie Sanders","placeID":"2397816","placeName":"El Paso","searchUrl":"http:\/\/twitter.com\/search?q=%22Bernie+Sanders%22","trendMapped":"Bernie+Sanders","trendVolume":146376},{"stateName":"TX","trendName":"Merle","placeID":"2357536","placeName":"Austin","searchUrl":"http:\/\/twitter.com\/search?q=Merle","trendMapped":"merle","trendVolume":220522},{"stateName":"TX","trendName":"Merle Haggard","placeID":"2487796","placeName":"San Antonio","searchUrl":"http:\/\/twitter.com\/search?q=%22Merle+Haggard%22","trendMapped":"Merle+Haggard","trendVolume":177035},{"stateName":"TX","trendName":"Rogue One","placeID":"2424766","placeName":"Houston","searchUrl":"http:\/\/twitter.com\/search?q=%22Rogue+One%22","trendMapped":"Rogue+One","trendVolume":337296},{"stateName":"TX","trendName":"Star Wars","placeID":"2487796","placeName":"San Antonio","searchUrl":"http:\/\/twitter.com\/search?q=%22Star+Wars%22","trendMapped":"Star+Wars","trendVolume":380484},{"stateName":"UT","trendName":"#4YearsWithEXO","placeID":"2487610","placeName":"Salt Lake City","searchUrl":"http:\/\/twitter.com\/search?q=%234YearsWithEXO","trendMapped":"4+years+with+exo","trendVolume":776501},{"stateName":"UT","trendName":"#Empire","placeID":"2487610","placeName":"Salt Lake City","searchUrl":"http:\/\/twitter.com\/search?q=%23Empire","trendMapped":"empire","trendVolume":223396},{"stateName":"UT","trendName":"#HillarySoQualified","placeID":"2487610","placeName":"Salt Lake City","searchUrl":"http:\/\/twitter.com\/search?q=%23HillarySoQualified","trendMapped":"hillary+so+qualified","trendVolume":245560},{"stateName":"UT","trendName":"Archives","placeID":"2487610","placeName":"Salt Lake City","searchUrl":"http:\/\/twitter.com\/search?q=Archives","trendMapped":"archives","trendVolume":463022},{"stateName":"UT","trendName":"Cruz","placeID":"2487610","placeName":"Salt Lake City","searchUrl":"http:\/\/twitter.com\/search?q=Cruz","trendMapped":"cruz","trendVolume":482712},{"stateName":"UT","trendName":"Merle Haggard","placeID":"2487610","placeName":"Salt Lake City","searchUrl":"http:\/\/twitter.com\/search?q=%22Merle+Haggard%22","trendMapped":"Merle+Haggard","trendVolume":220094},{"stateName":"VA","trendName":"#4YearsWithEXO","placeID":"2512636","placeName":"Virginia Beach","searchUrl":"http:\/\/twitter.com\/search?q=%234YearsWithEXO","trendMapped":"4+years+with+exo","trendVolume":753703},{"stateName":"VA","trendName":"#Empire","placeID":"2512636","placeName":"Virginia Beach","searchUrl":"http:\/\/twitter.com\/search?q=%23Empire","trendMapped":"empire","trendVolume":230082},{"stateName":"VA","trendName":"#HillarySoQualified","placeID":"2512636","placeName":"Virginia Beach","searchUrl":"http:\/\/twitter.com\/search?q=%23HillarySoQualified","trendMapped":"hillary+so+qualified","trendVolume":245560},{"stateName":"VA","trendName":"Archives","placeID":"2460389","placeName":"Norfolk","searchUrl":"http:\/\/twitter.com\/search?q=Archives","trendMapped":"archives","trendVolume":450007},{"stateName":"VA","trendName":"Clinton","placeID":"2460389","placeName":"Norfolk","searchUrl":"http:\/\/twitter.com\/search?q=Clinton","trendMapped":"clinton","trendVolume":325311},{"stateName":"VA","trendName":"Merle Haggard","placeID":"2480894","placeName":"Richmond","searchUrl":"http:\/\/twitter.com\/search?q=%22Merle+Haggard%22","trendMapped":"Merle+Haggard","trendVolume":219931},{"stateName":"VA","trendName":"Rogue One","placeID":"2480894","placeName":"Richmond","searchUrl":"http:\/\/twitter.com\/search?q=%22Rogue+One%22","trendMapped":"Rogue+One","trendVolume":342173},{"stateName":"VA","trendName":"Star Wars","placeID":"2460389","placeName":"Norfolk","searchUrl":"http:\/\/twitter.com\/search?q=%22Star+Wars%22","trendMapped":"Star+Wars","trendVolume":385940},{"stateName":"VA","trendName":"Wolfsburg","placeID":"2460389","placeName":"Norfolk","searchUrl":"http:\/\/twitter.com\/search?q=Wolfsburg","trendMapped":"wolfsburg","trendVolume":256546},{"stateName":"WA","trendName":"#4YearsWithEXO","placeID":"2490383","placeName":"Seattle","searchUrl":"http:\/\/twitter.com\/search?q=%234YearsWithEXO","trendMapped":"4+years+with+exo","trendVolume":785360},{"stateName":"WA","trendName":"#Empire","placeID":"2490383","placeName":"Seattle","searchUrl":"http:\/\/twitter.com\/search?q=%23Empire","trendMapped":"empire","trendVolume":230252},{"stateName":"WA","trendName":"#HillarySoQualified","placeID":"2490383","placeName":"Seattle","searchUrl":"http:\/\/twitter.com\/search?q=%23HillarySoQualified","trendMapped":"hillary+so+qualified","trendVolume":246918},{"stateName":"WA","trendName":"Archives","placeID":"2490383","placeName":"Seattle","searchUrl":"http:\/\/twitter.com\/search?q=Archives","trendMapped":"archives","trendVolume":455346},{"stateName":"WA","trendName":"Merle Haggard","placeID":"2490383","placeName":"Seattle","searchUrl":"http:\/\/twitter.com\/search?q=%22Merle+Haggard%22","trendMapped":"Merle+Haggard","trendVolume":173185},{"stateName":"WI","trendName":"#4YearsWithEXO","placeID":"2451822","placeName":"Milwaukee","searchUrl":"http:\/\/twitter.com\/search?q=%234YearsWithEXO","trendMapped":"4+years+with+exo","trendVolume":757052},{"stateName":"WI","trendName":"#Empire","placeID":"2451822","placeName":"Milwaukee","searchUrl":"http:\/\/twitter.com\/search?q=%23Empire","trendMapped":"empire","trendVolume":222762},{"stateName":"WI","trendName":"#HillarySoQualified","placeID":"2451822","placeName":"Milwaukee","searchUrl":"http:\/\/twitter.com\/search?q=%23HillarySoQualified","trendMapped":"hillary+so+qualified","trendVolume":246441},{"stateName":"WI","trendName":"Merle Haggard","placeID":"2451822","placeName":"Milwaukee","searchUrl":"http:\/\/twitter.com\/search?q=%22Merle+Haggard%22","trendMapped":"Merle+Haggard","trendVolume":182368},{"stateName":"WI","trendName":"Wolfsburg","placeID":"2451822","placeName":"Milwaukee","searchUrl":"http:\/\/twitter.com\/search?q=Wolfsburg","trendMapped":"wolfsburg","trendVolume":254865},{"stateName":"XX","trendName":"#4YearsWithEXO","placeID":"23424977","placeName":"United States","searchUrl":"http:\/\/twitter.com\/search?q=%234YearsWithEXO","trendMapped":"4+years+with+exo","trendVolume":788610},{"stateName":"XX","trendName":"#Empire","placeID":"23424977","placeName":"United States","searchUrl":"http:\/\/twitter.com\/search?q=%23Empire","trendMapped":"empire","trendVolume":221760},{"stateName":"XX","trendName":"Archives","placeID":"23424977","placeName":"United States","searchUrl":"http:\/\/twitter.com\/search?q=Archives","trendMapped":"archives","trendVolume":450007},{"stateName":"XX","trendName":"Wolfsburg","placeID":"23424977","placeName":"United States","searchUrl":"http:\/\/twitter.com\/search?q=Wolfsburg","trendMapped":"wolfsburg","trendVolume":255787}]