[{"stateName":"AL","trendName":"#10YearsOfHannahMontana","placeID":"2364559","placeName":"Birmingham","searchUrl":"http:\/\/twitter.com\/search?q=%2310YearsOfHannahMontana","trendMapped":"10+years+of+hannah+montana","trendVolume":832027},{"stateName":"AL","trendName":"#NationalPuppyDay","placeID":"2364559","placeName":"Birmingham","searchUrl":"http:\/\/twitter.com\/search?q=%23NationalPuppyDay","trendMapped":"national+puppy+day","trendVolume":921626},{"stateName":"AL","trendName":"Batman","placeID":"2364559","placeName":"Birmingham","searchUrl":"http:\/\/twitter.com\/search?q=Batman","trendMapped":"batman","trendVolume":448148},{"stateName":"AL","trendName":"Brussels","placeID":"2364559","placeName":"Birmingham","searchUrl":"http:\/\/twitter.com\/search?q=Brussels","trendMapped":"brussels","trendVolume":1081082},{"stateName":"AL","trendName":"Johan Cruyff","placeID":"2364559","placeName":"Birmingham","searchUrl":"http:\/\/twitter.com\/search?q=%22Johan+Cruyff%22","trendMapped":"Johan+Cruyff","trendVolume":955396},{"stateName":"AZ","trendName":"#10YearsOfHannahMontana","placeID":"2471390","placeName":"Phoenix","searchUrl":"http:\/\/twitter.com\/search?q=%2310YearsOfHannahMontana","trendMapped":"10+years+of+hannah+montana","trendVolume":844401},{"stateName":"AZ","trendName":"#5HTheLife","placeID":"2449808","placeName":"Mesa","searchUrl":"http:\/\/twitter.com\/search?q=%235HTheLife","trendMapped":"5+h+the+life","trendVolume":148740},{"stateName":"AZ","trendName":"#GOT7","placeID":"2449808","placeName":"Mesa","searchUrl":"http:\/\/twitter.com\/search?q=%23GOT7","trendMapped":"got7","trendVolume":558694},{"stateName":"AZ","trendName":"#NationalPuppyDay","placeID":"2508428","placeName":"Tucson","searchUrl":"http:\/\/twitter.com\/search?q=%23NationalPuppyDay","trendMapped":"national+puppy+day","trendVolume":920404},{"stateName":"AZ","trendName":"#SelenaGomez","placeID":"2471390","placeName":"Phoenix","searchUrl":"http:\/\/twitter.com\/search?q=%23SelenaGomez","trendMapped":"selena+gomez","trendVolume":100463},{"stateName":"AZ","trendName":"#Supernatural","placeID":"2471390","placeName":"Phoenix","searchUrl":"http:\/\/twitter.com\/search?q=%23Supernatural","trendMapped":"supernatural","trendVolume":68125},{"stateName":"AZ","trendName":"#WeStandWithZoe","placeID":"2508428","placeName":"Tucson","searchUrl":"http:\/\/twitter.com\/search?q=%23WeStandWithZoe","trendMapped":"we+stand+with+zoe","trendVolume":73896},{"stateName":"AZ","trendName":"#\ub808\ub4dc\ubca8\ubcb3","placeID":"2508428","placeName":"Tucson","searchUrl":"http:\/\/twitter.com\/search?q=%23%EB%A0%88%EB%93%9C%EB%B2%A8%EB%B2%B3","trendMapped":"\ub808\ub4dc\ubca8\ubcb3","trendVolume":167772},{"stateName":"AZ","trendName":"Johan Cruyff","placeID":"2508428","placeName":"Tucson","searchUrl":"http:\/\/twitter.com\/search?q=%22Johan+Cruyff%22","trendMapped":"Johan+Cruyff","trendVolume":963157},{"stateName":"AZ","trendName":"The Life","placeID":"2449808","placeName":"Mesa","searchUrl":"http:\/\/twitter.com\/search?q=%22The+Life%22","trendMapped":"The+Life","trendVolume":105362},{"stateName":"CA","trendName":"#10YearsOfHannahMontana","placeID":"2488042","placeName":"San Jose","searchUrl":"http:\/\/twitter.com\/search?q=%2310YearsOfHannahMontana","trendMapped":"10+years+of+hannah+montana","trendVolume":832027},{"stateName":"CA","trendName":"#5HTheLife","placeID":"2441472","placeName":"Long Beach","searchUrl":"http:\/\/twitter.com\/search?q=%235HTheLife","trendMapped":"5+h+the+life","trendVolume":155172},{"stateName":"CA","trendName":"#7\uc6d47\uc77c","placeID":"2407517","placeName":"Fresno","searchUrl":"http:\/\/twitter.com\/search?q=%237%EC%9B%947%EC%9D%BC","trendMapped":"7\uc6d47\uc77c","trendVolume":96923},{"stateName":"CA","trendName":"#NationalPuppyDay","placeID":"2488042","placeName":"San Jose","searchUrl":"http:\/\/twitter.com\/search?q=%23NationalPuppyDay","trendMapped":"national+puppy+day","trendVolume":920415},{"stateName":"CA","trendName":"#Supernatural","placeID":"2488042","placeName":"San Jose","searchUrl":"http:\/\/twitter.com\/search?q=%23Supernatural","trendMapped":"supernatural","trendVolume":68054},{"stateName":"CA","trendName":"#WeStandWithZoe","placeID":"2488042","placeName":"San Jose","searchUrl":"http:\/\/twitter.com\/search?q=%23WeStandWithZoe","trendMapped":"we+stand+with+zoe","trendVolume":73535},{"stateName":"CA","trendName":"Brussels","placeID":"2486340","placeName":"Sacramento","searchUrl":"http:\/\/twitter.com\/search?q=Brussels","trendMapped":"brussels","trendVolume":1128056},{"stateName":"CA","trendName":"Hannah Montana","placeID":"2488042","placeName":"San Jose","searchUrl":"http:\/\/twitter.com\/search?q=%22Hannah+Montana%22","trendMapped":"Hannah+Montana","trendVolume":203849},{"stateName":"CA","trendName":"Johan Cruyff","placeID":"2488042","placeName":"San Jose","searchUrl":"http:\/\/twitter.com\/search?q=%22Johan+Cruyff%22","trendMapped":"Johan+Cruyff","trendVolume":1042772},{"stateName":"CA","trendName":"The Life","placeID":"2441472","placeName":"Long Beach","searchUrl":"http:\/\/twitter.com\/search?q=%22The+Life%22","trendMapped":"The+Life","trendVolume":105362},{"stateName":"CO","trendName":"#10YearsOfHannahMontana","placeID":"2383489","placeName":"Colorado Springs","searchUrl":"http:\/\/twitter.com\/search?q=%2310YearsOfHannahMontana","trendMapped":"10+years+of+hannah+montana","trendVolume":822130},{"stateName":"CO","trendName":"#5HTheLife","placeID":"2383489","placeName":"Colorado Springs","searchUrl":"http:\/\/twitter.com\/search?q=%235HTheLife","trendMapped":"5+h+the+life","trendVolume":151680},{"stateName":"CO","trendName":"#7\uc6d47\uc77c","placeID":"2383489","placeName":"Colorado Springs","searchUrl":"http:\/\/twitter.com\/search?q=%237%EC%9B%947%EC%9D%BC","trendMapped":"7\uc6d47\uc77c","trendVolume":96377},{"stateName":"CO","trendName":"#NationalPuppyDay","placeID":"2391279","placeName":"Denver","searchUrl":"http:\/\/twitter.com\/search?q=%23NationalPuppyDay","trendMapped":"national+puppy+day","trendVolume":919044},{"stateName":"CO","trendName":"#WeStandWithZoe","placeID":"2383489","placeName":"Colorado Springs","searchUrl":"http:\/\/twitter.com\/search?q=%23WeStandWithZoe","trendMapped":"we+stand+with+zoe","trendVolume":70691},{"stateName":"CO","trendName":"#\ub808\ub4dc\ubca8\ubcb3","placeID":"2383489","placeName":"Colorado Springs","searchUrl":"http:\/\/twitter.com\/search?q=%23%EB%A0%88%EB%93%9C%EB%B2%A8%EB%B2%B3","trendMapped":"\ub808\ub4dc\ubca8\ubcb3","trendVolume":152873},{"stateName":"CO","trendName":"Johan Cruyff","placeID":"2391279","placeName":"Denver","searchUrl":"http:\/\/twitter.com\/search?q=%22Johan+Cruyff%22","trendMapped":"Johan+Cruyff","trendVolume":963157},{"stateName":"CO","trendName":"The Life","placeID":"2383489","placeName":"Colorado Springs","searchUrl":"http:\/\/twitter.com\/search?q=%22The+Life%22","trendMapped":"The+Life","trendVolume":104691},{"stateName":"CT","trendName":"#NationalPuppyDay","placeID":"2458410","placeName":"New Haven","searchUrl":"http:\/\/twitter.com\/search?q=%23NationalPuppyDay","trendMapped":"national+puppy+day","trendVolume":920404},{"stateName":"CT","trendName":"Brussels","placeID":"2458410","placeName":"New Haven","searchUrl":"http:\/\/twitter.com\/search?q=Brussels","trendMapped":"brussels","trendVolume":1137471},{"stateName":"CT","trendName":"Johan Cruyff","placeID":"2458410","placeName":"New Haven","searchUrl":"http:\/\/twitter.com\/search?q=%22Johan+Cruyff%22","trendMapped":"Johan+Cruyff","trendVolume":1042772},{"stateName":"DC","trendName":"#10YearsOfHannahMontana","placeID":"2514815","placeName":"Washington","searchUrl":"http:\/\/twitter.com\/search?q=%2310YearsOfHannahMontana","trendMapped":"10+years+of+hannah+montana","trendVolume":817300},{"stateName":"DC","trendName":"#5HTheLife","placeID":"2514815","placeName":"Washington","searchUrl":"http:\/\/twitter.com\/search?q=%235HTheLife","trendMapped":"5+h+the+life","trendVolume":153677},{"stateName":"DC","trendName":"#NationalPuppyDay","placeID":"2514815","placeName":"Washington","searchUrl":"http:\/\/twitter.com\/search?q=%23NationalPuppyDay","trendMapped":"national+puppy+day","trendVolume":916935},{"stateName":"DC","trendName":"#WeStandWithZoe","placeID":"2514815","placeName":"Washington","searchUrl":"http:\/\/twitter.com\/search?q=%23WeStandWithZoe","trendMapped":"we+stand+with+zoe","trendVolume":72451},{"stateName":"DC","trendName":"Johan Cruyff","placeID":"2514815","placeName":"Washington","searchUrl":"http:\/\/twitter.com\/search?q=%22Johan+Cruyff%22","trendMapped":"Johan+Cruyff","trendVolume":910845},{"stateName":"FL","trendName":"#10YearsOfHannahMontana","placeID":"2503863","placeName":"Tampa","searchUrl":"http:\/\/twitter.com\/search?q=%2310YearsOfHannahMontana","trendMapped":"10+years+of+hannah+montana","trendVolume":877642},{"stateName":"FL","trendName":"#NationalPuppyDay","placeID":"2503863","placeName":"Tampa","searchUrl":"http:\/\/twitter.com\/search?q=%23NationalPuppyDay","trendMapped":"national+puppy+day","trendVolume":921626},{"stateName":"FL","trendName":"#nationalpuppyday","placeID":"2503863","placeName":"Tampa","searchUrl":"http:\/\/twitter.com\/search?q=%23nationalpuppyday","trendMapped":"nationalpuppyday","trendVolume":538032},{"stateName":"FL","trendName":"Brussels","placeID":"2503863","placeName":"Tampa","searchUrl":"http:\/\/twitter.com\/search?q=Brussels","trendMapped":"brussels","trendVolume":1137471},{"stateName":"FL","trendName":"Johan Cruyff","placeID":"2503863","placeName":"Tampa","searchUrl":"http:\/\/twitter.com\/search?q=%22Johan+Cruyff%22","trendMapped":"Johan+Cruyff","trendVolume":1033060},{"stateName":"GA","trendName":"#5HTheLife","placeID":"2357024","placeName":"Atlanta","searchUrl":"http:\/\/twitter.com\/search?q=%235HTheLife","trendMapped":"5+h+the+life","trendVolume":153677},{"stateName":"GA","trendName":"#NationalPuppyDay","placeID":"2357024","placeName":"Atlanta","searchUrl":"http:\/\/twitter.com\/search?q=%23NationalPuppyDay","trendMapped":"national+puppy+day","trendVolume":915863},{"stateName":"GA","trendName":"#WeStandWithZoe","placeID":"2357024","placeName":"Atlanta","searchUrl":"http:\/\/twitter.com\/search?q=%23WeStandWithZoe","trendMapped":"we+stand+with+zoe","trendVolume":73535},{"stateName":"GA","trendName":"Johan Cruyff","placeID":"2357024","placeName":"Atlanta","searchUrl":"http:\/\/twitter.com\/search?q=%22Johan+Cruyff%22","trendMapped":"Johan+Cruyff","trendVolume":963157},{"stateName":"GA","trendName":"Selena","placeID":"2357024","placeName":"Atlanta","searchUrl":"http:\/\/twitter.com\/search?q=Selena","trendMapped":"selena","trendVolume":190379},{"stateName":"HI","trendName":"#NationalPuppyDay","placeID":"2423945","placeName":"Honolulu","searchUrl":"http:\/\/twitter.com\/search?q=%23NationalPuppyDay","trendMapped":"national+puppy+day","trendVolume":918037},{"stateName":"HI","trendName":"Brussels","placeID":"2423945","placeName":"Honolulu","searchUrl":"http:\/\/twitter.com\/search?q=Brussels","trendMapped":"brussels","trendVolume":1067005},{"stateName":"HI","trendName":"Johan Cruyff","placeID":"2423945","placeName":"Honolulu","searchUrl":"http:\/\/twitter.com\/search?q=%22Johan+Cruyff%22","trendMapped":"Johan+Cruyff","trendVolume":920977},{"stateName":"IL","trendName":"#10YearsOfHannahMontana","placeID":"2379574","placeName":"Chicago","searchUrl":"http:\/\/twitter.com\/search?q=%2310YearsOfHannahMontana","trendMapped":"10+years+of+hannah+montana","trendVolume":817300},{"stateName":"IL","trendName":"#5HTheLife","placeID":"2379574","placeName":"Chicago","searchUrl":"http:\/\/twitter.com\/search?q=%235HTheLife","trendMapped":"5+h+the+life","trendVolume":153677},{"stateName":"IL","trendName":"#NationalPuppyDay","placeID":"2379574","placeName":"Chicago","searchUrl":"http:\/\/twitter.com\/search?q=%23NationalPuppyDay","trendMapped":"national+puppy+day","trendVolume":919128},{"stateName":"IL","trendName":"Hannah Montana","placeID":"2379574","placeName":"Chicago","searchUrl":"http:\/\/twitter.com\/search?q=%22Hannah+Montana%22","trendMapped":"Hannah+Montana","trendVolume":206982},{"stateName":"IL","trendName":"Johan Cruyff","placeID":"2379574","placeName":"Chicago","searchUrl":"http:\/\/twitter.com\/search?q=%22Johan+Cruyff%22","trendMapped":"Johan+Cruyff","trendVolume":940549},{"stateName":"IN","trendName":"#10YearsOfHannahMontana","placeID":"2427032","placeName":"Indianapolis","searchUrl":"http:\/\/twitter.com\/search?q=%2310YearsOfHannahMontana","trendMapped":"10+years+of+hannah+montana","trendVolume":894473},{"stateName":"IN","trendName":"#NationalPuppyDay","placeID":"2427032","placeName":"Indianapolis","searchUrl":"http:\/\/twitter.com\/search?q=%23NationalPuppyDay","trendMapped":"national+puppy+day","trendVolume":917779},{"stateName":"IN","trendName":"Brussels","placeID":"2427032","placeName":"Indianapolis","searchUrl":"http:\/\/twitter.com\/search?q=Brussels","trendMapped":"brussels","trendVolume":1121752},{"stateName":"IN","trendName":"Johan Cruyff","placeID":"2427032","placeName":"Indianapolis","searchUrl":"http:\/\/twitter.com\/search?q=%22Johan+Cruyff%22","trendMapped":"Johan+Cruyff","trendVolume":917468},{"stateName":"KY","trendName":"#10YearsOfHannahMontana","placeID":"2442327","placeName":"Louisville","searchUrl":"http:\/\/twitter.com\/search?q=%2310YearsOfHannahMontana","trendMapped":"10+years+of+hannah+montana","trendVolume":778428},{"stateName":"KY","trendName":"#NationalPuppyDay","placeID":"2442327","placeName":"Louisville","searchUrl":"http:\/\/twitter.com\/search?q=%23NationalPuppyDay","trendMapped":"national+puppy+day","trendVolume":917316},{"stateName":"KY","trendName":"Brussels","placeID":"2442327","placeName":"Louisville","searchUrl":"http:\/\/twitter.com\/search?q=Brussels","trendMapped":"brussels","trendVolume":1074444},{"stateName":"KY","trendName":"Johan Cruyff","placeID":"2442327","placeName":"Louisville","searchUrl":"http:\/\/twitter.com\/search?q=%22Johan+Cruyff%22","trendMapped":"Johan+Cruyff","trendVolume":963157},{"stateName":"LA","trendName":"#10YearsOfHannahMontana","placeID":"2359991","placeName":"Baton Rouge","searchUrl":"http:\/\/twitter.com\/search?q=%2310YearsOfHannahMontana","trendMapped":"10+years+of+hannah+montana","trendVolume":809547},{"stateName":"LA","trendName":"#NationalPuppyDay","placeID":"2458833","placeName":"New Orleans","searchUrl":"http:\/\/twitter.com\/search?q=%23NationalPuppyDay","trendMapped":"national+puppy+day","trendVolume":920415},{"stateName":"LA","trendName":"Brussels","placeID":"2359991","placeName":"Baton Rouge","searchUrl":"http:\/\/twitter.com\/search?q=Brussels","trendMapped":"brussels","trendVolume":1121752},{"stateName":"LA","trendName":"Easter","placeID":"2458833","placeName":"New Orleans","searchUrl":"http:\/\/twitter.com\/search?q=Easter","trendMapped":"easter","trendVolume":619806},{"stateName":"LA","trendName":"Johan Cruyff","placeID":"2458833","placeName":"New Orleans","searchUrl":"http:\/\/twitter.com\/search?q=%22Johan+Cruyff%22","trendMapped":"Johan+Cruyff","trendVolume":927809},{"stateName":"MA","trendName":"#10YearsOfHannahMontana","placeID":"2367105","placeName":"Boston","searchUrl":"http:\/\/twitter.com\/search?q=%2310YearsOfHannahMontana","trendMapped":"10+years+of+hannah+montana","trendVolume":792671},{"stateName":"MA","trendName":"#5HTheLife","placeID":"2367105","placeName":"Boston","searchUrl":"http:\/\/twitter.com\/search?q=%235HTheLife","trendMapped":"5+h+the+life","trendVolume":155172},{"stateName":"MA","trendName":"#NationalPuppyDay","placeID":"2367105","placeName":"Boston","searchUrl":"http:\/\/twitter.com\/search?q=%23NationalPuppyDay","trendMapped":"national+puppy+day","trendVolume":918037},{"stateName":"MA","trendName":"#WeStandWithZoe","placeID":"2367105","placeName":"Boston","searchUrl":"http:\/\/twitter.com\/search?q=%23WeStandWithZoe","trendMapped":"we+stand+with+zoe","trendVolume":71750},{"stateName":"MA","trendName":"Brussels","placeID":"2367105","placeName":"Boston","searchUrl":"http:\/\/twitter.com\/search?q=Brussels","trendMapped":"brussels","trendVolume":901975},{"stateName":"MA","trendName":"Johan Cruyff","placeID":"2367105","placeName":"Boston","searchUrl":"http:\/\/twitter.com\/search?q=%22Johan+Cruyff%22","trendMapped":"Johan+Cruyff","trendVolume":955396},{"stateName":"MD","trendName":"#10YearsOfHannahMontana","placeID":"2358820","placeName":"Baltimore","searchUrl":"http:\/\/twitter.com\/search?q=%2310YearsOfHannahMontana","trendMapped":"10+years+of+hannah+montana","trendVolume":894473},{"stateName":"MD","trendName":"#NationalPuppyDay","placeID":"2358820","placeName":"Baltimore","searchUrl":"http:\/\/twitter.com\/search?q=%23NationalPuppyDay","trendMapped":"national+puppy+day","trendVolume":914045},{"stateName":"MD","trendName":"Brussels","placeID":"2358820","placeName":"Baltimore","searchUrl":"http:\/\/twitter.com\/search?q=Brussels","trendMapped":"brussels","trendVolume":1071306},{"stateName":"MD","trendName":"Johan Cruyff","placeID":"2358820","placeName":"Baltimore","searchUrl":"http:\/\/twitter.com\/search?q=%22Johan+Cruyff%22","trendMapped":"Johan+Cruyff","trendVolume":963157},{"stateName":"MI","trendName":"#10YearsOfHannahMontana","placeID":"2391585","placeName":"Detroit","searchUrl":"http:\/\/twitter.com\/search?q=%2310YearsOfHannahMontana","trendMapped":"10+years+of+hannah+montana","trendVolume":886308},{"stateName":"MI","trendName":"#NationalPuppyDay","placeID":"2391585","placeName":"Detroit","searchUrl":"http:\/\/twitter.com\/search?q=%23NationalPuppyDay","trendMapped":"national+puppy+day","trendVolume":917004},{"stateName":"MI","trendName":"Brussels","placeID":"2391585","placeName":"Detroit","searchUrl":"http:\/\/twitter.com\/search?q=Brussels","trendMapped":"brussels","trendVolume":962030},{"stateName":"MI","trendName":"Johan Cruyff","placeID":"2391585","placeName":"Detroit","searchUrl":"http:\/\/twitter.com\/search?q=%22Johan+Cruyff%22","trendMapped":"Johan+Cruyff","trendVolume":940549},{"stateName":"MN","trendName":"#NationalPuppyDay","placeID":"2452078","placeName":"Minneapolis","searchUrl":"http:\/\/twitter.com\/search?q=%23NationalPuppyDay","trendMapped":"national+puppy+day","trendVolume":918037},{"stateName":"MN","trendName":"Brussels","placeID":"2452078","placeName":"Minneapolis","searchUrl":"http:\/\/twitter.com\/search?q=Brussels","trendMapped":"brussels","trendVolume":1129215},{"stateName":"MN","trendName":"Johan Cruyff","placeID":"2452078","placeName":"Minneapolis","searchUrl":"http:\/\/twitter.com\/search?q=%22Johan+Cruyff%22","trendMapped":"Johan+Cruyff","trendVolume":1003790},{"stateName":"MO","trendName":"#10YearsOfHannahMontana","placeID":"2486982","placeName":"St. Louis","searchUrl":"http:\/\/twitter.com\/search?q=%2310YearsOfHannahMontana","trendMapped":"10+years+of+hannah+montana","trendVolume":899293},{"stateName":"MO","trendName":"#NationalPuppyDay","placeID":"2486982","placeName":"St. Louis","searchUrl":"http:\/\/twitter.com\/search?q=%23NationalPuppyDay","trendMapped":"national+puppy+day","trendVolume":918037},{"stateName":"MO","trendName":"Brussels","placeID":"2430683","placeName":"Kansas City","searchUrl":"http:\/\/twitter.com\/search?q=Brussels","trendMapped":"brussels","trendVolume":993082},{"stateName":"MO","trendName":"Johan Cruyff","placeID":"2486982","placeName":"St. Louis","searchUrl":"http:\/\/twitter.com\/search?q=%22Johan+Cruyff%22","trendMapped":"Johan+Cruyff","trendVolume":930964},{"stateName":"MS","trendName":"#NationalPuppyDay","placeID":"2428184","placeName":"Jackson","searchUrl":"http:\/\/twitter.com\/search?q=%23NationalPuppyDay","trendMapped":"national+puppy+day","trendVolume":919557},{"stateName":"MS","trendName":"Brussels","placeID":"2428184","placeName":"Jackson","searchUrl":"http:\/\/twitter.com\/search?q=Brussels","trendMapped":"brussels","trendVolume":1132879},{"stateName":"MS","trendName":"Easter","placeID":"2428184","placeName":"Jackson","searchUrl":"http:\/\/twitter.com\/search?q=Easter","trendMapped":"easter","trendVolume":609246},{"stateName":"NC","trendName":"#10YearsOfHannahMontana","placeID":"2378426","placeName":"Charlotte","searchUrl":"http:\/\/twitter.com\/search?q=%2310YearsOfHannahMontana","trendMapped":"10+years+of+hannah+montana","trendVolume":886308},{"stateName":"NC","trendName":"#5HTheLife","placeID":"2414469","placeName":"Greensboro","searchUrl":"http:\/\/twitter.com\/search?q=%235HTheLife","trendMapped":"5+h+the+life","trendVolume":155172},{"stateName":"NC","trendName":"#NationalPuppyDay","placeID":"2478307","placeName":"Raleigh","searchUrl":"http:\/\/twitter.com\/search?q=%23NationalPuppyDay","trendMapped":"national+puppy+day","trendVolume":919128},{"stateName":"NC","trendName":"#WeStandWithZoe","placeID":"2478307","placeName":"Raleigh","searchUrl":"http:\/\/twitter.com\/search?q=%23WeStandWithZoe","trendMapped":"we+stand+with+zoe","trendVolume":65312},{"stateName":"NC","trendName":"Johan Cruyff","placeID":"2414469","placeName":"Greensboro","searchUrl":"http:\/\/twitter.com\/search?q=%22Johan+Cruyff%22","trendMapped":"Johan+Cruyff","trendVolume":949267},{"stateName":"NE","trendName":"#NationalPuppyDay","placeID":"2465512","placeName":"Omaha","searchUrl":"http:\/\/twitter.com\/search?q=%23NationalPuppyDay","trendMapped":"national+puppy+day","trendVolume":916092},{"stateName":"NE","trendName":"Brussels","placeID":"2465512","placeName":"Omaha","searchUrl":"http:\/\/twitter.com\/search?q=Brussels","trendMapped":"brussels","trendVolume":1129215},{"stateName":"NE","trendName":"Johan Cruyff","placeID":"2465512","placeName":"Omaha","searchUrl":"http:\/\/twitter.com\/search?q=%22Johan+Cruyff%22","trendMapped":"Johan+Cruyff","trendVolume":949267},{"stateName":"NM","trendName":"#GOT7","placeID":"2352824","placeName":"Albuquerque","searchUrl":"http:\/\/twitter.com\/search?q=%23GOT7","trendMapped":"got7","trendVolume":524183},{"stateName":"NM","trendName":"#NationalPuppyDay","placeID":"2352824","placeName":"Albuquerque","searchUrl":"http:\/\/twitter.com\/search?q=%23NationalPuppyDay","trendMapped":"national+puppy+day","trendVolume":920415},{"stateName":"NM","trendName":"#Supernatural","placeID":"2352824","placeName":"Albuquerque","searchUrl":"http:\/\/twitter.com\/search?q=%23Supernatural","trendMapped":"supernatural","trendVolume":68210},{"stateName":"NM","trendName":"#WeStandWithZoe","placeID":"2352824","placeName":"Albuquerque","searchUrl":"http:\/\/twitter.com\/search?q=%23WeStandWithZoe","trendMapped":"we+stand+with+zoe","trendVolume":73896},{"stateName":"NM","trendName":"#\ub808\ub4dc\ubca8\ubcb3","placeID":"2352824","placeName":"Albuquerque","searchUrl":"http:\/\/twitter.com\/search?q=%23%EB%A0%88%EB%93%9C%EB%B2%A8%EB%B2%B3","trendMapped":"\ub808\ub4dc\ubca8\ubcb3","trendVolume":161477},{"stateName":"NM","trendName":"Johan Cruyff","placeID":"2352824","placeName":"Albuquerque","searchUrl":"http:\/\/twitter.com\/search?q=%22Johan+Cruyff%22","trendMapped":"Johan+Cruyff","trendVolume":963157},{"stateName":"NV","trendName":"#10YearsOfHannahMontana","placeID":"2436704","placeName":"Las Vegas","searchUrl":"http:\/\/twitter.com\/search?q=%2310YearsOfHannahMontana","trendMapped":"10+years+of+hannah+montana","trendVolume":894473},{"stateName":"NV","trendName":"#NationalPuppyDay","placeID":"2436704","placeName":"Las Vegas","searchUrl":"http:\/\/twitter.com\/search?q=%23NationalPuppyDay","trendMapped":"national+puppy+day","trendVolume":920810},{"stateName":"NV","trendName":"Brussels","placeID":"2436704","placeName":"Las Vegas","searchUrl":"http:\/\/twitter.com\/search?q=Brussels","trendMapped":"brussels","trendVolume":1027481},{"stateName":"NV","trendName":"Johan Cruyff","placeID":"2436704","placeName":"Las Vegas","searchUrl":"http:\/\/twitter.com\/search?q=%22Johan+Cruyff%22","trendMapped":"Johan+Cruyff","trendVolume":927809},{"stateName":"NY","trendName":"#5HTheLife","placeID":"2459115","placeName":"New York","searchUrl":"http:\/\/twitter.com\/search?q=%235HTheLife","trendMapped":"5+h+the+life","trendVolume":155172},{"stateName":"NY","trendName":"#NationalPuppyDay","placeID":"2459115","placeName":"New York","searchUrl":"http:\/\/twitter.com\/search?q=%23NationalPuppyDay","trendMapped":"national+puppy+day","trendVolume":919443},{"stateName":"NY","trendName":"#Supernatural","placeID":"2459115","placeName":"New York","searchUrl":"http:\/\/twitter.com\/search?q=%23Supernatural","trendMapped":"supernatural","trendVolume":68386},{"stateName":"NY","trendName":"#WeStandWithZoe","placeID":"2459115","placeName":"New York","searchUrl":"http:\/\/twitter.com\/search?q=%23WeStandWithZoe","trendMapped":"we+stand+with+zoe","trendVolume":68048},{"stateName":"NY","trendName":"Cruyff","placeID":"2459115","placeName":"New York","searchUrl":"http:\/\/twitter.com\/search?q=Cruyff","trendMapped":"cruyff","trendVolume":1273485},{"stateName":"NY","trendName":"Hannah Montana","placeID":"2459115","placeName":"New York","searchUrl":"http:\/\/twitter.com\/search?q=%22Hannah+Montana%22","trendMapped":"Hannah+Montana","trendVolume":206054},{"stateName":"NY","trendName":"Johan Cruyff","placeID":"2459115","placeName":"New York","searchUrl":"http:\/\/twitter.com\/search?q=%22Johan+Cruyff%22","trendMapped":"Johan+Cruyff","trendVolume":940549},{"stateName":"OH","trendName":"#10YearsOfHannahMontana","placeID":"2383660","placeName":"Columbus","searchUrl":"http:\/\/twitter.com\/search?q=%2310YearsOfHannahMontana","trendMapped":"10+years+of+hannah+montana","trendVolume":886308},{"stateName":"OH","trendName":"#NationalPuppyDay","placeID":"2383660","placeName":"Columbus","searchUrl":"http:\/\/twitter.com\/search?q=%23NationalPuppyDay","trendMapped":"national+puppy+day","trendVolume":920404},{"stateName":"OH","trendName":"Brussels","placeID":"2383660","placeName":"Columbus","searchUrl":"http:\/\/twitter.com\/search?q=Brussels","trendMapped":"brussels","trendVolume":1137725},{"stateName":"OH","trendName":"Johan Cruyff","placeID":"2383660","placeName":"Columbus","searchUrl":"http:\/\/twitter.com\/search?q=%22Johan+Cruyff%22","trendMapped":"Johan+Cruyff","trendVolume":907540},{"stateName":"OK","trendName":"#10YearsOfHannahMontana","placeID":"2464592","placeName":"Oklahoma City","searchUrl":"http:\/\/twitter.com\/search?q=%2310YearsOfHannahMontana","trendMapped":"10+years+of+hannah+montana","trendVolume":792671},{"stateName":"OK","trendName":"#NationalPuppyDay","placeID":"2464592","placeName":"Oklahoma City","searchUrl":"http:\/\/twitter.com\/search?q=%23NationalPuppyDay","trendMapped":"national+puppy+day","trendVolume":917320},{"stateName":"OK","trendName":"Easter","placeID":"2464592","placeName":"Oklahoma City","searchUrl":"http:\/\/twitter.com\/search?q=Easter","trendMapped":"easter","trendVolume":593497},{"stateName":"OK","trendName":"Johan Cruyff","placeID":"2464592","placeName":"Oklahoma City","searchUrl":"http:\/\/twitter.com\/search?q=%22Johan+Cruyff%22","trendMapped":"Johan+Cruyff","trendVolume":888393},{"stateName":"OR","trendName":"#10YearsOfHannahMontana","placeID":"2475687","placeName":"Portland","searchUrl":"http:\/\/twitter.com\/search?q=%2310YearsOfHannahMontana","trendMapped":"10+years+of+hannah+montana","trendVolume":817300},{"stateName":"OR","trendName":"#NationalPuppyDay","placeID":"2475687","placeName":"Portland","searchUrl":"http:\/\/twitter.com\/search?q=%23NationalPuppyDay","trendMapped":"national+puppy+day","trendVolume":911956},{"stateName":"OR","trendName":"Brussels","placeID":"2475687","placeName":"Portland","searchUrl":"http:\/\/twitter.com\/search?q=Brussels","trendMapped":"brussels","trendVolume":1122026},{"stateName":"OR","trendName":"Johan Cruyff","placeID":"2475687","placeName":"Portland","searchUrl":"http:\/\/twitter.com\/search?q=%22Johan+Cruyff%22","trendMapped":"Johan+Cruyff","trendVolume":927809},{"stateName":"PA","trendName":"#10YearsOfHannahMontana","placeID":"2471217","placeName":"Philadelphia","searchUrl":"http:\/\/twitter.com\/search?q=%2310YearsOfHannahMontana","trendMapped":"10+years+of+hannah+montana","trendVolume":886308},{"stateName":"PA","trendName":"#NationalPuppyDay","placeID":"2473224","placeName":"Pittsburgh","searchUrl":"http:\/\/twitter.com\/search?q=%23NationalPuppyDay","trendMapped":"national+puppy+day","trendVolume":921626},{"stateName":"PA","trendName":"#Supernatural","placeID":"2471217","placeName":"Philadelphia","searchUrl":"http:\/\/twitter.com\/search?q=%23Supernatural","trendMapped":"supernatural","trendVolume":67670},{"stateName":"PA","trendName":"#WeStandWithZoe","placeID":"2471217","placeName":"Philadelphia","searchUrl":"http:\/\/twitter.com\/search?q=%23WeStandWithZoe","trendMapped":"we+stand+with+zoe","trendVolume":71416},{"stateName":"PA","trendName":"Brussels","placeID":"2473224","placeName":"Pittsburgh","searchUrl":"http:\/\/twitter.com\/search?q=Brussels","trendMapped":"brussels","trendVolume":1128056},{"stateName":"PA","trendName":"Hannah Montana","placeID":"2471217","placeName":"Philadelphia","searchUrl":"http:\/\/twitter.com\/search?q=%22Hannah+Montana%22","trendMapped":"Hannah+Montana","trendVolume":206054},{"stateName":"PA","trendName":"Johan Cruyff","placeID":"2473224","placeName":"Pittsburgh","searchUrl":"http:\/\/twitter.com\/search?q=%22Johan+Cruyff%22","trendMapped":"Johan+Cruyff","trendVolume":963157},{"stateName":"RI","trendName":"#NationalPuppyDay","placeID":"2477058","placeName":"Providence","searchUrl":"http:\/\/twitter.com\/search?q=%23NationalPuppyDay","trendMapped":"national+puppy+day","trendVolume":916641},{"stateName":"RI","trendName":"Brussels","placeID":"2477058","placeName":"Providence","searchUrl":"http:\/\/twitter.com\/search?q=Brussels","trendMapped":"brussels","trendVolume":953196},{"stateName":"RI","trendName":"Johan Cruyff","placeID":"2477058","placeName":"Providence","searchUrl":"http:\/\/twitter.com\/search?q=%22Johan+Cruyff%22","trendMapped":"Johan+Cruyff","trendVolume":871235},{"stateName":"TN","trendName":"#10YearsOfHannahMontana","placeID":"2457170","placeName":"Nashville","searchUrl":"http:\/\/twitter.com\/search?q=%2310YearsOfHannahMontana","trendMapped":"10+years+of+hannah+montana","trendVolume":891868},{"stateName":"TN","trendName":"#NationalPuppyDay","placeID":"2457170","placeName":"Nashville","searchUrl":"http:\/\/twitter.com\/search?q=%23NationalPuppyDay","trendMapped":"national+puppy+day","trendVolume":921626},{"stateName":"TN","trendName":"Brussels","placeID":"2457170","placeName":"Nashville","searchUrl":"http:\/\/twitter.com\/search?q=Brussels","trendMapped":"brussels","trendVolume":1129215},{"stateName":"TN","trendName":"Johan Cruyff","placeID":"2457170","placeName":"Nashville","searchUrl":"http:\/\/twitter.com\/search?q=%22Johan+Cruyff%22","trendMapped":"Johan+Cruyff","trendVolume":949267},{"stateName":"TX","trendName":"#10YearsOfHannahMontana","placeID":"2397816","placeName":"El Paso","searchUrl":"http:\/\/twitter.com\/search?q=%2310YearsOfHannahMontana","trendMapped":"10+years+of+hannah+montana","trendVolume":792671},{"stateName":"TX","trendName":"#5HTheLife","placeID":"2357536","placeName":"Austin","searchUrl":"http:\/\/twitter.com\/search?q=%235HTheLife","trendMapped":"5+h+the+life","trendVolume":153677},{"stateName":"TX","trendName":"#NationalPuppyDay","placeID":"2487796","placeName":"San Antonio","searchUrl":"http:\/\/twitter.com\/search?q=%23NationalPuppyDay","trendMapped":"national+puppy+day","trendVolume":920810},{"stateName":"TX","trendName":"#Supernatural","placeID":"2388929","placeName":"Dallas-Ft. Worth","searchUrl":"http:\/\/twitter.com\/search?q=%23Supernatural","trendMapped":"supernatural","trendVolume":67286},{"stateName":"TX","trendName":"#WeStandWithZoe","placeID":"2424766","placeName":"Houston","searchUrl":"http:\/\/twitter.com\/search?q=%23WeStandWithZoe","trendMapped":"we+stand+with+zoe","trendVolume":72134},{"stateName":"TX","trendName":"Brussels","placeID":"2487796","placeName":"San Antonio","searchUrl":"http:\/\/twitter.com\/search?q=Brussels","trendMapped":"brussels","trendVolume":1134401},{"stateName":"TX","trendName":"Donald Trump","placeID":"2397816","placeName":"El Paso","searchUrl":"http:\/\/twitter.com\/search?q=%22Donald+Trump%22","trendMapped":"Donald+Trump","trendVolume":244600},{"stateName":"TX","trendName":"Easter","placeID":"2388929","placeName":"Dallas-Ft. Worth","searchUrl":"http:\/\/twitter.com\/search?q=Easter","trendMapped":"easter","trendVolume":618011},{"stateName":"TX","trendName":"Johan Cruyff","placeID":"2487796","placeName":"San Antonio","searchUrl":"http:\/\/twitter.com\/search?q=%22Johan+Cruyff%22","trendMapped":"Johan+Cruyff","trendVolume":949267},{"stateName":"UT","trendName":"#10YearsOfHannahMontana","placeID":"2487610","placeName":"Salt Lake City","searchUrl":"http:\/\/twitter.com\/search?q=%2310YearsOfHannahMontana","trendMapped":"10+years+of+hannah+montana","trendVolume":778428},{"stateName":"UT","trendName":"#NationalPuppyDay","placeID":"2487610","placeName":"Salt Lake City","searchUrl":"http:\/\/twitter.com\/search?q=%23NationalPuppyDay","trendMapped":"national+puppy+day","trendVolume":917808},{"stateName":"UT","trendName":"Brussels","placeID":"2487610","placeName":"Salt Lake City","searchUrl":"http:\/\/twitter.com\/search?q=Brussels","trendMapped":"brussels","trendVolume":1121752},{"stateName":"UT","trendName":"Johan Cruyff","placeID":"2487610","placeName":"Salt Lake City","searchUrl":"http:\/\/twitter.com\/search?q=%22Johan+Cruyff%22","trendMapped":"Johan+Cruyff","trendVolume":963157},{"stateName":"VA","trendName":"#10YearsOfHannahMontana","placeID":"2512636","placeName":"Virginia Beach","searchUrl":"http:\/\/twitter.com\/search?q=%2310YearsOfHannahMontana","trendMapped":"10+years+of+hannah+montana","trendVolume":832027},{"stateName":"VA","trendName":"#5HTheLife","placeID":"2512636","placeName":"Virginia Beach","searchUrl":"http:\/\/twitter.com\/search?q=%235HTheLife","trendMapped":"5+h+the+life","trendVolume":151680},{"stateName":"VA","trendName":"#GOT7","placeID":"2512636","placeName":"Virginia Beach","searchUrl":"http:\/\/twitter.com\/search?q=%23GOT7","trendMapped":"got7","trendVolume":524183},{"stateName":"VA","trendName":"#NationalPuppyDay","placeID":"2512636","placeName":"Virginia Beach","searchUrl":"http:\/\/twitter.com\/search?q=%23NationalPuppyDay","trendMapped":"national+puppy+day","trendVolume":920415},{"stateName":"VA","trendName":"#Supernatural","placeID":"2512636","placeName":"Virginia Beach","searchUrl":"http:\/\/twitter.com\/search?q=%23Supernatural","trendMapped":"supernatural","trendVolume":68031},{"stateName":"VA","trendName":"#WeStandWithZoe","placeID":"2512636","placeName":"Virginia Beach","searchUrl":"http:\/\/twitter.com\/search?q=%23WeStandWithZoe","trendMapped":"we+stand+with+zoe","trendVolume":73100},{"stateName":"VA","trendName":"#\ub808\ub4dc\ubca8\ubcb3","placeID":"2512636","placeName":"Virginia Beach","searchUrl":"http:\/\/twitter.com\/search?q=%23%EB%A0%88%EB%93%9C%EB%B2%A8%EB%B2%B3","trendMapped":"\ub808\ub4dc\ubca8\ubcb3","trendVolume":146892},{"stateName":"VA","trendName":"Brussels","placeID":"2460389","placeName":"Norfolk","searchUrl":"http:\/\/twitter.com\/search?q=Brussels","trendMapped":"brussels","trendVolume":1026732},{"stateName":"VA","trendName":"Hannah Montana","placeID":"2512636","placeName":"Virginia Beach","searchUrl":"http:\/\/twitter.com\/search?q=%22Hannah+Montana%22","trendMapped":"Hannah+Montana","trendVolume":206054},{"stateName":"VA","trendName":"Johan Cruyff","placeID":"2480894","placeName":"Richmond","searchUrl":"http:\/\/twitter.com\/search?q=%22Johan+Cruyff%22","trendMapped":"Johan+Cruyff","trendVolume":930964},{"stateName":"VA","trendName":"The Life","placeID":"2512636","placeName":"Virginia Beach","searchUrl":"http:\/\/twitter.com\/search?q=%22The+Life%22","trendMapped":"The+Life","trendVolume":105362},{"stateName":"WA","trendName":"#5HTheLife","placeID":"2490383","placeName":"Seattle","searchUrl":"http:\/\/twitter.com\/search?q=%235HTheLife","trendMapped":"5+h+the+life","trendVolume":153677},{"stateName":"WA","trendName":"#NationalPuppyDay","placeID":"2490383","placeName":"Seattle","searchUrl":"http:\/\/twitter.com\/search?q=%23NationalPuppyDay","trendMapped":"national+puppy+day","trendVolume":919557},{"stateName":"WA","trendName":"Brussels","placeID":"2490383","placeName":"Seattle","searchUrl":"http:\/\/twitter.com\/search?q=Brussels","trendMapped":"brussels","trendVolume":1123648},{"stateName":"WA","trendName":"Johan Cruyff","placeID":"2490383","placeName":"Seattle","searchUrl":"http:\/\/twitter.com\/search?q=%22Johan+Cruyff%22","trendMapped":"Johan+Cruyff","trendVolume":816461},{"stateName":"WI","trendName":"#10YearsOfHannahMontana","placeID":"2451822","placeName":"Milwaukee","searchUrl":"http:\/\/twitter.com\/search?q=%2310YearsOfHannahMontana","trendMapped":"10+years+of+hannah+montana","trendVolume":867289},{"stateName":"WI","trendName":"#NationalPuppyDay","placeID":"2451822","placeName":"Milwaukee","searchUrl":"http:\/\/twitter.com\/search?q=%23NationalPuppyDay","trendMapped":"national+puppy+day","trendVolume":919044},{"stateName":"WI","trendName":"Brussels","placeID":"2451822","placeName":"Milwaukee","searchUrl":"http:\/\/twitter.com\/search?q=Brussels","trendMapped":"brussels","trendVolume":1062054},{"stateName":"WI","trendName":"Johan Cruyff","placeID":"2451822","placeName":"Milwaukee","searchUrl":"http:\/\/twitter.com\/search?q=%22Johan+Cruyff%22","trendMapped":"Johan+Cruyff","trendVolume":955396},{"stateName":"XX","trendName":"#10YearsOfHannahMontana","placeID":"23424977","placeName":"United States","searchUrl":"http:\/\/twitter.com\/search?q=%2310YearsOfHannahMontana","trendMapped":"10+years+of+hannah+montana","trendVolume":832027},{"stateName":"XX","trendName":"#5HTheLife","placeID":"23424977","placeName":"United States","searchUrl":"http:\/\/twitter.com\/search?q=%235HTheLife","trendMapped":"5+h+the+life","trendVolume":153677},{"stateName":"XX","trendName":"#NationalPuppyDay","placeID":"23424977","placeName":"United States","searchUrl":"http:\/\/twitter.com\/search?q=%23NationalPuppyDay","trendMapped":"national+puppy+day","trendVolume":920415},{"stateName":"XX","trendName":"#WeStandWithZoe","placeID":"23424977","placeName":"United States","searchUrl":"http:\/\/twitter.com\/search?q=%23WeStandWithZoe","trendMapped":"we+stand+with+zoe","trendVolume":70111},{"stateName":"XX","trendName":"#\ub808\ub4dc\ubca8\ubcb3","placeID":"23424977","placeName":"United States","searchUrl":"http:\/\/twitter.com\/search?q=%23%EB%A0%88%EB%93%9C%EB%B2%A8%EB%B2%B3","trendMapped":"\ub808\ub4dc\ubca8\ubcb3","trendVolume":163841},{"stateName":"XX","trendName":"Hannah Montana","placeID":"23424977","placeName":"United States","searchUrl":"http:\/\/twitter.com\/search?q=%22Hannah+Montana%22","trendMapped":"Hannah+Montana","trendVolume":203849},{"stateName":"XX","trendName":"Johan Cruyff","placeID":"23424977","placeName":"United States","searchUrl":"http:\/\/twitter.com\/search?q=%22Johan+Cruyff%22","trendMapped":"Johan+Cruyff","trendVolume":940549}]