[{"stateName":"AL","trendName":"#GOPDebate","placeID":"2364559","placeName":"Birmingham","searchUrl":"http:\/\/twitter.com\/search?q=%23GOPDebate","trendMapped":"gop+debate","trendVolume":1330953},{"stateName":"AL","trendName":"Bankroll Fresh","placeID":"2364559","placeName":"Birmingham","searchUrl":"http:\/\/twitter.com\/search?q=%22Bankroll+Fresh%22","trendMapped":"Bankroll+Fresh","trendVolume":266581},{"stateName":"AL","trendName":"Cristiano","placeID":"2364559","placeName":"Birmingham","searchUrl":"http:\/\/twitter.com\/search?q=Cristiano","trendMapped":"cristiano","trendVolume":252701},{"stateName":"AL","trendName":"Kendrick","placeID":"2364559","placeName":"Birmingham","searchUrl":"http:\/\/twitter.com\/search?q=Kendrick","trendMapped":"kendrick","trendVolume":339612},{"stateName":"AZ","trendName":"#A3A\u00f1osDeTuSiembraComandante","placeID":"2508428","placeName":"Tucson","searchUrl":"http:\/\/twitter.com\/search?q=%23A3A%C3%B1osDeTuSiembraComandante","trendMapped":"a3+a\u00f1os+de+tu+siembra+comandante","trendVolume":204288},{"stateName":"AZ","trendName":"#GOPDebate","placeID":"2471390","placeName":"Phoenix","searchUrl":"http:\/\/twitter.com\/search?q=%23GOPDebate","trendMapped":"gop+debate","trendVolume":504341},{"stateName":"AZ","trendName":"#LatinoamericaSeRespeta","placeID":"2449808","placeName":"Mesa","searchUrl":"http:\/\/twitter.com\/search?q=%23LatinoamericaSeRespeta","trendMapped":"latinoamerica+se+respeta","trendVolume":46516},{"stateName":"AZ","trendName":"#WorkFromTwitter","placeID":"2508428","placeName":"Tucson","searchUrl":"http:\/\/twitter.com\/search?q=%23WorkFromTwitter","trendMapped":"work+from+twitter","trendVolume":193467},{"stateName":"AZ","trendName":"Bankroll","placeID":"2449808","placeName":"Mesa","searchUrl":"http:\/\/twitter.com\/search?q=Bankroll","trendMapped":"bankroll","trendVolume":312866},{"stateName":"AZ","trendName":"Bankroll Fresh","placeID":"2471390","placeName":"Phoenix","searchUrl":"http:\/\/twitter.com\/search?q=%22Bankroll+Fresh%22","trendMapped":"Bankroll+Fresh","trendVolume":203144},{"stateName":"AZ","trendName":"CPAC","placeID":"2508428","placeName":"Tucson","searchUrl":"http:\/\/twitter.com\/search?q=CPAC","trendMapped":"cpac","trendVolume":107024},{"stateName":"AZ","trendName":"Cristiano","placeID":"2508428","placeName":"Tucson","searchUrl":"http:\/\/twitter.com\/search?q=Cristiano","trendMapped":"cristiano","trendVolume":237854},{"stateName":"AZ","trendName":"Kendrick","placeID":"2471390","placeName":"Phoenix","searchUrl":"http:\/\/twitter.com\/search?q=Kendrick","trendMapped":"kendrick","trendVolume":423741},{"stateName":"AZ","trendName":"LizaStuns InStarStudioMag","placeID":"2449808","placeName":"Mesa","searchUrl":"http:\/\/twitter.com\/search?q=%22LizaStuns+InStarStudioMag%22","trendMapped":"LizaStuns+InStarStudioMag","trendVolume":411462},{"stateName":"CA","trendName":"#A3AnosDeTuSiembraComandante","placeID":"2487889","placeName":"San Diego","searchUrl":"http:\/\/twitter.com\/search?q=%23A3AnosDeTuSiembraComandante","trendMapped":"a3+anos+de+tu+siembra+comandante","trendVolume":167729},{"stateName":"CA","trendName":"#A3A\u00f1osDeTuSiembraComandante","placeID":"2488042","placeName":"San Jose","searchUrl":"http:\/\/twitter.com\/search?q=%23A3A%C3%B1osDeTuSiembraComandante","trendMapped":"a3+a\u00f1os+de+tu+siembra+comandante","trendVolume":199772},{"stateName":"CA","trendName":"#CallMeSeb","placeID":"2487956","placeName":"San Francisco","searchUrl":"http:\/\/twitter.com\/search?q=%23CallMeSeb","trendMapped":"call+me+seb","trendVolume":101994},{"stateName":"CA","trendName":"#FridayFeeling","placeID":"2442047","placeName":"Los Angeles","searchUrl":"http:\/\/twitter.com\/search?q=%23FridayFeeling","trendMapped":"friday+feeling","trendVolume":103658},{"stateName":"CA","trendName":"#GOPDebate","placeID":"2487956","placeName":"San Francisco","searchUrl":"http:\/\/twitter.com\/search?q=%23GOPDebate","trendMapped":"gop+debate","trendVolume":1314567},{"stateName":"CA","trendName":"#OJSimpson","placeID":"2488042","placeName":"San Jose","searchUrl":"http:\/\/twitter.com\/search?q=%23OJSimpson","trendMapped":"oj+simpson","trendVolume":46998},{"stateName":"CA","trendName":"#UFC196","placeID":"2487889","placeName":"San Diego","searchUrl":"http:\/\/twitter.com\/search?q=%23UFC196","trendMapped":"ufc196","trendVolume":123852},{"stateName":"CA","trendName":"#WorkFromTwitter","placeID":"2488042","placeName":"San Jose","searchUrl":"http:\/\/twitter.com\/search?q=%23WorkFromTwitter","trendMapped":"work+from+twitter","trendVolume":238844},{"stateName":"CA","trendName":"Bankroll Fresh","placeID":"2488042","placeName":"San Jose","searchUrl":"http:\/\/twitter.com\/search?q=%22Bankroll+Fresh%22","trendMapped":"Bankroll+Fresh","trendVolume":246131},{"stateName":"CA","trendName":"Celta","placeID":"2487889","placeName":"San Diego","searchUrl":"http:\/\/twitter.com\/search?q=Celta","trendMapped":"celta","trendVolume":166872},{"stateName":"CA","trendName":"Cristiano","placeID":"2407517","placeName":"Fresno","searchUrl":"http:\/\/twitter.com\/search?q=Cristiano","trendMapped":"cristiano","trendVolume":229699},{"stateName":"CA","trendName":"Kendrick","placeID":"2487956","placeName":"San Francisco","searchUrl":"http:\/\/twitter.com\/search?q=Kendrick","trendMapped":"kendrick","trendVolume":337708},{"stateName":"CA","trendName":"Lexa","placeID":"2486340","placeName":"Sacramento","searchUrl":"http:\/\/twitter.com\/search?q=Lexa","trendMapped":"lexa","trendVolume":370514},{"stateName":"CA","trendName":"LizaStuns InStarStudioMag","placeID":"2488042","placeName":"San Jose","searchUrl":"http:\/\/twitter.com\/search?q=%22LizaStuns+InStarStudioMag%22","trendMapped":"LizaStuns+InStarStudioMag","trendVolume":411462},{"stateName":"CA","trendName":"Ramsey","placeID":"2487889","placeName":"San Diego","searchUrl":"http:\/\/twitter.com\/search?q=Ramsey","trendMapped":"ramsey","trendVolume":160165},{"stateName":"CO","trendName":"#A3AnosDeTuSiembraComandante","placeID":"2383489","placeName":"Colorado Springs","searchUrl":"http:\/\/twitter.com\/search?q=%23A3AnosDeTuSiembraComandante","trendMapped":"a3+anos+de+tu+siembra+comandante","trendVolume":209679},{"stateName":"CO","trendName":"#A3A\u00f1osDeTuSiembraComandante","placeID":"2391279","placeName":"Denver","searchUrl":"http:\/\/twitter.com\/search?q=%23A3A%C3%B1osDeTuSiembraComandante","trendMapped":"a3+a\u00f1os+de+tu+siembra+comandante","trendVolume":204288},{"stateName":"CO","trendName":"#CallMeSeb","placeID":"2391279","placeName":"Denver","searchUrl":"http:\/\/twitter.com\/search?q=%23CallMeSeb","trendMapped":"call+me+seb","trendVolume":102234},{"stateName":"CO","trendName":"#GOPDebate","placeID":"2391279","placeName":"Denver","searchUrl":"http:\/\/twitter.com\/search?q=%23GOPDebate","trendMapped":"gop+debate","trendVolume":941974},{"stateName":"CO","trendName":"#WorkFromTwitter","placeID":"2391279","placeName":"Denver","searchUrl":"http:\/\/twitter.com\/search?q=%23WorkFromTwitter","trendMapped":"work+from+twitter","trendVolume":204943},{"stateName":"CO","trendName":"Bankroll","placeID":"2391279","placeName":"Denver","searchUrl":"http:\/\/twitter.com\/search?q=Bankroll","trendMapped":"bankroll","trendVolume":315264},{"stateName":"CO","trendName":"Bankroll Fresh","placeID":"2391279","placeName":"Denver","searchUrl":"http:\/\/twitter.com\/search?q=%22Bankroll+Fresh%22","trendMapped":"Bankroll+Fresh","trendVolume":193159},{"stateName":"CO","trendName":"Cristiano","placeID":"2383489","placeName":"Colorado Springs","searchUrl":"http:\/\/twitter.com\/search?q=Cristiano","trendMapped":"cristiano","trendVolume":223866},{"stateName":"CO","trendName":"Kendrick","placeID":"2383489","placeName":"Colorado Springs","searchUrl":"http:\/\/twitter.com\/search?q=Kendrick","trendMapped":"kendrick","trendVolume":197476},{"stateName":"CO","trendName":"LizaStuns InStarStudioMag","placeID":"2383489","placeName":"Colorado Springs","searchUrl":"http:\/\/twitter.com\/search?q=%22LizaStuns+InStarStudioMag%22","trendMapped":"LizaStuns+InStarStudioMag","trendVolume":410807},{"stateName":"CT","trendName":"#GOPDebate","placeID":"2458410","placeName":"New Haven","searchUrl":"http:\/\/twitter.com\/search?q=%23GOPDebate","trendMapped":"gop+debate","trendVolume":1338248},{"stateName":"CT","trendName":"Arsenal","placeID":"2458410","placeName":"New Haven","searchUrl":"http:\/\/twitter.com\/search?q=Arsenal","trendMapped":"arsenal","trendVolume":543228},{"stateName":"CT","trendName":"Bankroll Fresh","placeID":"2458410","placeName":"New Haven","searchUrl":"http:\/\/twitter.com\/search?q=%22Bankroll+Fresh%22","trendMapped":"Bankroll+Fresh","trendVolume":142114},{"stateName":"CT","trendName":"Kendrick","placeID":"2458410","placeName":"New Haven","searchUrl":"http:\/\/twitter.com\/search?q=Kendrick","trendMapped":"kendrick","trendVolume":338668},{"stateName":"CT","trendName":"LizaStuns InStarStudioMag","placeID":"2458410","placeName":"New Haven","searchUrl":"http:\/\/twitter.com\/search?q=%22LizaStuns+InStarStudioMag%22","trendMapped":"LizaStuns+InStarStudioMag","trendVolume":410807},{"stateName":"DC","trendName":"#A3A\u00f1osDeTuSiembraComandante","placeID":"2514815","placeName":"Washington","searchUrl":"http:\/\/twitter.com\/search?q=%23A3A%C3%B1osDeTuSiembraComandante","trendMapped":"a3+a\u00f1os+de+tu+siembra+comandante","trendVolume":193552},{"stateName":"DC","trendName":"#OJSimpson","placeID":"2514815","placeName":"Washington","searchUrl":"http:\/\/twitter.com\/search?q=%23OJSimpson","trendMapped":"oj+simpson","trendVolume":48330},{"stateName":"DC","trendName":"#WorkFromTwitter","placeID":"2514815","placeName":"Washington","searchUrl":"http:\/\/twitter.com\/search?q=%23WorkFromTwitter","trendMapped":"work+from+twitter","trendVolume":194780},{"stateName":"DC","trendName":"Arsenal","placeID":"2514815","placeName":"Washington","searchUrl":"http:\/\/twitter.com\/search?q=Arsenal","trendMapped":"arsenal","trendVolume":522124},{"stateName":"DC","trendName":"LizaStuns InStarStudioMag","placeID":"2514815","placeName":"Washington","searchUrl":"http:\/\/twitter.com\/search?q=%22LizaStuns+InStarStudioMag%22","trendMapped":"LizaStuns+InStarStudioMag","trendVolume":406603},{"stateName":"FL","trendName":"#CallMeSeb","placeID":"2428344","placeName":"Jacksonville","searchUrl":"http:\/\/twitter.com\/search?q=%23CallMeSeb","trendMapped":"call+me+seb","trendVolume":102234},{"stateName":"FL","trendName":"#GOPDebate","placeID":"2503863","placeName":"Tampa","searchUrl":"http:\/\/twitter.com\/search?q=%23GOPDebate","trendMapped":"gop+debate","trendVolume":1338248},{"stateName":"FL","trendName":"Arsenal","placeID":"2503863","placeName":"Tampa","searchUrl":"http:\/\/twitter.com\/search?q=Arsenal","trendMapped":"arsenal","trendVolume":543027},{"stateName":"FL","trendName":"Bankroll Fresh","placeID":"2503713","placeName":"Tallahassee","searchUrl":"http:\/\/twitter.com\/search?q=%22Bankroll+Fresh%22","trendMapped":"Bankroll+Fresh","trendVolume":254311},{"stateName":"FL","trendName":"Cristiano","placeID":"2466256","placeName":"Orlando","searchUrl":"http:\/\/twitter.com\/search?q=Cristiano","trendMapped":"cristiano","trendVolume":247421},{"stateName":"FL","trendName":"KATHNIEL SA CDO","placeID":"2428344","placeName":"Jacksonville","searchUrl":"http:\/\/twitter.com\/search?q=%22KATHNIEL+SA+CDO%22","trendMapped":"KATHNIEL+SA+CDO","trendVolume":686260},{"stateName":"FL","trendName":"Kendrick","placeID":"2503713","placeName":"Tallahassee","searchUrl":"http:\/\/twitter.com\/search?q=Kendrick","trendMapped":"kendrick","trendVolume":423082},{"stateName":"FL","trendName":"LizaStuns InStarStudioMag","placeID":"2503863","placeName":"Tampa","searchUrl":"http:\/\/twitter.com\/search?q=%22LizaStuns+InStarStudioMag%22","trendMapped":"LizaStuns+InStarStudioMag","trendVolume":405377},{"stateName":"FL","trendName":"Lula","placeID":"2450022","placeName":"Miami","searchUrl":"http:\/\/twitter.com\/search?q=Lula","trendMapped":"lula","trendVolume":1057347},{"stateName":"GA","trendName":"#A3A\u00f1osDeTuSiembraComandante","placeID":"2357024","placeName":"Atlanta","searchUrl":"http:\/\/twitter.com\/search?q=%23A3A%C3%B1osDeTuSiembraComandante","trendMapped":"a3+a\u00f1os+de+tu+siembra+comandante","trendVolume":185831},{"stateName":"GA","trendName":"#CallMeSeb","placeID":"2357024","placeName":"Atlanta","searchUrl":"http:\/\/twitter.com\/search?q=%23CallMeSeb","trendMapped":"call+me+seb","trendVolume":101614},{"stateName":"GA","trendName":"#WorkFromTwitter","placeID":"2357024","placeName":"Atlanta","searchUrl":"http:\/\/twitter.com\/search?q=%23WorkFromTwitter","trendMapped":"work+from+twitter","trendVolume":140879},{"stateName":"GA","trendName":"Bankroll","placeID":"2357024","placeName":"Atlanta","searchUrl":"http:\/\/twitter.com\/search?q=Bankroll","trendMapped":"bankroll","trendVolume":199136},{"stateName":"GA","trendName":"Bankroll Fresh","placeID":"2357024","placeName":"Atlanta","searchUrl":"http:\/\/twitter.com\/search?q=%22Bankroll+Fresh%22","trendMapped":"Bankroll+Fresh","trendVolume":122785},{"stateName":"GA","trendName":"Cristiano","placeID":"2357024","placeName":"Atlanta","searchUrl":"http:\/\/twitter.com\/search?q=Cristiano","trendMapped":"cristiano","trendVolume":252701},{"stateName":"HI","trendName":"#A3A\u00f1osDeTuSiembraComandante","placeID":"2423945","placeName":"Honolulu","searchUrl":"http:\/\/twitter.com\/search?q=%23A3A%C3%B1osDeTuSiembraComandante","trendMapped":"a3+a\u00f1os+de+tu+siembra+comandante","trendVolume":171091},{"stateName":"HI","trendName":"#GOPDebate","placeID":"2423945","placeName":"Honolulu","searchUrl":"http:\/\/twitter.com\/search?q=%23GOPDebate","trendMapped":"gop+debate","trendVolume":1332030},{"stateName":"HI","trendName":"Bankroll","placeID":"2423945","placeName":"Honolulu","searchUrl":"http:\/\/twitter.com\/search?q=Bankroll","trendMapped":"bankroll","trendVolume":312866},{"stateName":"HI","trendName":"Bankroll Fresh","placeID":"2423945","placeName":"Honolulu","searchUrl":"http:\/\/twitter.com\/search?q=%22Bankroll+Fresh%22","trendMapped":"Bankroll+Fresh","trendVolume":193159},{"stateName":"IL","trendName":"#A3A\u00f1osDeTuSiembraComandante","placeID":"2379574","placeName":"Chicago","searchUrl":"http:\/\/twitter.com\/search?q=%23A3A%C3%B1osDeTuSiembraComandante","trendMapped":"a3+a\u00f1os+de+tu+siembra+comandante","trendVolume":171091},{"stateName":"IL","trendName":"#CallMeSeb","placeID":"2379574","placeName":"Chicago","searchUrl":"http:\/\/twitter.com\/search?q=%23CallMeSeb","trendMapped":"call+me+seb","trendVolume":102234},{"stateName":"IL","trendName":"Celta","placeID":"2379574","placeName":"Chicago","searchUrl":"http:\/\/twitter.com\/search?q=Celta","trendMapped":"celta","trendVolume":166373},{"stateName":"IL","trendName":"Cristiano","placeID":"2379574","placeName":"Chicago","searchUrl":"http:\/\/twitter.com\/search?q=Cristiano","trendMapped":"cristiano","trendVolume":240163},{"stateName":"IN","trendName":"#A3A\u00f1osDeTuSiembraComandante","placeID":"2427032","placeName":"Indianapolis","searchUrl":"http:\/\/twitter.com\/search?q=%23A3A%C3%B1osDeTuSiembraComandante","trendMapped":"a3+a\u00f1os+de+tu+siembra+comandante","trendVolume":199772},{"stateName":"IN","trendName":"#CallMeSeb","placeID":"2427032","placeName":"Indianapolis","searchUrl":"http:\/\/twitter.com\/search?q=%23CallMeSeb","trendMapped":"call+me+seb","trendVolume":101444},{"stateName":"IN","trendName":"#GOPDebate","placeID":"2427032","placeName":"Indianapolis","searchUrl":"http:\/\/twitter.com\/search?q=%23GOPDebate","trendMapped":"gop+debate","trendVolume":941974},{"stateName":"IN","trendName":"Bankroll Fresh","placeID":"2427032","placeName":"Indianapolis","searchUrl":"http:\/\/twitter.com\/search?q=%22Bankroll+Fresh%22","trendMapped":"Bankroll+Fresh","trendVolume":201194},{"stateName":"IN","trendName":"Kendrick","placeID":"2427032","placeName":"Indianapolis","searchUrl":"http:\/\/twitter.com\/search?q=Kendrick","trendMapped":"kendrick","trendVolume":184607},{"stateName":"KY","trendName":"#CallMeSeb","placeID":"2442327","placeName":"Louisville","searchUrl":"http:\/\/twitter.com\/search?q=%23CallMeSeb","trendMapped":"call+me+seb","trendVolume":101994},{"stateName":"KY","trendName":"#GOPDebate","placeID":"2442327","placeName":"Louisville","searchUrl":"http:\/\/twitter.com\/search?q=%23GOPDebate","trendMapped":"gop+debate","trendVolume":1313390},{"stateName":"KY","trendName":"Bankroll Fresh","placeID":"2442327","placeName":"Louisville","searchUrl":"http:\/\/twitter.com\/search?q=%22Bankroll+Fresh%22","trendMapped":"Bankroll+Fresh","trendVolume":197745},{"stateName":"KY","trendName":"Cristiano","placeID":"2442327","placeName":"Louisville","searchUrl":"http:\/\/twitter.com\/search?q=Cristiano","trendMapped":"cristiano","trendVolume":256201},{"stateName":"KY","trendName":"Kendrick","placeID":"2442327","placeName":"Louisville","searchUrl":"http:\/\/twitter.com\/search?q=Kendrick","trendMapped":"kendrick","trendVolume":340553},{"stateName":"KY","trendName":"LizaStuns InStarStudioMag","placeID":"2442327","placeName":"Louisville","searchUrl":"http:\/\/twitter.com\/search?q=%22LizaStuns+InStarStudioMag%22","trendMapped":"LizaStuns+InStarStudioMag","trendVolume":411462},{"stateName":"LA","trendName":"#A3A\u00f1osDeTuSiembraComandante","placeID":"2458833","placeName":"New Orleans","searchUrl":"http:\/\/twitter.com\/search?q=%23A3A%C3%B1osDeTuSiembraComandante","trendMapped":"a3+a\u00f1os+de+tu+siembra+comandante","trendVolume":171091},{"stateName":"LA","trendName":"#CallMeSeb","placeID":"2359991","placeName":"Baton Rouge","searchUrl":"http:\/\/twitter.com\/search?q=%23CallMeSeb","trendMapped":"call+me+seb","trendVolume":101614},{"stateName":"LA","trendName":"#GOPDebate","placeID":"2458833","placeName":"New Orleans","searchUrl":"http:\/\/twitter.com\/search?q=%23GOPDebate","trendMapped":"gop+debate","trendVolume":1338248},{"stateName":"LA","trendName":"Bankroll Fresh","placeID":"2458833","placeName":"New Orleans","searchUrl":"http:\/\/twitter.com\/search?q=%22Bankroll+Fresh%22","trendMapped":"Bankroll+Fresh","trendVolume":269130},{"stateName":"LA","trendName":"Cristiano","placeID":"2359991","placeName":"Baton Rouge","searchUrl":"http:\/\/twitter.com\/search?q=Cristiano","trendMapped":"cristiano","trendVolume":209019},{"stateName":"LA","trendName":"Hillary","placeID":"2359991","placeName":"Baton Rouge","searchUrl":"http:\/\/twitter.com\/search?q=Hillary","trendMapped":"hillary","trendVolume":201322},{"stateName":"LA","trendName":"Kendrick","placeID":"2458833","placeName":"New Orleans","searchUrl":"http:\/\/twitter.com\/search?q=Kendrick","trendMapped":"kendrick","trendVolume":340553},{"stateName":"LA","trendName":"Ramsey","placeID":"2458833","placeName":"New Orleans","searchUrl":"http:\/\/twitter.com\/search?q=Ramsey","trendMapped":"ramsey","trendVolume":161381},{"stateName":"LA","trendName":"Tottenham","placeID":"2458833","placeName":"New Orleans","searchUrl":"http:\/\/twitter.com\/search?q=Tottenham","trendMapped":"tottenham","trendVolume":161398},{"stateName":"MA","trendName":"#A3A\u00f1osDeTuSiembraComandante","placeID":"2367105","placeName":"Boston","searchUrl":"http:\/\/twitter.com\/search?q=%23A3A%C3%B1osDeTuSiembraComandante","trendMapped":"a3+a\u00f1os+de+tu+siembra+comandante","trendVolume":197931},{"stateName":"MA","trendName":"#CallMeSeb","placeID":"2367105","placeName":"Boston","searchUrl":"http:\/\/twitter.com\/search?q=%23CallMeSeb","trendMapped":"call+me+seb","trendVolume":101904},{"stateName":"MA","trendName":"#GOPDebate","placeID":"2367105","placeName":"Boston","searchUrl":"http:\/\/twitter.com\/search?q=%23GOPDebate","trendMapped":"gop+debate","trendVolume":1329753},{"stateName":"MA","trendName":"#WorkFromTwitter","placeID":"2367105","placeName":"Boston","searchUrl":"http:\/\/twitter.com\/search?q=%23WorkFromTwitter","trendMapped":"work+from+twitter","trendVolume":166590},{"stateName":"MA","trendName":"Bankroll Fresh","placeID":"2367105","placeName":"Boston","searchUrl":"http:\/\/twitter.com\/search?q=%22Bankroll+Fresh%22","trendMapped":"Bankroll+Fresh","trendVolume":203144},{"stateName":"MD","trendName":"#GOPDebate","placeID":"2358820","placeName":"Baltimore","searchUrl":"http:\/\/twitter.com\/search?q=%23GOPDebate","trendMapped":"gop+debate","trendVolume":504341},{"stateName":"MD","trendName":"#WorkFromTwitter","placeID":"2358820","placeName":"Baltimore","searchUrl":"http:\/\/twitter.com\/search?q=%23WorkFromTwitter","trendMapped":"work+from+twitter","trendVolume":241069},{"stateName":"MD","trendName":"Arsenal","placeID":"2358820","placeName":"Baltimore","searchUrl":"http:\/\/twitter.com\/search?q=Arsenal","trendMapped":"arsenal","trendVolume":539971},{"stateName":"MD","trendName":"Kendrick","placeID":"2358820","placeName":"Baltimore","searchUrl":"http:\/\/twitter.com\/search?q=Kendrick","trendMapped":"kendrick","trendVolume":426369},{"stateName":"MI","trendName":"#GOPDebate","placeID":"2391585","placeName":"Detroit","searchUrl":"http:\/\/twitter.com\/search?q=%23GOPDebate","trendMapped":"gop+debate","trendVolume":503176},{"stateName":"MI","trendName":"Bankroll Fresh","placeID":"2391585","placeName":"Detroit","searchUrl":"http:\/\/twitter.com\/search?q=%22Bankroll+Fresh%22","trendMapped":"Bankroll+Fresh","trendVolume":267615},{"stateName":"MI","trendName":"Cristiano","placeID":"2391585","placeName":"Detroit","searchUrl":"http:\/\/twitter.com\/search?q=Cristiano","trendMapped":"cristiano","trendVolume":240163},{"stateName":"MI","trendName":"Kendrick","placeID":"2391585","placeName":"Detroit","searchUrl":"http:\/\/twitter.com\/search?q=Kendrick","trendMapped":"kendrick","trendVolume":339612},{"stateName":"MN","trendName":"#CallMeSeb","placeID":"2452078","placeName":"Minneapolis","searchUrl":"http:\/\/twitter.com\/search?q=%23CallMeSeb","trendMapped":"call+me+seb","trendVolume":102234},{"stateName":"MN","trendName":"#GOPDebate","placeID":"2452078","placeName":"Minneapolis","searchUrl":"http:\/\/twitter.com\/search?q=%23GOPDebate","trendMapped":"gop+debate","trendVolume":1315628},{"stateName":"MN","trendName":"Bankroll Fresh","placeID":"2452078","placeName":"Minneapolis","searchUrl":"http:\/\/twitter.com\/search?q=%22Bankroll+Fresh%22","trendMapped":"Bankroll+Fresh","trendVolume":196139},{"stateName":"MN","trendName":"Cristiano","placeID":"2452078","placeName":"Minneapolis","searchUrl":"http:\/\/twitter.com\/search?q=Cristiano","trendMapped":"cristiano","trendVolume":247421},{"stateName":"MN","trendName":"LizaStuns InStarStudioMag","placeID":"2452078","placeName":"Minneapolis","searchUrl":"http:\/\/twitter.com\/search?q=%22LizaStuns+InStarStudioMag%22","trendMapped":"LizaStuns+InStarStudioMag","trendVolume":410807},{"stateName":"MO","trendName":"#A3A\u00f1osDeTuSiembraComandante","placeID":"2430683","placeName":"Kansas City","searchUrl":"http:\/\/twitter.com\/search?q=%23A3A%C3%B1osDeTuSiembraComandante","trendMapped":"a3+a\u00f1os+de+tu+siembra+comandante","trendVolume":207985},{"stateName":"MO","trendName":"#GIFparty","placeID":"2486982","placeName":"St. Louis","searchUrl":"http:\/\/twitter.com\/search?q=%23GIFparty","trendMapped":"gi+fparty","trendVolume":131688},{"stateName":"MO","trendName":"#GOPDebate","placeID":"2430683","placeName":"Kansas City","searchUrl":"http:\/\/twitter.com\/search?q=%23GOPDebate","trendMapped":"gop+debate","trendVolume":1330953},{"stateName":"MO","trendName":"Bankroll Fresh","placeID":"2486982","placeName":"St. Louis","searchUrl":"http:\/\/twitter.com\/search?q=%22Bankroll+Fresh%22","trendMapped":"Bankroll+Fresh","trendVolume":257864},{"stateName":"MO","trendName":"Cristiano","placeID":"2486982","placeName":"St. Louis","searchUrl":"http:\/\/twitter.com\/search?q=Cristiano","trendMapped":"cristiano","trendVolume":251177},{"stateName":"MS","trendName":"#A3A\u00f1osDeTuSiembraComandante","placeID":"2428184","placeName":"Jackson","searchUrl":"http:\/\/twitter.com\/search?q=%23A3A%C3%B1osDeTuSiembraComandante","trendMapped":"a3+a\u00f1os+de+tu+siembra+comandante","trendVolume":197931},{"stateName":"MS","trendName":"#CallMeSeb","placeID":"2428184","placeName":"Jackson","searchUrl":"http:\/\/twitter.com\/search?q=%23CallMeSeb","trendMapped":"call+me+seb","trendVolume":102234},{"stateName":"MS","trendName":"Cristiano","placeID":"2428184","placeName":"Jackson","searchUrl":"http:\/\/twitter.com\/search?q=Cristiano","trendMapped":"cristiano","trendVolume":235072},{"stateName":"MS","trendName":"Kendrick","placeID":"2428184","placeName":"Jackson","searchUrl":"http:\/\/twitter.com\/search?q=Kendrick","trendMapped":"kendrick","trendVolume":423082},{"stateName":"MS","trendName":"LizaStuns InStarStudioMag","placeID":"2428184","placeName":"Jackson","searchUrl":"http:\/\/twitter.com\/search?q=%22LizaStuns+InStarStudioMag%22","trendMapped":"LizaStuns+InStarStudioMag","trendVolume":410807},{"stateName":"NC","trendName":"#GOPDebate","placeID":"2478307","placeName":"Raleigh","searchUrl":"http:\/\/twitter.com\/search?q=%23GOPDebate","trendMapped":"gop+debate","trendVolume":1329753},{"stateName":"NC","trendName":"#WorkFromTwitter","placeID":"2378426","placeName":"Charlotte","searchUrl":"http:\/\/twitter.com\/search?q=%23WorkFromTwitter","trendMapped":"work+from+twitter","trendVolume":193467},{"stateName":"NC","trendName":"Arsenal","placeID":"2478307","placeName":"Raleigh","searchUrl":"http:\/\/twitter.com\/search?q=Arsenal","trendMapped":"arsenal","trendVolume":487314},{"stateName":"NC","trendName":"Bankroll Fresh","placeID":"2478307","placeName":"Raleigh","searchUrl":"http:\/\/twitter.com\/search?q=%22Bankroll+Fresh%22","trendMapped":"Bankroll+Fresh","trendVolume":268662},{"stateName":"NC","trendName":"Cristiano","placeID":"2478307","placeName":"Raleigh","searchUrl":"http:\/\/twitter.com\/search?q=Cristiano","trendMapped":"cristiano","trendVolume":252701},{"stateName":"NC","trendName":"Kendrick","placeID":"2478307","placeName":"Raleigh","searchUrl":"http:\/\/twitter.com\/search?q=Kendrick","trendMapped":"kendrick","trendVolume":197476},{"stateName":"NC","trendName":"LizaStuns InStarStudioMag","placeID":"2478307","placeName":"Raleigh","searchUrl":"http:\/\/twitter.com\/search?q=%22LizaStuns+InStarStudioMag%22","trendMapped":"LizaStuns+InStarStudioMag","trendVolume":406603},{"stateName":"NC","trendName":"Tottenham","placeID":"2478307","placeName":"Raleigh","searchUrl":"http:\/\/twitter.com\/search?q=Tottenham","trendMapped":"tottenham","trendVolume":161398},{"stateName":"NE","trendName":"#A3A\u00f1osDeTuSiembraComandante","placeID":"2465512","placeName":"Omaha","searchUrl":"http:\/\/twitter.com\/search?q=%23A3A%C3%B1osDeTuSiembraComandante","trendMapped":"a3+a\u00f1os+de+tu+siembra+comandante","trendVolume":197931},{"stateName":"NE","trendName":"#GOPDebate","placeID":"2465512","placeName":"Omaha","searchUrl":"http:\/\/twitter.com\/search?q=%23GOPDebate","trendMapped":"gop+debate","trendVolume":1332030},{"stateName":"NE","trendName":"Bankroll Fresh","placeID":"2465512","placeName":"Omaha","searchUrl":"http:\/\/twitter.com\/search?q=%22Bankroll+Fresh%22","trendMapped":"Bankroll+Fresh","trendVolume":203144},{"stateName":"NE","trendName":"Cristiano","placeID":"2465512","placeName":"Omaha","searchUrl":"http:\/\/twitter.com\/search?q=Cristiano","trendMapped":"cristiano","trendVolume":245018},{"stateName":"NE","trendName":"Kendrick","placeID":"2465512","placeName":"Omaha","searchUrl":"http:\/\/twitter.com\/search?q=Kendrick","trendMapped":"kendrick","trendVolume":337708},{"stateName":"NM","trendName":"#A3AnosDeTuSiembraComandante","placeID":"2352824","placeName":"Albuquerque","searchUrl":"http:\/\/twitter.com\/search?q=%23A3AnosDeTuSiembraComandante","trendMapped":"a3+anos+de+tu+siembra+comandante","trendVolume":209679},{"stateName":"NM","trendName":"#CallMeSeb","placeID":"2352824","placeName":"Albuquerque","searchUrl":"http:\/\/twitter.com\/search?q=%23CallMeSeb","trendMapped":"call+me+seb","trendVolume":102164},{"stateName":"NM","trendName":"#WorkFromTwitter","placeID":"2352824","placeName":"Albuquerque","searchUrl":"http:\/\/twitter.com\/search?q=%23WorkFromTwitter","trendMapped":"work+from+twitter","trendVolume":199867},{"stateName":"NM","trendName":"Bankroll Fresh","placeID":"2352824","placeName":"Albuquerque","searchUrl":"http:\/\/twitter.com\/search?q=%22Bankroll+Fresh%22","trendMapped":"Bankroll+Fresh","trendVolume":203144},{"stateName":"NM","trendName":"Celta","placeID":"2352824","placeName":"Albuquerque","searchUrl":"http:\/\/twitter.com\/search?q=Celta","trendMapped":"celta","trendVolume":166872},{"stateName":"NM","trendName":"Cristiano","placeID":"2352824","placeName":"Albuquerque","searchUrl":"http:\/\/twitter.com\/search?q=Cristiano","trendMapped":"cristiano","trendVolume":226787},{"stateName":"NM","trendName":"Zaman","placeID":"2352824","placeName":"Albuquerque","searchUrl":"http:\/\/twitter.com\/search?q=Zaman","trendMapped":"zaman","trendVolume":515370},{"stateName":"NV","trendName":"#A3A\u00f1osDeTuSiembraComandante","placeID":"2436704","placeName":"Las Vegas","searchUrl":"http:\/\/twitter.com\/search?q=%23A3A%C3%B1osDeTuSiembraComandante","trendMapped":"a3+a\u00f1os+de+tu+siembra+comandante","trendVolume":171091},{"stateName":"NV","trendName":"#GOPDebate","placeID":"2436704","placeName":"Las Vegas","searchUrl":"http:\/\/twitter.com\/search?q=%23GOPDebate","trendMapped":"gop+debate","trendVolume":1329753},{"stateName":"NV","trendName":"#UFC196","placeID":"2436704","placeName":"Las Vegas","searchUrl":"http:\/\/twitter.com\/search?q=%23UFC196","trendMapped":"ufc196","trendVolume":129090},{"stateName":"NV","trendName":"Bankroll Fresh","placeID":"2436704","placeName":"Las Vegas","searchUrl":"http:\/\/twitter.com\/search?q=%22Bankroll+Fresh%22","trendMapped":"Bankroll+Fresh","trendVolume":179056},{"stateName":"NV","trendName":"Kendrick","placeID":"2436704","placeName":"Las Vegas","searchUrl":"http:\/\/twitter.com\/search?q=Kendrick","trendMapped":"kendrick","trendVolume":340553},{"stateName":"NV","trendName":"LizaStuns InStarStudioMag","placeID":"2436704","placeName":"Las Vegas","searchUrl":"http:\/\/twitter.com\/search?q=%22LizaStuns+InStarStudioMag%22","trendMapped":"LizaStuns+InStarStudioMag","trendVolume":407855},{"stateName":"NY","trendName":"#A3A\u00f1osDeTuSiembraComandante","placeID":"2459115","placeName":"New York","searchUrl":"http:\/\/twitter.com\/search?q=%23A3A%C3%B1osDeTuSiembraComandante","trendMapped":"a3+a\u00f1os+de+tu+siembra+comandante","trendVolume":207985},{"stateName":"NY","trendName":"#CallMeSeb","placeID":"2459115","placeName":"New York","searchUrl":"http:\/\/twitter.com\/search?q=%23CallMeSeb","trendMapped":"call+me+seb","trendVolume":101444},{"stateName":"NY","trendName":"#WorkFromTwitter","placeID":"2459115","placeName":"New York","searchUrl":"http:\/\/twitter.com\/search?q=%23WorkFromTwitter","trendMapped":"work+from+twitter","trendVolume":193467},{"stateName":"NY","trendName":"Bankroll Fresh","placeID":"2459115","placeName":"New York","searchUrl":"http:\/\/twitter.com\/search?q=%22Bankroll+Fresh%22","trendMapped":"Bankroll+Fresh","trendVolume":193159},{"stateName":"NY","trendName":"Cristiano","placeID":"2459115","placeName":"New York","searchUrl":"http:\/\/twitter.com\/search?q=Cristiano","trendMapped":"cristiano","trendVolume":240163},{"stateName":"NY","trendName":"LizaStuns InStarStudioMag","placeID":"2459115","placeName":"New York","searchUrl":"http:\/\/twitter.com\/search?q=%22LizaStuns+InStarStudioMag%22","trendMapped":"LizaStuns+InStarStudioMag","trendVolume":406603},{"stateName":"NY","trendName":"VOTE ONE DIRECTION","placeID":"2459115","placeName":"New York","searchUrl":"http:\/\/twitter.com\/search?q=%22VOTE+ONE+DIRECTION%22","trendMapped":"VOTE+ONE+DIRECTION","trendVolume":146701},{"stateName":"OH","trendName":"#A3A\u00f1osDeTuSiembraComandante","placeID":"2380358","placeName":"Cincinnati","searchUrl":"http:\/\/twitter.com\/search?q=%23A3A%C3%B1osDeTuSiembraComandante","trendMapped":"a3+a\u00f1os+de+tu+siembra+comandante","trendVolume":197931},{"stateName":"OH","trendName":"#CallMeSeb","placeID":"2383660","placeName":"Columbus","searchUrl":"http:\/\/twitter.com\/search?q=%23CallMeSeb","trendMapped":"call+me+seb","trendVolume":101444},{"stateName":"OH","trendName":"#GOPDebate","placeID":"2383660","placeName":"Columbus","searchUrl":"http:\/\/twitter.com\/search?q=%23GOPDebate","trendMapped":"gop+debate","trendVolume":1332030},{"stateName":"OH","trendName":"#WorkFromTwitter","placeID":"2381475","placeName":"Cleveland","searchUrl":"http:\/\/twitter.com\/search?q=%23WorkFromTwitter","trendMapped":"work+from+twitter","trendVolume":179115},{"stateName":"OH","trendName":"Bankroll Fresh","placeID":"2383660","placeName":"Columbus","searchUrl":"http:\/\/twitter.com\/search?q=%22Bankroll+Fresh%22","trendMapped":"Bankroll+Fresh","trendVolume":237212},{"stateName":"OH","trendName":"Cristiano","placeID":"2383660","placeName":"Columbus","searchUrl":"http:\/\/twitter.com\/search?q=Cristiano","trendMapped":"cristiano","trendVolume":247421},{"stateName":"OH","trendName":"Kendrick","placeID":"2383660","placeName":"Columbus","searchUrl":"http:\/\/twitter.com\/search?q=Kendrick","trendMapped":"kendrick","trendVolume":449959},{"stateName":"OH","trendName":"LizaStuns InStarStudioMag","placeID":"2383660","placeName":"Columbus","searchUrl":"http:\/\/twitter.com\/search?q=%22LizaStuns+InStarStudioMag%22","trendMapped":"LizaStuns+InStarStudioMag","trendVolume":407855},{"stateName":"OK","trendName":"#A3A\u00f1osDeTuSiembraComandante","placeID":"2464592","placeName":"Oklahoma City","searchUrl":"http:\/\/twitter.com\/search?q=%23A3A%C3%B1osDeTuSiembraComandante","trendMapped":"a3+a\u00f1os+de+tu+siembra+comandante","trendVolume":197931},{"stateName":"OK","trendName":"#CallMeSeb","placeID":"2464592","placeName":"Oklahoma City","searchUrl":"http:\/\/twitter.com\/search?q=%23CallMeSeb","trendMapped":"call+me+seb","trendVolume":101614},{"stateName":"OK","trendName":"Bankroll Fresh","placeID":"2464592","placeName":"Oklahoma City","searchUrl":"http:\/\/twitter.com\/search?q=%22Bankroll+Fresh%22","trendMapped":"Bankroll+Fresh","trendVolume":173684},{"stateName":"OK","trendName":"Kendrick","placeID":"2464592","placeName":"Oklahoma City","searchUrl":"http:\/\/twitter.com\/search?q=Kendrick","trendMapped":"kendrick","trendVolume":339612},{"stateName":"OR","trendName":"#A3A\u00f1osDeTuSiembraComandante","placeID":"2475687","placeName":"Portland","searchUrl":"http:\/\/twitter.com\/search?q=%23A3A%C3%B1osDeTuSiembraComandante","trendMapped":"a3+a\u00f1os+de+tu+siembra+comandante","trendVolume":181748},{"stateName":"OR","trendName":"#GOPDebate","placeID":"2475687","placeName":"Portland","searchUrl":"http:\/\/twitter.com\/search?q=%23GOPDebate","trendMapped":"gop+debate","trendVolume":504341},{"stateName":"OR","trendName":"#UFC196","placeID":"2475687","placeName":"Portland","searchUrl":"http:\/\/twitter.com\/search?q=%23UFC196","trendMapped":"ufc196","trendVolume":129090},{"stateName":"OR","trendName":"Bankroll Fresh","placeID":"2475687","placeName":"Portland","searchUrl":"http:\/\/twitter.com\/search?q=%22Bankroll+Fresh%22","trendMapped":"Bankroll+Fresh","trendVolume":203144},{"stateName":"OR","trendName":"Cristiano","placeID":"2475687","placeName":"Portland","searchUrl":"http:\/\/twitter.com\/search?q=Cristiano","trendMapped":"cristiano","trendVolume":245018},{"stateName":"OR","trendName":"Kendrick","placeID":"2475687","placeName":"Portland","searchUrl":"http:\/\/twitter.com\/search?q=Kendrick","trendMapped":"kendrick","trendVolume":429784},{"stateName":"OR","trendName":"LizaStuns InStarStudioMag","placeID":"2475687","placeName":"Portland","searchUrl":"http:\/\/twitter.com\/search?q=%22LizaStuns+InStarStudioMag%22","trendMapped":"LizaStuns+InStarStudioMag","trendVolume":406603},{"stateName":"PA","trendName":"#A3A\u00f1osDeTuSiembraComandante","placeID":"2471217","placeName":"Philadelphia","searchUrl":"http:\/\/twitter.com\/search?q=%23A3A%C3%B1osDeTuSiembraComandante","trendMapped":"a3+a\u00f1os+de+tu+siembra+comandante","trendVolume":181748},{"stateName":"PA","trendName":"#CallMeSeb","placeID":"2473224","placeName":"Pittsburgh","searchUrl":"http:\/\/twitter.com\/search?q=%23CallMeSeb","trendMapped":"call+me+seb","trendVolume":102288},{"stateName":"PA","trendName":"#GOPDebate","placeID":"2473224","placeName":"Pittsburgh","searchUrl":"http:\/\/twitter.com\/search?q=%23GOPDebate","trendMapped":"gop+debate","trendVolume":1331335},{"stateName":"PA","trendName":"#WorkFromTwitter","placeID":"2471217","placeName":"Philadelphia","searchUrl":"http:\/\/twitter.com\/search?q=%23WorkFromTwitter","trendMapped":"work+from+twitter","trendVolume":189805},{"stateName":"PA","trendName":"Bankroll","placeID":"2418046","placeName":"Harrisburg","searchUrl":"http:\/\/twitter.com\/search?q=Bankroll","trendMapped":"bankroll","trendVolume":316546},{"stateName":"PA","trendName":"Bankroll Fresh","placeID":"2473224","placeName":"Pittsburgh","searchUrl":"http:\/\/twitter.com\/search?q=%22Bankroll+Fresh%22","trendMapped":"Bankroll+Fresh","trendVolume":258416},{"stateName":"PA","trendName":"Cristiano","placeID":"2473224","placeName":"Pittsburgh","searchUrl":"http:\/\/twitter.com\/search?q=Cristiano","trendMapped":"cristiano","trendVolume":247421},{"stateName":"PA","trendName":"Hillary","placeID":"2418046","placeName":"Harrisburg","searchUrl":"http:\/\/twitter.com\/search?q=Hillary","trendMapped":"hillary","trendVolume":216594},{"stateName":"PA","trendName":"Kendrick","placeID":"2473224","placeName":"Pittsburgh","searchUrl":"http:\/\/twitter.com\/search?q=Kendrick","trendMapped":"kendrick","trendVolume":340773},{"stateName":"PA","trendName":"LizaStuns InStarStudioMag","placeID":"2473224","placeName":"Pittsburgh","searchUrl":"http:\/\/twitter.com\/search?q=%22LizaStuns+InStarStudioMag%22","trendMapped":"LizaStuns+InStarStudioMag","trendVolume":410807},{"stateName":"PA","trendName":"Rubio","placeID":"2418046","placeName":"Harrisburg","searchUrl":"http:\/\/twitter.com\/search?q=Rubio","trendMapped":"rubio","trendVolume":181242},{"stateName":"RI","trendName":"#A3A\u00f1osDeTuSiembraComandante","placeID":"2477058","placeName":"Providence","searchUrl":"http:\/\/twitter.com\/search?q=%23A3A%C3%B1osDeTuSiembraComandante","trendMapped":"a3+a\u00f1os+de+tu+siembra+comandante","trendVolume":171091},{"stateName":"RI","trendName":"#CallMeSeb","placeID":"2477058","placeName":"Providence","searchUrl":"http:\/\/twitter.com\/search?q=%23CallMeSeb","trendMapped":"call+me+seb","trendVolume":102164},{"stateName":"RI","trendName":"#GOPDebate","placeID":"2477058","placeName":"Providence","searchUrl":"http:\/\/twitter.com\/search?q=%23GOPDebate","trendMapped":"gop+debate","trendVolume":1338248},{"stateName":"RI","trendName":"Bankroll","placeID":"2477058","placeName":"Providence","searchUrl":"http:\/\/twitter.com\/search?q=Bankroll","trendMapped":"bankroll","trendVolume":312866},{"stateName":"RI","trendName":"Bankroll Fresh","placeID":"2477058","placeName":"Providence","searchUrl":"http:\/\/twitter.com\/search?q=%22Bankroll+Fresh%22","trendMapped":"Bankroll+Fresh","trendVolume":175518},{"stateName":"RI","trendName":"Cristiano","placeID":"2477058","placeName":"Providence","searchUrl":"http:\/\/twitter.com\/search?q=Cristiano","trendMapped":"cristiano","trendVolume":220973},{"stateName":"RI","trendName":"Kendrick","placeID":"2477058","placeName":"Providence","searchUrl":"http:\/\/twitter.com\/search?q=Kendrick","trendMapped":"kendrick","trendVolume":170317},{"stateName":"RI","trendName":"LizaStuns InStarStudioMag","placeID":"2477058","placeName":"Providence","searchUrl":"http:\/\/twitter.com\/search?q=%22LizaStuns+InStarStudioMag%22","trendMapped":"LizaStuns+InStarStudioMag","trendVolume":404525},{"stateName":"TN","trendName":"#GOPDebate","placeID":"2457170","placeName":"Nashville","searchUrl":"http:\/\/twitter.com\/search?q=%23GOPDebate","trendMapped":"gop+debate","trendVolume":1329753},{"stateName":"TN","trendName":"Bankroll","placeID":"2457170","placeName":"Nashville","searchUrl":"http:\/\/twitter.com\/search?q=Bankroll","trendMapped":"bankroll","trendVolume":297598},{"stateName":"TN","trendName":"Bankroll Fresh","placeID":"2457170","placeName":"Nashville","searchUrl":"http:\/\/twitter.com\/search?q=%22Bankroll+Fresh%22","trendMapped":"Bankroll+Fresh","trendVolume":256123},{"stateName":"TN","trendName":"Donald Trump","placeID":"2449323","placeName":"Memphis","searchUrl":"http:\/\/twitter.com\/search?q=%22Donald+Trump%22","trendMapped":"Donald+Trump","trendVolume":408147},{"stateName":"TX","trendName":"#A3A\u00f1osDeTuSiembraComandante","placeID":"2397816","placeName":"El Paso","searchUrl":"http:\/\/twitter.com\/search?q=%23A3A%C3%B1osDeTuSiembraComandante","trendMapped":"a3+a\u00f1os+de+tu+siembra+comandante","trendVolume":190555},{"stateName":"TX","trendName":"#CallMeSeb","placeID":"2357536","placeName":"Austin","searchUrl":"http:\/\/twitter.com\/search?q=%23CallMeSeb","trendMapped":"call+me+seb","trendVolume":101994},{"stateName":"TX","trendName":"#GOPDebate","placeID":"2487796","placeName":"San Antonio","searchUrl":"http:\/\/twitter.com\/search?q=%23GOPDebate","trendMapped":"gop+debate","trendVolume":1338248},{"stateName":"TX","trendName":"Arsenal","placeID":"2424766","placeName":"Houston","searchUrl":"http:\/\/twitter.com\/search?q=Arsenal","trendMapped":"arsenal","trendVolume":522437},{"stateName":"TX","trendName":"Bankroll","placeID":"2424766","placeName":"Houston","searchUrl":"http:\/\/twitter.com\/search?q=Bankroll","trendMapped":"bankroll","trendVolume":318984},{"stateName":"TX","trendName":"Bankroll Fresh","placeID":"2487796","placeName":"San Antonio","searchUrl":"http:\/\/twitter.com\/search?q=%22Bankroll+Fresh%22","trendMapped":"Bankroll+Fresh","trendVolume":267615},{"stateName":"TX","trendName":"Cristiano","placeID":"2487796","placeName":"San Antonio","searchUrl":"http:\/\/twitter.com\/search?q=Cristiano","trendMapped":"cristiano","trendVolume":256201},{"stateName":"TX","trendName":"Kendrick","placeID":"2487796","placeName":"San Antonio","searchUrl":"http:\/\/twitter.com\/search?q=Kendrick","trendMapped":"kendrick","trendVolume":449959},{"stateName":"TX","trendName":"LizaStuns InStarStudioMag","placeID":"2424766","placeName":"Houston","searchUrl":"http:\/\/twitter.com\/search?q=%22LizaStuns+InStarStudioMag%22","trendMapped":"LizaStuns+InStarStudioMag","trendVolume":406603},{"stateName":"UT","trendName":"#GOPDebate","placeID":"2487610","placeName":"Salt Lake City","searchUrl":"http:\/\/twitter.com\/search?q=%23GOPDebate","trendMapped":"gop+debate","trendVolume":1314567},{"stateName":"UT","trendName":"Bankroll","placeID":"2487610","placeName":"Salt Lake City","searchUrl":"http:\/\/twitter.com\/search?q=Bankroll","trendMapped":"bankroll","trendVolume":308624},{"stateName":"UT","trendName":"Bankroll Fresh","placeID":"2487610","placeName":"Salt Lake City","searchUrl":"http:\/\/twitter.com\/search?q=%22Bankroll+Fresh%22","trendMapped":"Bankroll+Fresh","trendVolume":203144},{"stateName":"UT","trendName":"Cristiano","placeID":"2487610","placeName":"Salt Lake City","searchUrl":"http:\/\/twitter.com\/search?q=Cristiano","trendMapped":"cristiano","trendVolume":226787},{"stateName":"VA","trendName":"#A3A\u00f1osDeTuSiembraComandante","placeID":"2512636","placeName":"Virginia Beach","searchUrl":"http:\/\/twitter.com\/search?q=%23A3A%C3%B1osDeTuSiembraComandante","trendMapped":"a3+a\u00f1os+de+tu+siembra+comandante","trendVolume":204288},{"stateName":"VA","trendName":"#GOPDebate","placeID":"2480894","placeName":"Richmond","searchUrl":"http:\/\/twitter.com\/search?q=%23GOPDebate","trendMapped":"gop+debate","trendVolume":1332030},{"stateName":"VA","trendName":"#WorkFromTwitter","placeID":"2512636","placeName":"Virginia Beach","searchUrl":"http:\/\/twitter.com\/search?q=%23WorkFromTwitter","trendMapped":"work+from+twitter","trendVolume":201553},{"stateName":"VA","trendName":"Bankroll","placeID":"2460389","placeName":"Norfolk","searchUrl":"http:\/\/twitter.com\/search?q=Bankroll","trendMapped":"bankroll","trendVolume":346324},{"stateName":"VA","trendName":"Bankroll Fresh","placeID":"2512636","placeName":"Virginia Beach","searchUrl":"http:\/\/twitter.com\/search?q=%22Bankroll+Fresh%22","trendMapped":"Bankroll+Fresh","trendVolume":197745},{"stateName":"VA","trendName":"Celta","placeID":"2480894","placeName":"Richmond","searchUrl":"http:\/\/twitter.com\/search?q=Celta","trendMapped":"celta","trendVolume":165774},{"stateName":"VA","trendName":"Cristiano","placeID":"2512636","placeName":"Virginia Beach","searchUrl":"http:\/\/twitter.com\/search?q=Cristiano","trendMapped":"cristiano","trendVolume":252701},{"stateName":"VA","trendName":"Kendrick","placeID":"2480894","placeName":"Richmond","searchUrl":"http:\/\/twitter.com\/search?q=Kendrick","trendMapped":"kendrick","trendVolume":339612},{"stateName":"VA","trendName":"LizaStuns InStarStudioMag","placeID":"2512636","placeName":"Virginia Beach","searchUrl":"http:\/\/twitter.com\/search?q=%22LizaStuns+InStarStudioMag%22","trendMapped":"LizaStuns+InStarStudioMag","trendVolume":411462},{"stateName":"VA","trendName":"Tottenham","placeID":"2480894","placeName":"Richmond","searchUrl":"http:\/\/twitter.com\/search?q=Tottenham","trendMapped":"tottenham","trendVolume":152222},{"stateName":"WA","trendName":"#GOPDebate","placeID":"2490383","placeName":"Seattle","searchUrl":"http:\/\/twitter.com\/search?q=%23GOPDebate","trendMapped":"gop+debate","trendVolume":1330953},{"stateName":"WA","trendName":"Arsenal","placeID":"2490383","placeName":"Seattle","searchUrl":"http:\/\/twitter.com\/search?q=Arsenal","trendMapped":"arsenal","trendVolume":543241},{"stateName":"WA","trendName":"Bankroll Fresh","placeID":"2490383","placeName":"Seattle","searchUrl":"http:\/\/twitter.com\/search?q=%22Bankroll+Fresh%22","trendMapped":"Bankroll+Fresh","trendVolume":261784},{"stateName":"WA","trendName":"Cristiano","placeID":"2490383","placeName":"Seattle","searchUrl":"http:\/\/twitter.com\/search?q=Cristiano","trendMapped":"cristiano","trendVolume":247421},{"stateName":"WA","trendName":"Kendrick","placeID":"2490383","placeName":"Seattle","searchUrl":"http:\/\/twitter.com\/search?q=Kendrick","trendMapped":"kendrick","trendVolume":439102},{"stateName":"WI","trendName":"#A3A\u00f1osDeTuSiembraComandante","placeID":"2451822","placeName":"Milwaukee","searchUrl":"http:\/\/twitter.com\/search?q=%23A3A%C3%B1osDeTuSiembraComandante","trendMapped":"a3+a\u00f1os+de+tu+siembra+comandante","trendVolume":188837},{"stateName":"WI","trendName":"#CallMeSeb","placeID":"2451822","placeName":"Milwaukee","searchUrl":"http:\/\/twitter.com\/search?q=%23CallMeSeb","trendMapped":"call+me+seb","trendVolume":102164},{"stateName":"WI","trendName":"#GOPDebate","placeID":"2451822","placeName":"Milwaukee","searchUrl":"http:\/\/twitter.com\/search?q=%23GOPDebate","trendMapped":"gop+debate","trendVolume":1330132},{"stateName":"WI","trendName":"#WorkFromTwitter","placeID":"2451822","placeName":"Milwaukee","searchUrl":"http:\/\/twitter.com\/search?q=%23WorkFromTwitter","trendMapped":"work+from+twitter","trendVolume":238844},{"stateName":"WI","trendName":"Cristiano","placeID":"2451822","placeName":"Milwaukee","searchUrl":"http:\/\/twitter.com\/search?q=Cristiano","trendMapped":"cristiano","trendVolume":251177},{"stateName":"WI","trendName":"Kendrick","placeID":"2451822","placeName":"Milwaukee","searchUrl":"http:\/\/twitter.com\/search?q=Kendrick","trendMapped":"kendrick","trendVolume":170076},{"stateName":"WI","trendName":"LizaStuns InStarStudioMag","placeID":"2451822","placeName":"Milwaukee","searchUrl":"http:\/\/twitter.com\/search?q=%22LizaStuns+InStarStudioMag%22","trendMapped":"LizaStuns+InStarStudioMag","trendVolume":407855},{"stateName":"XX","trendName":"#A3A\u00f1osDeTuSiembraComandante","placeID":"23424977","placeName":"United States","searchUrl":"http:\/\/twitter.com\/search?q=%23A3A%C3%B1osDeTuSiembraComandante","trendMapped":"a3+a\u00f1os+de+tu+siembra+comandante","trendVolume":194941},{"stateName":"XX","trendName":"#GOPDebate","placeID":"23424977","placeName":"United States","searchUrl":"http:\/\/twitter.com\/search?q=%23GOPDebate","trendMapped":"gop+debate","trendVolume":172659},{"stateName":"XX","trendName":"#WorkFromTwitter","placeID":"23424977","placeName":"United States","searchUrl":"http:\/\/twitter.com\/search?q=%23WorkFromTwitter","trendMapped":"work+from+twitter","trendVolume":183975},{"stateName":"XX","trendName":"Bankroll Fresh","placeID":"23424977","placeName":"United States","searchUrl":"http:\/\/twitter.com\/search?q=%22Bankroll+Fresh%22","trendMapped":"Bankroll+Fresh","trendVolume":148460},{"stateName":"XX","trendName":"Cristiano","placeID":"23424977","placeName":"United States","searchUrl":"http:\/\/twitter.com\/search?q=Cristiano","trendMapped":"cristiano","trendVolume":251177},{"stateName":"XX","trendName":"Kendrick","placeID":"23424977","placeName":"United States","searchUrl":"http:\/\/twitter.com\/search?q=Kendrick","trendMapped":"kendrick","trendVolume":197649},{"stateName":"XX","trendName":"LizaStuns InStarStudioMag","placeID":"23424977","placeName":"United States","searchUrl":"http:\/\/twitter.com\/search?q=%22LizaStuns+InStarStudioMag%22","trendMapped":"LizaStuns+InStarStudioMag","trendVolume":407855}]