[{"stateName":"AL","trendName":"#Ankara","placeID":"2364559","placeName":"Birmingham","searchUrl":"http:\/\/twitter.com\/search?q=%23Ankara","trendMapped":"ankara","trendVolume":915470},{"stateName":"AL","trendName":"#DemTownHall","placeID":"2364559","placeName":"Birmingham","searchUrl":"http:\/\/twitter.com\/search?q=%23DemTownHall","trendMapped":"dem+town+hall","trendVolume":233914},{"stateName":"AL","trendName":"#PiDay","placeID":"2364559","placeName":"Birmingham","searchUrl":"http:\/\/twitter.com\/search?q=%23PiDay","trendMapped":"pi+day","trendVolume":224303},{"stateName":"AL","trendName":"#TheWalkingDead","placeID":"2364559","placeName":"Birmingham","searchUrl":"http:\/\/twitter.com\/search?q=%23TheWalkingDead","trendMapped":"the+walking+dead","trendVolume":168980},{"stateName":"AL","trendName":"NCAA","placeID":"2364559","placeName":"Birmingham","searchUrl":"http:\/\/twitter.com\/search?q=NCAA","trendMapped":"ncaa","trendVolume":201159},{"stateName":"AZ","trendName":"#Ankara","placeID":"2471390","placeName":"Phoenix","searchUrl":"http:\/\/twitter.com\/search?q=%23Ankara","trendMapped":"ankara","trendVolume":908303},{"stateName":"AZ","trendName":"#DemTownHall","placeID":"2508428","placeName":"Tucson","searchUrl":"http:\/\/twitter.com\/search?q=%23DemTownHall","trendMapped":"dem+town+hall","trendVolume":267370},{"stateName":"AZ","trendName":"#PiDay","placeID":"2508428","placeName":"Tucson","searchUrl":"http:\/\/twitter.com\/search?q=%23PiDay","trendMapped":"pi+day","trendVolume":248372},{"stateName":"AZ","trendName":"#TheWalkingDead","placeID":"2471390","placeName":"Phoenix","searchUrl":"http:\/\/twitter.com\/search?q=%23TheWalkingDead","trendMapped":"the+walking+dead","trendVolume":168506},{"stateName":"AZ","trendName":"#aldubsusingmansyon","placeID":"2508428","placeName":"Tucson","searchUrl":"http:\/\/twitter.com\/search?q=%23aldubsusingmansyon","trendMapped":"aldubsusingmansyon","trendVolume":1412928},{"stateName":"AZ","trendName":"#mondaymotivation","placeID":"2508428","placeName":"Tucson","searchUrl":"http:\/\/twitter.com\/search?q=%23mondaymotivation","trendMapped":"mondaymotivation","trendVolume":54246},{"stateName":"AZ","trendName":"Am\u00e9rica","placeID":"2449808","placeName":"Mesa","searchUrl":"http:\/\/twitter.com\/search?q=Am%C3%A9rica","trendMapped":"am\u00e9rica","trendVolume":449907},{"stateName":"AZ","trendName":"Breitbart","placeID":"2508428","placeName":"Tucson","searchUrl":"http:\/\/twitter.com\/search?q=Breitbart","trendMapped":"breitbart","trendVolume":82226},{"stateName":"AZ","trendName":"Chivas","placeID":"2508428","placeName":"Tucson","searchUrl":"http:\/\/twitter.com\/search?q=Chivas","trendMapped":"chivas","trendVolume":222850},{"stateName":"CA","trendName":"#Ankara","placeID":"2488042","placeName":"San Jose","searchUrl":"http:\/\/twitter.com\/search?q=%23Ankara","trendMapped":"ankara","trendVolume":915470},{"stateName":"CA","trendName":"#DemTownHall","placeID":"2488042","placeName":"San Jose","searchUrl":"http:\/\/twitter.com\/search?q=%23DemTownHall","trendMapped":"dem+town+hall","trendVolume":261598},{"stateName":"CA","trendName":"#PiDay","placeID":"2488042","placeName":"San Jose","searchUrl":"http:\/\/twitter.com\/search?q=%23PiDay","trendMapped":"pi+day","trendVolume":260379},{"stateName":"CA","trendName":"#TheWalkingDead","placeID":"2487889","placeName":"San Diego","searchUrl":"http:\/\/twitter.com\/search?q=%23TheWalkingDead","trendMapped":"the+walking+dead","trendVolume":171259},{"stateName":"CA","trendName":"#mondaymotivation","placeID":"2488042","placeName":"San Jose","searchUrl":"http:\/\/twitter.com\/search?q=%23mondaymotivation","trendMapped":"mondaymotivation","trendVolume":47678},{"stateName":"CA","trendName":"Am\u00e9rica","placeID":"2487956","placeName":"San Francisco","searchUrl":"http:\/\/twitter.com\/search?q=Am%C3%A9rica","trendMapped":"am\u00e9rica","trendVolume":465411},{"stateName":"CA","trendName":"Breitbart","placeID":"2487956","placeName":"San Francisco","searchUrl":"http:\/\/twitter.com\/search?q=Breitbart","trendMapped":"breitbart","trendVolume":90652},{"stateName":"CA","trendName":"Chivas","placeID":"2487956","placeName":"San Francisco","searchUrl":"http:\/\/twitter.com\/search?q=Chivas","trendMapped":"chivas","trendVolume":246968},{"stateName":"CA","trendName":"ncaa","placeID":"2407517","placeName":"Fresno","searchUrl":"http:\/\/twitter.com\/search?q=ncaa","trendMapped":"ncaa","trendVolume":189047},{"stateName":"CO","trendName":"#Ankara","placeID":"2391279","placeName":"Denver","searchUrl":"http:\/\/twitter.com\/search?q=%23Ankara","trendMapped":"ankara","trendVolume":908303},{"stateName":"CO","trendName":"#DemTownHall","placeID":"2391279","placeName":"Denver","searchUrl":"http:\/\/twitter.com\/search?q=%23DemTownHall","trendMapped":"dem+town+hall","trendVolume":251913},{"stateName":"CO","trendName":"#PiDay","placeID":"2391279","placeName":"Denver","searchUrl":"http:\/\/twitter.com\/search?q=%23PiDay","trendMapped":"pi+day","trendVolume":229546},{"stateName":"CO","trendName":"#aldubsusingmansyon","placeID":"2391279","placeName":"Denver","searchUrl":"http:\/\/twitter.com\/search?q=%23aldubsusingmansyon","trendMapped":"aldubsusingmansyon","trendVolume":1412928},{"stateName":"CO","trendName":"#mondaymotivation","placeID":"2383489","placeName":"Colorado Springs","searchUrl":"http:\/\/twitter.com\/search?q=%23mondaymotivation","trendMapped":"mondaymotivation","trendVolume":58599},{"stateName":"CO","trendName":"Am\u00e9rica","placeID":"2391279","placeName":"Denver","searchUrl":"http:\/\/twitter.com\/search?q=Am%C3%A9rica","trendMapped":"am\u00e9rica","trendVolume":469113},{"stateName":"CO","trendName":"Breitbart","placeID":"2383489","placeName":"Colorado Springs","searchUrl":"http:\/\/twitter.com\/search?q=Breitbart","trendMapped":"breitbart","trendVolume":92747},{"stateName":"CT","trendName":"#Ankara","placeID":"2458410","placeName":"New Haven","searchUrl":"http:\/\/twitter.com\/search?q=%23Ankara","trendMapped":"ankara","trendVolume":760085},{"stateName":"CT","trendName":"#DemTownHall","placeID":"2458410","placeName":"New Haven","searchUrl":"http:\/\/twitter.com\/search?q=%23DemTownHall","trendMapped":"dem+town+hall","trendVolume":247065},{"stateName":"CT","trendName":"#PiDay","placeID":"2458410","placeName":"New Haven","searchUrl":"http:\/\/twitter.com\/search?q=%23PiDay","trendMapped":"pi+day","trendVolume":259273},{"stateName":"CT","trendName":"#TheWalkingDead","placeID":"2458410","placeName":"New Haven","searchUrl":"http:\/\/twitter.com\/search?q=%23TheWalkingDead","trendMapped":"the+walking+dead","trendVolume":168506},{"stateName":"CT","trendName":"NCAA","placeID":"2458410","placeName":"New Haven","searchUrl":"http:\/\/twitter.com\/search?q=NCAA","trendMapped":"ncaa","trendVolume":210193},{"stateName":"DC","trendName":"#Ankara","placeID":"2514815","placeName":"Washington","searchUrl":"http:\/\/twitter.com\/search?q=%23Ankara","trendMapped":"ankara","trendVolume":915470},{"stateName":"DC","trendName":"#DemTownHall","placeID":"2514815","placeName":"Washington","searchUrl":"http:\/\/twitter.com\/search?q=%23DemTownHall","trendMapped":"dem+town+hall","trendVolume":238213},{"stateName":"DC","trendName":"#PiDay","placeID":"2514815","placeName":"Washington","searchUrl":"http:\/\/twitter.com\/search?q=%23PiDay","trendMapped":"pi+day","trendVolume":248372},{"stateName":"DC","trendName":"Am\u00e9rica","placeID":"2514815","placeName":"Washington","searchUrl":"http:\/\/twitter.com\/search?q=Am%C3%A9rica","trendMapped":"am\u00e9rica","trendVolume":465411},{"stateName":"FL","trendName":"#Ankara","placeID":"2503713","placeName":"Tallahassee","searchUrl":"http:\/\/twitter.com\/search?q=%23Ankara","trendMapped":"ankara","trendVolume":767165},{"stateName":"FL","trendName":"#DemTownHall","placeID":"2503863","placeName":"Tampa","searchUrl":"http:\/\/twitter.com\/search?q=%23DemTownHall","trendMapped":"dem+town+hall","trendVolume":259262},{"stateName":"FL","trendName":"#PiDay","placeID":"2503863","placeName":"Tampa","searchUrl":"http:\/\/twitter.com\/search?q=%23PiDay","trendMapped":"pi+day","trendVolume":233893},{"stateName":"FL","trendName":"#TheWalkingDead","placeID":"2503863","placeName":"Tampa","searchUrl":"http:\/\/twitter.com\/search?q=%23TheWalkingDead","trendMapped":"the+walking+dead","trendVolume":167602},{"stateName":"FL","trendName":"Black","placeID":"2428344","placeName":"Jacksonville","searchUrl":"http:\/\/twitter.com\/search?q=Black","trendMapped":"black","trendVolume":829970},{"stateName":"FL","trendName":"Chivas","placeID":"2428344","placeName":"Jacksonville","searchUrl":"http:\/\/twitter.com\/search?q=Chivas","trendMapped":"chivas","trendVolume":198468},{"stateName":"FL","trendName":"Donald Trump","placeID":"2503713","placeName":"Tallahassee","searchUrl":"http:\/\/twitter.com\/search?q=%22Donald+Trump%22","trendMapped":"Donald+Trump","trendVolume":489628},{"stateName":"FL","trendName":"Hillary","placeID":"2503713","placeName":"Tallahassee","searchUrl":"http:\/\/twitter.com\/search?q=Hillary","trendMapped":"hillary","trendVolume":347990},{"stateName":"FL","trendName":"NCAA","placeID":"2428344","placeName":"Jacksonville","searchUrl":"http:\/\/twitter.com\/search?q=NCAA","trendMapped":"ncaa","trendVolume":182418},{"stateName":"FL","trendName":"Pi Day","placeID":"2503863","placeName":"Tampa","searchUrl":"http:\/\/twitter.com\/search?q=%22Pi+Day%22","trendMapped":"Pi+Day","trendVolume":198388},{"stateName":"FL","trendName":"Trump","placeID":"2428344","placeName":"Jacksonville","searchUrl":"http:\/\/twitter.com\/search?q=Trump","trendMapped":"trump","trendVolume":1821140},{"stateName":"GA","trendName":"#DemTownHall","placeID":"2357024","placeName":"Atlanta","searchUrl":"http:\/\/twitter.com\/search?q=%23DemTownHall","trendMapped":"dem+town+hall","trendVolume":251221},{"stateName":"GA","trendName":"#PiDay","placeID":"2357024","placeName":"Atlanta","searchUrl":"http:\/\/twitter.com\/search?q=%23PiDay","trendMapped":"pi+day","trendVolume":260379},{"stateName":"GA","trendName":"Am\u00e9rica","placeID":"2357024","placeName":"Atlanta","searchUrl":"http:\/\/twitter.com\/search?q=Am%C3%A9rica","trendMapped":"am\u00e9rica","trendVolume":465411},{"stateName":"GA","trendName":"Chivas","placeID":"2357024","placeName":"Atlanta","searchUrl":"http:\/\/twitter.com\/search?q=Chivas","trendMapped":"chivas","trendVolume":209770},{"stateName":"HI","trendName":"#Ankara","placeID":"2423945","placeName":"Honolulu","searchUrl":"http:\/\/twitter.com\/search?q=%23Ankara","trendMapped":"ankara","trendVolume":756053},{"stateName":"HI","trendName":"#DemTownHall","placeID":"2423945","placeName":"Honolulu","searchUrl":"http:\/\/twitter.com\/search?q=%23DemTownHall","trendMapped":"dem+town+hall","trendVolume":252486},{"stateName":"HI","trendName":"#PiDay","placeID":"2423945","placeName":"Honolulu","searchUrl":"http:\/\/twitter.com\/search?q=%23PiDay","trendMapped":"pi+day","trendVolume":224303},{"stateName":"HI","trendName":"Am\u00e9rica","placeID":"2423945","placeName":"Honolulu","searchUrl":"http:\/\/twitter.com\/search?q=Am%C3%A9rica","trendMapped":"am\u00e9rica","trendVolume":456157},{"stateName":"HI","trendName":"Chivas","placeID":"2423945","placeName":"Honolulu","searchUrl":"http:\/\/twitter.com\/search?q=Chivas","trendMapped":"chivas","trendVolume":217910},{"stateName":"IL","trendName":"#DemTownHall","placeID":"2379574","placeName":"Chicago","searchUrl":"http:\/\/twitter.com\/search?q=%23DemTownHall","trendMapped":"dem+town+hall","trendVolume":241644},{"stateName":"IL","trendName":"#PiDay","placeID":"2379574","placeName":"Chicago","searchUrl":"http:\/\/twitter.com\/search?q=%23PiDay","trendMapped":"pi+day","trendVolume":237879},{"stateName":"IL","trendName":"#TheWalkingDead","placeID":"2379574","placeName":"Chicago","searchUrl":"http:\/\/twitter.com\/search?q=%23TheWalkingDead","trendMapped":"the+walking+dead","trendVolume":165436},{"stateName":"IL","trendName":"Am\u00e9rica","placeID":"2379574","placeName":"Chicago","searchUrl":"http:\/\/twitter.com\/search?q=Am%C3%A9rica","trendMapped":"am\u00e9rica","trendVolume":524270},{"stateName":"IN","trendName":"#Ankara","placeID":"2427032","placeName":"Indianapolis","searchUrl":"http:\/\/twitter.com\/search?q=%23Ankara","trendMapped":"ankara","trendVolume":758958},{"stateName":"IN","trendName":"#DemTownHall","placeID":"2427032","placeName":"Indianapolis","searchUrl":"http:\/\/twitter.com\/search?q=%23DemTownHall","trendMapped":"dem+town+hall","trendVolume":262259},{"stateName":"IN","trendName":"Chivas","placeID":"2427032","placeName":"Indianapolis","searchUrl":"http:\/\/twitter.com\/search?q=Chivas","trendMapped":"chivas","trendVolume":222850},{"stateName":"KY","trendName":"#Ankara","placeID":"2442327","placeName":"Louisville","searchUrl":"http:\/\/twitter.com\/search?q=%23Ankara","trendMapped":"ankara","trendVolume":758958},{"stateName":"KY","trendName":"#DemTownHall","placeID":"2442327","placeName":"Louisville","searchUrl":"http:\/\/twitter.com\/search?q=%23DemTownHall","trendMapped":"dem+town+hall","trendVolume":240589},{"stateName":"KY","trendName":"#PiDay","placeID":"2442327","placeName":"Louisville","searchUrl":"http:\/\/twitter.com\/search?q=%23PiDay","trendMapped":"pi+day","trendVolume":259273},{"stateName":"KY","trendName":"#aldubsusingmansyon","placeID":"2442327","placeName":"Louisville","searchUrl":"http:\/\/twitter.com\/search?q=%23aldubsusingmansyon","trendMapped":"aldubsusingmansyon","trendVolume":1412928},{"stateName":"KY","trendName":"Am\u00e9rica","placeID":"2442327","placeName":"Louisville","searchUrl":"http:\/\/twitter.com\/search?q=Am%C3%A9rica","trendMapped":"am\u00e9rica","trendVolume":465411},{"stateName":"KY","trendName":"NCAA","placeID":"2442327","placeName":"Louisville","searchUrl":"http:\/\/twitter.com\/search?q=NCAA","trendMapped":"ncaa","trendVolume":213007},{"stateName":"LA","trendName":"#Ankara","placeID":"2359991","placeName":"Baton Rouge","searchUrl":"http:\/\/twitter.com\/search?q=%23Ankara","trendMapped":"ankara","trendVolume":749340},{"stateName":"LA","trendName":"#DemTownHall","placeID":"2458833","placeName":"New Orleans","searchUrl":"http:\/\/twitter.com\/search?q=%23DemTownHall","trendMapped":"dem+town+hall","trendVolume":242366},{"stateName":"LA","trendName":"#Periscope","placeID":"2359991","placeName":"Baton Rouge","searchUrl":"http:\/\/twitter.com\/search?q=%23Periscope","trendMapped":"periscope","trendVolume":212493},{"stateName":"LA","trendName":"#PiDay","placeID":"2458833","placeName":"New Orleans","searchUrl":"http:\/\/twitter.com\/search?q=%23PiDay","trendMapped":"pi+day","trendVolume":259273},{"stateName":"LA","trendName":"#TheWalkingDead","placeID":"2458833","placeName":"New Orleans","searchUrl":"http:\/\/twitter.com\/search?q=%23TheWalkingDead","trendMapped":"the+walking+dead","trendVolume":170773},{"stateName":"LA","trendName":"Am\u00e9rica","placeID":"2458833","placeName":"New Orleans","searchUrl":"http:\/\/twitter.com\/search?q=Am%C3%A9rica","trendMapped":"am\u00e9rica","trendVolume":469113},{"stateName":"LA","trendName":"Ariana","placeID":"2359991","placeName":"Baton Rouge","searchUrl":"http:\/\/twitter.com\/search?q=Ariana","trendMapped":"ariana","trendVolume":328231},{"stateName":"LA","trendName":"Chivas","placeID":"2359991","placeName":"Baton Rouge","searchUrl":"http:\/\/twitter.com\/search?q=Chivas","trendMapped":"chivas","trendVolume":198468},{"stateName":"LA","trendName":"NCAA","placeID":"2359991","placeName":"Baton Rouge","searchUrl":"http:\/\/twitter.com\/search?q=NCAA","trendMapped":"ncaa","trendVolume":214180},{"stateName":"MA","trendName":"#Ankara","placeID":"2367105","placeName":"Boston","searchUrl":"http:\/\/twitter.com\/search?q=%23Ankara","trendMapped":"ankara","trendVolume":756053},{"stateName":"MA","trendName":"#GetWeirdTourCardiff","placeID":"2367105","placeName":"Boston","searchUrl":"http:\/\/twitter.com\/search?q=%23GetWeirdTourCardiff","trendMapped":"get+weird+tour+cardiff","trendVolume":319837},{"stateName":"MA","trendName":"#PiDay","placeID":"2367105","placeName":"Boston","searchUrl":"http:\/\/twitter.com\/search?q=%23PiDay","trendMapped":"pi+day","trendVolume":229546},{"stateName":"MD","trendName":"#Ankara","placeID":"2358820","placeName":"Baltimore","searchUrl":"http:\/\/twitter.com\/search?q=%23Ankara","trendMapped":"ankara","trendVolume":767165},{"stateName":"MD","trendName":"#DemTownHall","placeID":"2358820","placeName":"Baltimore","searchUrl":"http:\/\/twitter.com\/search?q=%23DemTownHall","trendMapped":"dem+town+hall","trendVolume":252315},{"stateName":"MD","trendName":"#PiDay","placeID":"2358820","placeName":"Baltimore","searchUrl":"http:\/\/twitter.com\/search?q=%23PiDay","trendMapped":"pi+day","trendVolume":264545},{"stateName":"MD","trendName":"Am\u00e9rica","placeID":"2358820","placeName":"Baltimore","searchUrl":"http:\/\/twitter.com\/search?q=Am%C3%A9rica","trendMapped":"am\u00e9rica","trendVolume":437597},{"stateName":"MD","trendName":"Chivas","placeID":"2358820","placeName":"Baltimore","searchUrl":"http:\/\/twitter.com\/search?q=Chivas","trendMapped":"chivas","trendVolume":222850},{"stateName":"MI","trendName":"#Ankara","placeID":"2391585","placeName":"Detroit","searchUrl":"http:\/\/twitter.com\/search?q=%23Ankara","trendMapped":"ankara","trendVolume":761966},{"stateName":"MI","trendName":"#DemTownHall","placeID":"2391585","placeName":"Detroit","searchUrl":"http:\/\/twitter.com\/search?q=%23DemTownHall","trendMapped":"dem+town+hall","trendVolume":250776},{"stateName":"MI","trendName":"#TheWalkingDead","placeID":"2391585","placeName":"Detroit","searchUrl":"http:\/\/twitter.com\/search?q=%23TheWalkingDead","trendMapped":"the+walking+dead","trendVolume":170341},{"stateName":"MI","trendName":"Am\u00e9rica","placeID":"2391585","placeName":"Detroit","searchUrl":"http:\/\/twitter.com\/search?q=Am%C3%A9rica","trendMapped":"am\u00e9rica","trendVolume":429497},{"stateName":"MN","trendName":"#Ankara","placeID":"2452078","placeName":"Minneapolis","searchUrl":"http:\/\/twitter.com\/search?q=%23Ankara","trendMapped":"ankara","trendVolume":761966},{"stateName":"MN","trendName":"#DemTownHall","placeID":"2452078","placeName":"Minneapolis","searchUrl":"http:\/\/twitter.com\/search?q=%23DemTownHall","trendMapped":"dem+town+hall","trendVolume":243982},{"stateName":"MN","trendName":"#PiDay","placeID":"2452078","placeName":"Minneapolis","searchUrl":"http:\/\/twitter.com\/search?q=%23PiDay","trendMapped":"pi+day","trendVolume":229546},{"stateName":"MN","trendName":"#TheWalkingDead","placeID":"2452078","placeName":"Minneapolis","searchUrl":"http:\/\/twitter.com\/search?q=%23TheWalkingDead","trendMapped":"the+walking+dead","trendVolume":180198},{"stateName":"MO","trendName":"#Ankara","placeID":"2430683","placeName":"Kansas City","searchUrl":"http:\/\/twitter.com\/search?q=%23Ankara","trendMapped":"ankara","trendVolume":765541},{"stateName":"MO","trendName":"#DemTownHall","placeID":"2486982","placeName":"St. Louis","searchUrl":"http:\/\/twitter.com\/search?q=%23DemTownHall","trendMapped":"dem+town+hall","trendVolume":249533},{"stateName":"MO","trendName":"#PiDay","placeID":"2486982","placeName":"St. Louis","searchUrl":"http:\/\/twitter.com\/search?q=%23PiDay","trendMapped":"pi+day","trendVolume":260379},{"stateName":"MO","trendName":"#TheWalkingDead","placeID":"2486982","placeName":"St. Louis","searchUrl":"http:\/\/twitter.com\/search?q=%23TheWalkingDead","trendMapped":"the+walking+dead","trendVolume":177804},{"stateName":"MO","trendName":"Am\u00e9rica","placeID":"2486982","placeName":"St. Louis","searchUrl":"http:\/\/twitter.com\/search?q=Am%C3%A9rica","trendMapped":"am\u00e9rica","trendVolume":442362},{"stateName":"MO","trendName":"South","placeID":"2430683","placeName":"Kansas City","searchUrl":"http:\/\/twitter.com\/search?q=South","trendMapped":"south","trendVolume":221338},{"stateName":"MS","trendName":"#Ankara","placeID":"2428184","placeName":"Jackson","searchUrl":"http:\/\/twitter.com\/search?q=%23Ankara","trendMapped":"ankara","trendVolume":756053},{"stateName":"MS","trendName":"#DemTownHall","placeID":"2428184","placeName":"Jackson","searchUrl":"http:\/\/twitter.com\/search?q=%23DemTownHall","trendMapped":"dem+town+hall","trendVolume":233914},{"stateName":"MS","trendName":"#Periscope","placeID":"2428184","placeName":"Jackson","searchUrl":"http:\/\/twitter.com\/search?q=%23Periscope","trendMapped":"periscope","trendVolume":237756},{"stateName":"MS","trendName":"#PiDay","placeID":"2428184","placeName":"Jackson","searchUrl":"http:\/\/twitter.com\/search?q=%23PiDay","trendMapped":"pi+day","trendVolume":237879},{"stateName":"MS","trendName":"Am\u00e9rica","placeID":"2428184","placeName":"Jackson","searchUrl":"http:\/\/twitter.com\/search?q=Am%C3%A9rica","trendMapped":"am\u00e9rica","trendVolume":469113},{"stateName":"MS","trendName":"Spring Break","placeID":"2428184","placeName":"Jackson","searchUrl":"http:\/\/twitter.com\/search?q=%22Spring+Break%22","trendMapped":"Spring+Break","trendVolume":234441},{"stateName":"NC","trendName":"#Ankara","placeID":"2478307","placeName":"Raleigh","searchUrl":"http:\/\/twitter.com\/search?q=%23Ankara","trendMapped":"ankara","trendVolume":767165},{"stateName":"NC","trendName":"#DemTownHall","placeID":"2478307","placeName":"Raleigh","searchUrl":"http:\/\/twitter.com\/search?q=%23DemTownHall","trendMapped":"dem+town+hall","trendVolume":254766},{"stateName":"NC","trendName":"#PiDay","placeID":"2478307","placeName":"Raleigh","searchUrl":"http:\/\/twitter.com\/search?q=%23PiDay","trendMapped":"pi+day","trendVolume":265393},{"stateName":"NC","trendName":"#TheWalkingDead","placeID":"2478307","placeName":"Raleigh","searchUrl":"http:\/\/twitter.com\/search?q=%23TheWalkingDead","trendMapped":"the+walking+dead","trendVolume":166923},{"stateName":"NC","trendName":"#aldubsusingmansyon","placeID":"2378426","placeName":"Charlotte","searchUrl":"http:\/\/twitter.com\/search?q=%23aldubsusingmansyon","trendMapped":"aldubsusingmansyon","trendVolume":1412928},{"stateName":"NC","trendName":"Am\u00e9rica","placeID":"2478307","placeName":"Raleigh","searchUrl":"http:\/\/twitter.com\/search?q=Am%C3%A9rica","trendMapped":"am\u00e9rica","trendVolume":465411},{"stateName":"NC","trendName":"Chivas","placeID":"2378426","placeName":"Charlotte","searchUrl":"http:\/\/twitter.com\/search?q=Chivas","trendMapped":"chivas","trendVolume":212663},{"stateName":"NC","trendName":"NCAA","placeID":"2414469","placeName":"Greensboro","searchUrl":"http:\/\/twitter.com\/search?q=NCAA","trendMapped":"ncaa","trendVolume":214571},{"stateName":"NE","trendName":"#Ankara","placeID":"2465512","placeName":"Omaha","searchUrl":"http:\/\/twitter.com\/search?q=%23Ankara","trendMapped":"ankara","trendVolume":760085},{"stateName":"NE","trendName":"#DemTownHall","placeID":"2465512","placeName":"Omaha","searchUrl":"http:\/\/twitter.com\/search?q=%23DemTownHall","trendMapped":"dem+town+hall","trendVolume":252804},{"stateName":"NE","trendName":"Chivas","placeID":"2465512","placeName":"Omaha","searchUrl":"http:\/\/twitter.com\/search?q=Chivas","trendMapped":"chivas","trendVolume":244019},{"stateName":"NM","trendName":"#Ankara","placeID":"2352824","placeName":"Albuquerque","searchUrl":"http:\/\/twitter.com\/search?q=%23Ankara","trendMapped":"ankara","trendVolume":764045},{"stateName":"NM","trendName":"#DemTownHall","placeID":"2352824","placeName":"Albuquerque","searchUrl":"http:\/\/twitter.com\/search?q=%23DemTownHall","trendMapped":"dem+town+hall","trendVolume":236677},{"stateName":"NM","trendName":"#PiDay","placeID":"2352824","placeName":"Albuquerque","searchUrl":"http:\/\/twitter.com\/search?q=%23PiDay","trendMapped":"pi+day","trendVolume":187095},{"stateName":"NM","trendName":"#mondaymotivation","placeID":"2352824","placeName":"Albuquerque","searchUrl":"http:\/\/twitter.com\/search?q=%23mondaymotivation","trendMapped":"mondaymotivation","trendVolume":47678},{"stateName":"NM","trendName":"Am\u00e9rica","placeID":"2352824","placeName":"Albuquerque","searchUrl":"http:\/\/twitter.com\/search?q=Am%C3%A9rica","trendMapped":"am\u00e9rica","trendVolume":442362},{"stateName":"NM","trendName":"Breitbart","placeID":"2352824","placeName":"Albuquerque","searchUrl":"http:\/\/twitter.com\/search?q=Breitbart","trendMapped":"breitbart","trendVolume":84576},{"stateName":"NV","trendName":"#Ankara","placeID":"2436704","placeName":"Las Vegas","searchUrl":"http:\/\/twitter.com\/search?q=%23Ankara","trendMapped":"ankara","trendVolume":763298},{"stateName":"NV","trendName":"#ArianaOnSNL","placeID":"2436704","placeName":"Las Vegas","searchUrl":"http:\/\/twitter.com\/search?q=%23ArianaOnSNL","trendMapped":"ariana+on+snl","trendVolume":350819},{"stateName":"NV","trendName":"#DemTownHall","placeID":"2436704","placeName":"Las Vegas","searchUrl":"http:\/\/twitter.com\/search?q=%23DemTownHall","trendMapped":"dem+town+hall","trendVolume":272861},{"stateName":"NV","trendName":"#DolceAmoreTHIS","placeID":"2436704","placeName":"Las Vegas","searchUrl":"http:\/\/twitter.com\/search?q=%23DolceAmoreTHIS","trendMapped":"dolce+amore+this","trendVolume":1031834},{"stateName":"NV","trendName":"#aldubsusingmansyon","placeID":"2436704","placeName":"Las Vegas","searchUrl":"http:\/\/twitter.com\/search?q=%23aldubsusingmansyon","trendMapped":"aldubsusingmansyon","trendVolume":1412928},{"stateName":"NV","trendName":"Am\u00e9rica","placeID":"2436704","placeName":"Las Vegas","searchUrl":"http:\/\/twitter.com\/search?q=Am%C3%A9rica","trendMapped":"am\u00e9rica","trendVolume":455242},{"stateName":"NV","trendName":"Chivas","placeID":"2436704","placeName":"Las Vegas","searchUrl":"http:\/\/twitter.com\/search?q=Chivas","trendMapped":"chivas","trendVolume":217910},{"stateName":"NY","trendName":"#Ankara","placeID":"2459115","placeName":"New York","searchUrl":"http:\/\/twitter.com\/search?q=%23Ankara","trendMapped":"ankara","trendVolume":908303},{"stateName":"NY","trendName":"#DemTownHall","placeID":"2459115","placeName":"New York","searchUrl":"http:\/\/twitter.com\/search?q=%23DemTownHall","trendMapped":"dem+town+hall","trendVolume":186122},{"stateName":"NY","trendName":"#PiDay","placeID":"2459115","placeName":"New York","searchUrl":"http:\/\/twitter.com\/search?q=%23PiDay","trendMapped":"pi+day","trendVolume":237879},{"stateName":"NY","trendName":"#mondaymotivation","placeID":"2459115","placeName":"New York","searchUrl":"http:\/\/twitter.com\/search?q=%23mondaymotivation","trendMapped":"mondaymotivation","trendVolume":51519},{"stateName":"NY","trendName":"Am\u00e9rica","placeID":"2459115","placeName":"New York","searchUrl":"http:\/\/twitter.com\/search?q=Am%C3%A9rica","trendMapped":"am\u00e9rica","trendVolume":465411},{"stateName":"NY","trendName":"Breitbart","placeID":"2459115","placeName":"New York","searchUrl":"http:\/\/twitter.com\/search?q=Breitbart","trendMapped":"breitbart","trendVolume":87593},{"stateName":"NY","trendName":"Chivas","placeID":"2459115","placeName":"New York","searchUrl":"http:\/\/twitter.com\/search?q=Chivas","trendMapped":"chivas","trendVolume":212663},{"stateName":"OH","trendName":"#Ankara","placeID":"2383660","placeName":"Columbus","searchUrl":"http:\/\/twitter.com\/search?q=%23Ankara","trendMapped":"ankara","trendVolume":915470},{"stateName":"OH","trendName":"#DemTownHall","placeID":"2383660","placeName":"Columbus","searchUrl":"http:\/\/twitter.com\/search?q=%23DemTownHall","trendMapped":"dem+town+hall","trendVolume":258529},{"stateName":"OH","trendName":"#PiDay","placeID":"2380358","placeName":"Cincinnati","searchUrl":"http:\/\/twitter.com\/search?q=%23PiDay","trendMapped":"pi+day","trendVolume":252745},{"stateName":"OH","trendName":"#TheWalkingDead","placeID":"2380358","placeName":"Cincinnati","searchUrl":"http:\/\/twitter.com\/search?q=%23TheWalkingDead","trendMapped":"the+walking+dead","trendVolume":170504},{"stateName":"OH","trendName":"Chivas","placeID":"2381475","placeName":"Cleveland","searchUrl":"http:\/\/twitter.com\/search?q=Chivas","trendMapped":"chivas","trendVolume":222850},{"stateName":"OH","trendName":"NCAA","placeID":"2380358","placeName":"Cincinnati","searchUrl":"http:\/\/twitter.com\/search?q=NCAA","trendMapped":"ncaa","trendVolume":206567},{"stateName":"OK","trendName":"#Ankara","placeID":"2464592","placeName":"Oklahoma City","searchUrl":"http:\/\/twitter.com\/search?q=%23Ankara","trendMapped":"ankara","trendVolume":750224},{"stateName":"OK","trendName":"#ArianaOnSNL","placeID":"2464592","placeName":"Oklahoma City","searchUrl":"http:\/\/twitter.com\/search?q=%23ArianaOnSNL","trendMapped":"ariana+on+snl","trendVolume":351320},{"stateName":"OK","trendName":"#BestFanArmy","placeID":"2464592","placeName":"Oklahoma City","searchUrl":"http:\/\/twitter.com\/search?q=%23BestFanArmy","trendMapped":"best+fan+army","trendVolume":3625735},{"stateName":"OK","trendName":"#DemTownHall","placeID":"2464592","placeName":"Oklahoma City","searchUrl":"http:\/\/twitter.com\/search?q=%23DemTownHall","trendMapped":"dem+town+hall","trendVolume":255207},{"stateName":"OK","trendName":"Am\u00e9rica","placeID":"2464592","placeName":"Oklahoma City","searchUrl":"http:\/\/twitter.com\/search?q=Am%C3%A9rica","trendMapped":"am\u00e9rica","trendVolume":474527},{"stateName":"OK","trendName":"West","placeID":"2464592","placeName":"Oklahoma City","searchUrl":"http:\/\/twitter.com\/search?q=West","trendMapped":"west","trendVolume":405162},{"stateName":"OR","trendName":"#DemTownHall","placeID":"2475687","placeName":"Portland","searchUrl":"http:\/\/twitter.com\/search?q=%23DemTownHall","trendMapped":"dem+town+hall","trendVolume":250235},{"stateName":"OR","trendName":"#PiDay","placeID":"2475687","placeName":"Portland","searchUrl":"http:\/\/twitter.com\/search?q=%23PiDay","trendMapped":"pi+day","trendVolume":242120},{"stateName":"OR","trendName":"Am\u00e9rica","placeID":"2475687","placeName":"Portland","searchUrl":"http:\/\/twitter.com\/search?q=Am%C3%A9rica","trendMapped":"am\u00e9rica","trendVolume":442362},{"stateName":"PA","trendName":"#Ankara","placeID":"2473224","placeName":"Pittsburgh","searchUrl":"http:\/\/twitter.com\/search?q=%23Ankara","trendMapped":"ankara","trendVolume":763298},{"stateName":"PA","trendName":"#DemTownHall","placeID":"2473224","placeName":"Pittsburgh","searchUrl":"http:\/\/twitter.com\/search?q=%23DemTownHall","trendMapped":"dem+town+hall","trendVolume":272861},{"stateName":"PA","trendName":"#PiDay","placeID":"2473224","placeName":"Pittsburgh","searchUrl":"http:\/\/twitter.com\/search?q=%23PiDay","trendMapped":"pi+day","trendVolume":256513},{"stateName":"PA","trendName":"Am\u00e9rica","placeID":"2473224","placeName":"Pittsburgh","searchUrl":"http:\/\/twitter.com\/search?q=Am%C3%A9rica","trendMapped":"am\u00e9rica","trendVolume":449907},{"stateName":"PA","trendName":"Ariana","placeID":"2418046","placeName":"Harrisburg","searchUrl":"http:\/\/twitter.com\/search?q=Ariana","trendMapped":"ariana","trendVolume":335959},{"stateName":"PA","trendName":"Breitbart","placeID":"2471217","placeName":"Philadelphia","searchUrl":"http:\/\/twitter.com\/search?q=Breitbart","trendMapped":"breitbart","trendVolume":89586},{"stateName":"PA","trendName":"Chivas","placeID":"2418046","placeName":"Harrisburg","searchUrl":"http:\/\/twitter.com\/search?q=Chivas","trendMapped":"chivas","trendVolume":217910},{"stateName":"PA","trendName":"NCAA","placeID":"2418046","placeName":"Harrisburg","searchUrl":"http:\/\/twitter.com\/search?q=NCAA","trendMapped":"ncaa","trendVolume":213019},{"stateName":"RI","trendName":"#Ankara","placeID":"2477058","placeName":"Providence","searchUrl":"http:\/\/twitter.com\/search?q=%23Ankara","trendMapped":"ankara","trendVolume":766013},{"stateName":"RI","trendName":"#DemTownHall","placeID":"2477058","placeName":"Providence","searchUrl":"http:\/\/twitter.com\/search?q=%23DemTownHall","trendMapped":"dem+town+hall","trendVolume":239694},{"stateName":"RI","trendName":"#PiDay","placeID":"2477058","placeName":"Providence","searchUrl":"http:\/\/twitter.com\/search?q=%23PiDay","trendMapped":"pi+day","trendVolume":262492},{"stateName":"RI","trendName":"#TheWalkingDead","placeID":"2477058","placeName":"Providence","searchUrl":"http:\/\/twitter.com\/search?q=%23TheWalkingDead","trendMapped":"the+walking+dead","trendVolume":168511},{"stateName":"RI","trendName":"#aldubsusingmansyon","placeID":"2477058","placeName":"Providence","searchUrl":"http:\/\/twitter.com\/search?q=%23aldubsusingmansyon","trendMapped":"aldubsusingmansyon","trendVolume":1412928},{"stateName":"TN","trendName":"#Ankara","placeID":"2457170","placeName":"Nashville","searchUrl":"http:\/\/twitter.com\/search?q=%23Ankara","trendMapped":"ankara","trendVolume":765541},{"stateName":"TN","trendName":"#PiDay","placeID":"2457170","placeName":"Nashville","searchUrl":"http:\/\/twitter.com\/search?q=%23PiDay","trendMapped":"pi+day","trendVolume":265393},{"stateName":"TN","trendName":"#TheWalkingDead","placeID":"2457170","placeName":"Nashville","searchUrl":"http:\/\/twitter.com\/search?q=%23TheWalkingDead","trendMapped":"the+walking+dead","trendVolume":170618},{"stateName":"TN","trendName":"#thewalkingdead","placeID":"2449323","placeName":"Memphis","searchUrl":"http:\/\/twitter.com\/search?q=%23thewalkingdead","trendMapped":"thewalkingdead","trendVolume":165641},{"stateName":"TN","trendName":"Am\u00e9rica","placeID":"2449323","placeName":"Memphis","searchUrl":"http:\/\/twitter.com\/search?q=Am%C3%A9rica","trendMapped":"am\u00e9rica","trendVolume":469113},{"stateName":"TN","trendName":"Chivas","placeID":"2457170","placeName":"Nashville","searchUrl":"http:\/\/twitter.com\/search?q=Chivas","trendMapped":"chivas","trendVolume":222850},{"stateName":"TX","trendName":"#Ankara","placeID":"2487796","placeName":"San Antonio","searchUrl":"http:\/\/twitter.com\/search?q=%23Ankara","trendMapped":"ankara","trendVolume":908303},{"stateName":"TX","trendName":"#DemTownHall","placeID":"2487796","placeName":"San Antonio","searchUrl":"http:\/\/twitter.com\/search?q=%23DemTownHall","trendMapped":"dem+town+hall","trendVolume":252287},{"stateName":"TX","trendName":"#PiDay","placeID":"2487796","placeName":"San Antonio","searchUrl":"http:\/\/twitter.com\/search?q=%23PiDay","trendMapped":"pi+day","trendVolume":259273},{"stateName":"TX","trendName":"Am\u00e9rica","placeID":"2487796","placeName":"San Antonio","searchUrl":"http:\/\/twitter.com\/search?q=Am%C3%A9rica","trendMapped":"am\u00e9rica","trendVolume":526656},{"stateName":"TX","trendName":"Chivas","placeID":"2487796","placeName":"San Antonio","searchUrl":"http:\/\/twitter.com\/search?q=Chivas","trendMapped":"chivas","trendVolume":249201},{"stateName":"TX","trendName":"Trump","placeID":"2397816","placeName":"El Paso","searchUrl":"http:\/\/twitter.com\/search?q=Trump","trendMapped":"trump","trendVolume":1858972},{"stateName":"UT","trendName":"#Ankara","placeID":"2487610","placeName":"Salt Lake City","searchUrl":"http:\/\/twitter.com\/search?q=%23Ankara","trendMapped":"ankara","trendVolume":750224},{"stateName":"UT","trendName":"#DemTownHall","placeID":"2487610","placeName":"Salt Lake City","searchUrl":"http:\/\/twitter.com\/search?q=%23DemTownHall","trendMapped":"dem+town+hall","trendVolume":253485},{"stateName":"UT","trendName":"Chivas","placeID":"2487610","placeName":"Salt Lake City","searchUrl":"http:\/\/twitter.com\/search?q=Chivas","trendMapped":"chivas","trendVolume":217910},{"stateName":"VA","trendName":"#Ankara","placeID":"2512636","placeName":"Virginia Beach","searchUrl":"http:\/\/twitter.com\/search?q=%23Ankara","trendMapped":"ankara","trendVolume":765541},{"stateName":"VA","trendName":"#DemTownHall","placeID":"2512636","placeName":"Virginia Beach","searchUrl":"http:\/\/twitter.com\/search?q=%23DemTownHall","trendMapped":"dem+town+hall","trendVolume":255202},{"stateName":"VA","trendName":"#PiDay","placeID":"2512636","placeName":"Virginia Beach","searchUrl":"http:\/\/twitter.com\/search?q=%23PiDay","trendMapped":"pi+day","trendVolume":265393},{"stateName":"VA","trendName":"#TheWalkingDead","placeID":"2480894","placeName":"Richmond","searchUrl":"http:\/\/twitter.com\/search?q=%23TheWalkingDead","trendMapped":"the+walking+dead","trendVolume":170504},{"stateName":"VA","trendName":"#mondaymotivation","placeID":"2512636","placeName":"Virginia Beach","searchUrl":"http:\/\/twitter.com\/search?q=%23mondaymotivation","trendMapped":"mondaymotivation","trendVolume":58599},{"stateName":"VA","trendName":"Am\u00e9rica","placeID":"2512636","placeName":"Virginia Beach","searchUrl":"http:\/\/twitter.com\/search?q=Am%C3%A9rica","trendMapped":"am\u00e9rica","trendVolume":465411},{"stateName":"VA","trendName":"Breitbart","placeID":"2512636","placeName":"Virginia Beach","searchUrl":"http:\/\/twitter.com\/search?q=Breitbart","trendMapped":"breitbart","trendVolume":83485},{"stateName":"VA","trendName":"Chivas","placeID":"2480894","placeName":"Richmond","searchUrl":"http:\/\/twitter.com\/search?q=Chivas","trendMapped":"chivas","trendVolume":217910},{"stateName":"WA","trendName":"#Ankara","placeID":"2490383","placeName":"Seattle","searchUrl":"http:\/\/twitter.com\/search?q=%23Ankara","trendMapped":"ankara","trendVolume":760085},{"stateName":"WA","trendName":"#DemTownHall","placeID":"2490383","placeName":"Seattle","searchUrl":"http:\/\/twitter.com\/search?q=%23DemTownHall","trendMapped":"dem+town+hall","trendVolume":267370},{"stateName":"WA","trendName":"#PiDay","placeID":"2490383","placeName":"Seattle","searchUrl":"http:\/\/twitter.com\/search?q=%23PiDay","trendMapped":"pi+day","trendVolume":256513},{"stateName":"WA","trendName":"Am\u00e9rica","placeID":"2490383","placeName":"Seattle","searchUrl":"http:\/\/twitter.com\/search?q=Am%C3%A9rica","trendMapped":"am\u00e9rica","trendVolume":437597},{"stateName":"WI","trendName":"#Ankara","placeID":"2451822","placeName":"Milwaukee","searchUrl":"http:\/\/twitter.com\/search?q=%23Ankara","trendMapped":"ankara","trendVolume":767165},{"stateName":"WI","trendName":"#PiDay","placeID":"2451822","placeName":"Milwaukee","searchUrl":"http:\/\/twitter.com\/search?q=%23PiDay","trendMapped":"pi+day","trendVolume":187095},{"stateName":"WI","trendName":"#TheWalkingDead","placeID":"2451822","placeName":"Milwaukee","searchUrl":"http:\/\/twitter.com\/search?q=%23TheWalkingDead","trendMapped":"the+walking+dead","trendVolume":168506},{"stateName":"WI","trendName":"Am\u00e9rica","placeID":"2451822","placeName":"Milwaukee","searchUrl":"http:\/\/twitter.com\/search?q=Am%C3%A9rica","trendMapped":"am\u00e9rica","trendVolume":469113},{"stateName":"WI","trendName":"Pi Day","placeID":"2451822","placeName":"Milwaukee","searchUrl":"http:\/\/twitter.com\/search?q=%22Pi+Day%22","trendMapped":"Pi+Day","trendVolume":212265},{"stateName":"XX","trendName":"#Ankara","placeID":"23424977","placeName":"United States","searchUrl":"http:\/\/twitter.com\/search?q=%23Ankara","trendMapped":"ankara","trendVolume":908303},{"stateName":"XX","trendName":"#DemTownHall","placeID":"23424977","placeName":"United States","searchUrl":"http:\/\/twitter.com\/search?q=%23DemTownHall","trendMapped":"dem+town+hall","trendVolume":235287},{"stateName":"XX","trendName":"#PiDay","placeID":"23424977","placeName":"United States","searchUrl":"http:\/\/twitter.com\/search?q=%23PiDay","trendMapped":"pi+day","trendVolume":233893},{"stateName":"XX","trendName":"#mondaymotivation","placeID":"23424977","placeName":"United States","searchUrl":"http:\/\/twitter.com\/search?q=%23mondaymotivation","trendMapped":"mondaymotivation","trendVolume":51519},{"stateName":"XX","trendName":"Chivas","placeID":"23424977","placeName":"United States","searchUrl":"http:\/\/twitter.com\/search?q=Chivas","trendMapped":"chivas","trendVolume":244187},{"stateName":"XX","trendName":"ncaa","placeID":"23424977","placeName":"United States","searchUrl":"http:\/\/twitter.com\/search?q=ncaa","trendMapped":"ncaa","trendVolume":189047}]