[{"stateName":"AL","trendName":"#BestFanArmy","placeID":"2364559","placeName":"Birmingham","searchUrl":"http:\/\/twitter.com\/search?q=%23BestFanArmy","trendMapped":"best+fan+army","trendVolume":31429554},{"stateName":"AL","trendName":"#MAICHARDonSPS","placeID":"2364559","placeName":"Birmingham","searchUrl":"http:\/\/twitter.com\/search?q=%23MAICHARDonSPS","trendMapped":"maichar+don+sps","trendVolume":944614},{"stateName":"AL","trendName":"LETS MAKE 5SOS PROUD","placeID":"2364559","placeName":"Birmingham","searchUrl":"http:\/\/twitter.com\/search?q=%22LETS+MAKE+5SOS+PROUD%22","trendMapped":"LETS+MAKE+5SOS+PROUD","trendVolume":999597},{"stateName":"AL","trendName":"UNITE 5SOSFAM","placeID":"2364559","placeName":"Birmingham","searchUrl":"http:\/\/twitter.com\/search?q=%22UNITE+5SOSFAM%22","trendMapped":"UNITE+5SOSFAM","trendVolume":3331404},{"stateName":"AZ","trendName":"#MAICHARDonSPS","placeID":"2508428","placeName":"Tucson","searchUrl":"http:\/\/twitter.com\/search?q=%23MAICHARDonSPS","trendMapped":"maichar+don+sps","trendVolume":909676},{"stateName":"AZ","trendName":"#panamapapers","placeID":"2449808","placeName":"Mesa","searchUrl":"http:\/\/twitter.com\/search?q=%23panamapapers","trendMapped":"panamapapers","trendVolume":525987},{"stateName":"AZ","trendName":"5SOSFAM SLAY","placeID":"2508428","placeName":"Tucson","searchUrl":"http:\/\/twitter.com\/search?q=%225SOSFAM+SLAY%22","trendMapped":"5SOSFAM+SLAY","trendVolume":5373210},{"stateName":"AZ","trendName":"LETS MAKE 5SOS PROUD","placeID":"2508428","placeName":"Tucson","searchUrl":"http:\/\/twitter.com\/search?q=%22LETS+MAKE+5SOS+PROUD%22","trendMapped":"LETS+MAKE+5SOS+PROUD","trendVolume":2317552},{"stateName":"AZ","trendName":"UNITE 5SOSFAM","placeID":"2508428","placeName":"Tucson","searchUrl":"http:\/\/twitter.com\/search?q=%22UNITE+5SOSFAM%22","trendMapped":"UNITE+5SOSFAM","trendVolume":3604858},{"stateName":"CA","trendName":"#BestFanArmy","placeID":"2486340","placeName":"Sacramento","searchUrl":"http:\/\/twitter.com\/search?q=%23BestFanArmy","trendMapped":"best+fan+army","trendVolume":30895560},{"stateName":"CA","trendName":"#ElClasico","placeID":"2487956","placeName":"San Francisco","searchUrl":"http:\/\/twitter.com\/search?q=%23ElClasico","trendMapped":"el+clasico","trendVolume":767699},{"stateName":"CA","trendName":"#MAICHARDonSPS","placeID":"2487956","placeName":"San Francisco","searchUrl":"http:\/\/twitter.com\/search?q=%23MAICHARDonSPS","trendMapped":"maichar+don+sps","trendVolume":960135},{"stateName":"CA","trendName":"#panamapapers","placeID":"2441472","placeName":"Long Beach","searchUrl":"http:\/\/twitter.com\/search?q=%23panamapapers","trendMapped":"panamapapers","trendVolume":499822},{"stateName":"CA","trendName":"5SOSFAM SLAY","placeID":"2488042","placeName":"San Jose","searchUrl":"http:\/\/twitter.com\/search?q=%225SOSFAM+SLAY%22","trendMapped":"5SOSFAM+SLAY","trendVolume":5517658},{"stateName":"CA","trendName":"LETS MAKE 5SOS PROUD","placeID":"2488042","placeName":"San Jose","searchUrl":"http:\/\/twitter.com\/search?q=%22LETS+MAKE+5SOS+PROUD%22","trendMapped":"LETS+MAKE+5SOS+PROUD","trendVolume":2593676},{"stateName":"CA","trendName":"NOW OR NEVER FAM","placeID":"2441472","placeName":"Long Beach","searchUrl":"http:\/\/twitter.com\/search?q=%22NOW+OR+NEVER+FAM%22","trendMapped":"NOW+OR+NEVER+FAM","trendVolume":659756},{"stateName":"CA","trendName":"PROUD OF 5H","placeID":"2488042","placeName":"San Jose","searchUrl":"http:\/\/twitter.com\/search?q=%22PROUD+OF+5H%22","trendMapped":"PROUD+OF+5H","trendVolume":1116029},{"stateName":"CA","trendName":"UNITE 5SOSFAM","placeID":"2487956","placeName":"San Francisco","searchUrl":"http:\/\/twitter.com\/search?q=%22UNITE+5SOSFAM%22","trendMapped":"UNITE+5SOSFAM","trendVolume":3570713},{"stateName":"CO","trendName":"#BestFanArmy","placeID":"2391279","placeName":"Denver","searchUrl":"http:\/\/twitter.com\/search?q=%23BestFanArmy","trendMapped":"best+fan+army","trendVolume":26803271},{"stateName":"CO","trendName":"#MAICHARDonSPS","placeID":"2391279","placeName":"Denver","searchUrl":"http:\/\/twitter.com\/search?q=%23MAICHARDonSPS","trendMapped":"maichar+don+sps","trendVolume":863978},{"stateName":"CO","trendName":"#panamapapers","placeID":"2383489","placeName":"Colorado Springs","searchUrl":"http:\/\/twitter.com\/search?q=%23panamapapers","trendMapped":"panamapapers","trendVolume":499822},{"stateName":"CO","trendName":"5SOSFAM SLAY","placeID":"2391279","placeName":"Denver","searchUrl":"http:\/\/twitter.com\/search?q=%225SOSFAM+SLAY%22","trendMapped":"5SOSFAM+SLAY","trendVolume":4899077},{"stateName":"CO","trendName":"LETS MAKE 5SOS PROUD","placeID":"2383489","placeName":"Colorado Springs","searchUrl":"http:\/\/twitter.com\/search?q=%22LETS+MAKE+5SOS+PROUD%22","trendMapped":"LETS+MAKE+5SOS+PROUD","trendVolume":2478315},{"stateName":"CO","trendName":"NOW OR NEVER FAM","placeID":"2391279","placeName":"Denver","searchUrl":"http:\/\/twitter.com\/search?q=%22NOW+OR+NEVER+FAM%22","trendMapped":"NOW+OR+NEVER+FAM","trendVolume":659756},{"stateName":"CO","trendName":"UNITE 5SOSFAM","placeID":"2391279","placeName":"Denver","searchUrl":"http:\/\/twitter.com\/search?q=%22UNITE+5SOSFAM%22","trendMapped":"UNITE+5SOSFAM","trendVolume":3635401},{"stateName":"CT","trendName":"#MAICHARDonSPS","placeID":"2458410","placeName":"New Haven","searchUrl":"http:\/\/twitter.com\/search?q=%23MAICHARDonSPS","trendMapped":"maichar+don+sps","trendVolume":929093},{"stateName":"CT","trendName":"5SOSFAM SLAY","placeID":"2458410","placeName":"New Haven","searchUrl":"http:\/\/twitter.com\/search?q=%225SOSFAM+SLAY%22","trendMapped":"5SOSFAM+SLAY","trendVolume":4899077},{"stateName":"CT","trendName":"LETS MAKE 5SOS PROUD","placeID":"2458410","placeName":"New Haven","searchUrl":"http:\/\/twitter.com\/search?q=%22LETS+MAKE+5SOS+PROUD%22","trendMapped":"LETS+MAKE+5SOS+PROUD","trendVolume":1926907},{"stateName":"CT","trendName":"Real Madrid","placeID":"2458410","placeName":"New Haven","searchUrl":"http:\/\/twitter.com\/search?q=%22Real+Madrid%22","trendMapped":"Real+Madrid","trendVolume":791674},{"stateName":"CT","trendName":"UNITE 5SOSFAM","placeID":"2458410","placeName":"New Haven","searchUrl":"http:\/\/twitter.com\/search?q=%22UNITE+5SOSFAM%22","trendMapped":"UNITE+5SOSFAM","trendVolume":3604858},{"stateName":"DC","trendName":"#MAICHARDonSPS","placeID":"2514815","placeName":"Washington","searchUrl":"http:\/\/twitter.com\/search?q=%23MAICHARDonSPS","trendMapped":"maichar+don+sps","trendVolume":736312},{"stateName":"DC","trendName":"5SOSFAM SLAY","placeID":"2514815","placeName":"Washington","searchUrl":"http:\/\/twitter.com\/search?q=%225SOSFAM+SLAY%22","trendMapped":"5SOSFAM+SLAY","trendVolume":5067919},{"stateName":"DC","trendName":"GO DIRECTIONERS GO","placeID":"2514815","placeName":"Washington","searchUrl":"http:\/\/twitter.com\/search?q=%22GO+DIRECTIONERS+GO%22","trendMapped":"GO+DIRECTIONERS+GO","trendVolume":3714184},{"stateName":"DC","trendName":"LETS MAKE 5SOS PROUD","placeID":"2514815","placeName":"Washington","searchUrl":"http:\/\/twitter.com\/search?q=%22LETS+MAKE+5SOS+PROUD%22","trendMapped":"LETS+MAKE+5SOS+PROUD","trendVolume":2014053},{"stateName":"DC","trendName":"NOW OR NEVER FAM","placeID":"2514815","placeName":"Washington","searchUrl":"http:\/\/twitter.com\/search?q=%22NOW+OR+NEVER+FAM%22","trendMapped":"NOW+OR+NEVER+FAM","trendVolume":789435},{"stateName":"DC","trendName":"UNITE 5SOSFAM","placeID":"2514815","placeName":"Washington","searchUrl":"http:\/\/twitter.com\/search?q=%22UNITE+5SOSFAM%22","trendMapped":"UNITE+5SOSFAM","trendVolume":3570713},{"stateName":"FL","trendName":"#MAICHARDonSPS","placeID":"2503863","placeName":"Tampa","searchUrl":"http:\/\/twitter.com\/search?q=%23MAICHARDonSPS","trendMapped":"maichar+don+sps","trendVolume":960135},{"stateName":"FL","trendName":"5SOSFAM SLAY","placeID":"2503863","placeName":"Tampa","searchUrl":"http:\/\/twitter.com\/search?q=%225SOSFAM+SLAY%22","trendMapped":"5SOSFAM+SLAY","trendVolume":5257282},{"stateName":"FL","trendName":"Black","placeID":"2428344","placeName":"Jacksonville","searchUrl":"http:\/\/twitter.com\/search?q=Black","trendMapped":"black","trendVolume":792808},{"stateName":"FL","trendName":"LETS MAKE 5SOS PROUD","placeID":"2503863","placeName":"Tampa","searchUrl":"http:\/\/twitter.com\/search?q=%22LETS+MAKE+5SOS+PROUD%22","trendMapped":"LETS+MAKE+5SOS+PROUD","trendVolume":2562737},{"stateName":"FL","trendName":"Madrid","placeID":"2450022","placeName":"Miami","searchUrl":"http:\/\/twitter.com\/search?q=Madrid","trendMapped":"madrid","trendVolume":1456891},{"stateName":"FL","trendName":"PROUD OF 5H","placeID":"2503863","placeName":"Tampa","searchUrl":"http:\/\/twitter.com\/search?q=%22PROUD+OF+5H%22","trendMapped":"PROUD+OF+5H","trendVolume":668379},{"stateName":"FL","trendName":"UNITE 5SOSFAM","placeID":"2503713","placeName":"Tallahassee","searchUrl":"http:\/\/twitter.com\/search?q=%22UNITE+5SOSFAM%22","trendMapped":"UNITE+5SOSFAM","trendVolume":3635401},{"stateName":"GA","trendName":"#MAICHARDonSPS","placeID":"2357024","placeName":"Atlanta","searchUrl":"http:\/\/twitter.com\/search?q=%23MAICHARDonSPS","trendMapped":"maichar+don+sps","trendVolume":944614},{"stateName":"GA","trendName":"5SOSFAM SLAY","placeID":"2357024","placeName":"Atlanta","searchUrl":"http:\/\/twitter.com\/search?q=%225SOSFAM+SLAY%22","trendMapped":"5SOSFAM+SLAY","trendVolume":4614589},{"stateName":"GA","trendName":"LETS MAKE 5SOS PROUD","placeID":"2357024","placeName":"Atlanta","searchUrl":"http:\/\/twitter.com\/search?q=%22LETS+MAKE+5SOS+PROUD%22","trendMapped":"LETS+MAKE+5SOS+PROUD","trendVolume":2562737},{"stateName":"GA","trendName":"UNITE 5SOSFAM","placeID":"2357024","placeName":"Atlanta","searchUrl":"http:\/\/twitter.com\/search?q=%22UNITE+5SOSFAM%22","trendMapped":"UNITE+5SOSFAM","trendVolume":3626113},{"stateName":"IL","trendName":"#BestFanArmy","placeID":"2379574","placeName":"Chicago","searchUrl":"http:\/\/twitter.com\/search?q=%23BestFanArmy","trendMapped":"best+fan+army","trendVolume":27015311},{"stateName":"IL","trendName":"5SOSFAM SLAY","placeID":"2379574","placeName":"Chicago","searchUrl":"http:\/\/twitter.com\/search?q=%225SOSFAM+SLAY%22","trendMapped":"5SOSFAM+SLAY","trendVolume":3350790},{"stateName":"IL","trendName":"UNITE 5SOSFAM","placeID":"2379574","placeName":"Chicago","searchUrl":"http:\/\/twitter.com\/search?q=%22UNITE+5SOSFAM%22","trendMapped":"UNITE+5SOSFAM","trendVolume":3635401},{"stateName":"IN","trendName":"#BestFanArmy","placeID":"2427032","placeName":"Indianapolis","searchUrl":"http:\/\/twitter.com\/search?q=%23BestFanArmy","trendMapped":"best+fan+army","trendVolume":31601189},{"stateName":"IN","trendName":"#MAICHARDonSPS","placeID":"2427032","placeName":"Indianapolis","searchUrl":"http:\/\/twitter.com\/search?q=%23MAICHARDonSPS","trendMapped":"maichar+don+sps","trendVolume":924238},{"stateName":"IN","trendName":"#panamapapers","placeID":"2427032","placeName":"Indianapolis","searchUrl":"http:\/\/twitter.com\/search?q=%23panamapapers","trendMapped":"panamapapers","trendVolume":533954},{"stateName":"IN","trendName":"5SOSFAM SLAY","placeID":"2427032","placeName":"Indianapolis","searchUrl":"http:\/\/twitter.com\/search?q=%225SOSFAM+SLAY%22","trendMapped":"5SOSFAM+SLAY","trendVolume":1812298},{"stateName":"IN","trendName":"LETS MAKE 5SOS PROUD","placeID":"2427032","placeName":"Indianapolis","searchUrl":"http:\/\/twitter.com\/search?q=%22LETS+MAKE+5SOS+PROUD%22","trendMapped":"LETS+MAKE+5SOS+PROUD","trendVolume":2478315},{"stateName":"IN","trendName":"PROUD OF 5H","placeID":"2427032","placeName":"Indianapolis","searchUrl":"http:\/\/twitter.com\/search?q=%22PROUD+OF+5H%22","trendMapped":"PROUD+OF+5H","trendVolume":668379},{"stateName":"IN","trendName":"UNITE 5SOSFAM","placeID":"2427032","placeName":"Indianapolis","searchUrl":"http:\/\/twitter.com\/search?q=%22UNITE+5SOSFAM%22","trendMapped":"UNITE+5SOSFAM","trendVolume":3570713},{"stateName":"KY","trendName":"#5SOSFam","placeID":"2442327","placeName":"Louisville","searchUrl":"http:\/\/twitter.com\/search?q=%235SOSFam","trendMapped":"5+sos+fam","trendVolume":12625480},{"stateName":"KY","trendName":"#BestFanArmy","placeID":"2442327","placeName":"Louisville","searchUrl":"http:\/\/twitter.com\/search?q=%23BestFanArmy","trendMapped":"best+fan+army","trendVolume":22497573},{"stateName":"KY","trendName":"#MAICHARDonSPS","placeID":"2442327","placeName":"Louisville","searchUrl":"http:\/\/twitter.com\/search?q=%23MAICHARDonSPS","trendMapped":"maichar+don+sps","trendVolume":949777},{"stateName":"KY","trendName":"LETS MAKE 5SOS PROUD","placeID":"2442327","placeName":"Louisville","searchUrl":"http:\/\/twitter.com\/search?q=%22LETS+MAKE+5SOS+PROUD%22","trendMapped":"LETS+MAKE+5SOS+PROUD","trendVolume":2511507},{"stateName":"KY","trendName":"UNITE 5SOSFAM","placeID":"2442327","placeName":"Louisville","searchUrl":"http:\/\/twitter.com\/search?q=%22UNITE+5SOSFAM%22","trendMapped":"UNITE+5SOSFAM","trendVolume":3269159},{"stateName":"LA","trendName":"#MAICHARDonSPS","placeID":"2458833","placeName":"New Orleans","searchUrl":"http:\/\/twitter.com\/search?q=%23MAICHARDonSPS","trendMapped":"maichar+don+sps","trendVolume":944614},{"stateName":"LA","trendName":"5SOSFAM SLAY","placeID":"2458833","placeName":"New Orleans","searchUrl":"http:\/\/twitter.com\/search?q=%225SOSFAM+SLAY%22","trendMapped":"5SOSFAM+SLAY","trendVolume":4748438},{"stateName":"LA","trendName":"LETS MAKE 5SOS PROUD","placeID":"2458833","placeName":"New Orleans","searchUrl":"http:\/\/twitter.com\/search?q=%22LETS+MAKE+5SOS+PROUD%22","trendMapped":"LETS+MAKE+5SOS+PROUD","trendVolume":2192590},{"stateName":"LA","trendName":"NOW OR NEVER FAM","placeID":"2458833","placeName":"New Orleans","searchUrl":"http:\/\/twitter.com\/search?q=%22NOW+OR+NEVER+FAM%22","trendMapped":"NOW+OR+NEVER+FAM","trendVolume":983517},{"stateName":"LA","trendName":"UNITE 5SOSFAM","placeID":"2458833","placeName":"New Orleans","searchUrl":"http:\/\/twitter.com\/search?q=%22UNITE+5SOSFAM%22","trendMapped":"UNITE+5SOSFAM","trendVolume":3635401},{"stateName":"MA","trendName":"#BestFanArmy","placeID":"2367105","placeName":"Boston","searchUrl":"http:\/\/twitter.com\/search?q=%23BestFanArmy","trendMapped":"best+fan+army","trendVolume":26748828},{"stateName":"MA","trendName":"5SOSFAM SLAY","placeID":"2367105","placeName":"Boston","searchUrl":"http:\/\/twitter.com\/search?q=%225SOSFAM+SLAY%22","trendMapped":"5SOSFAM+SLAY","trendVolume":5748864},{"stateName":"MA","trendName":"HARMONIZERS ATTACK NOW","placeID":"2367105","placeName":"Boston","searchUrl":"http:\/\/twitter.com\/search?q=%22HARMONIZERS+ATTACK+NOW%22","trendMapped":"HARMONIZERS+ATTACK+NOW","trendVolume":853751},{"stateName":"MA","trendName":"PROUD OF 5H","placeID":"2367105","placeName":"Boston","searchUrl":"http:\/\/twitter.com\/search?q=%22PROUD+OF+5H%22","trendMapped":"PROUD+OF+5H","trendVolume":1632196},{"stateName":"MD","trendName":"#MAICHARDonSPS","placeID":"2358820","placeName":"Baltimore","searchUrl":"http:\/\/twitter.com\/search?q=%23MAICHARDonSPS","trendMapped":"maichar+don+sps","trendVolume":929093},{"stateName":"MD","trendName":"5SOSFAM SLAY","placeID":"2358820","placeName":"Baltimore","searchUrl":"http:\/\/twitter.com\/search?q=%225SOSFAM+SLAY%22","trendMapped":"5SOSFAM+SLAY","trendVolume":5067919},{"stateName":"MD","trendName":"LETS MAKE 5SOS PROUD","placeID":"2358820","placeName":"Baltimore","searchUrl":"http:\/\/twitter.com\/search?q=%22LETS+MAKE+5SOS+PROUD%22","trendMapped":"LETS+MAKE+5SOS+PROUD","trendVolume":2478315},{"stateName":"MD","trendName":"UNITE 5SOSFAM","placeID":"2358820","placeName":"Baltimore","searchUrl":"http:\/\/twitter.com\/search?q=%22UNITE+5SOSFAM%22","trendMapped":"UNITE+5SOSFAM","trendVolume":3592981},{"stateName":"MI","trendName":"5SOSFAM SLAY","placeID":"2391585","placeName":"Detroit","searchUrl":"http:\/\/twitter.com\/search?q=%225SOSFAM+SLAY%22","trendMapped":"5SOSFAM+SLAY","trendVolume":4028848},{"stateName":"MI","trendName":"GO DIRECTIONERS GO","placeID":"2391585","placeName":"Detroit","searchUrl":"http:\/\/twitter.com\/search?q=%22GO+DIRECTIONERS+GO%22","trendMapped":"GO+DIRECTIONERS+GO","trendVolume":4255749},{"stateName":"MI","trendName":"UNITE 5SOSFAM","placeID":"2391585","placeName":"Detroit","searchUrl":"http:\/\/twitter.com\/search?q=%22UNITE+5SOSFAM%22","trendMapped":"UNITE+5SOSFAM","trendVolume":3943355},{"stateName":"MN","trendName":"GO DIRECTIONERS GO","placeID":"2452078","placeName":"Minneapolis","searchUrl":"http:\/\/twitter.com\/search?q=%22GO+DIRECTIONERS+GO%22","trendMapped":"GO+DIRECTIONERS+GO","trendVolume":4523381},{"stateName":"MN","trendName":"UNITE 5SOSFAM","placeID":"2452078","placeName":"Minneapolis","searchUrl":"http:\/\/twitter.com\/search?q=%22UNITE+5SOSFAM%22","trendMapped":"UNITE+5SOSFAM","trendVolume":3310234},{"stateName":"MO","trendName":"#BestFanArmy","placeID":"2430683","placeName":"Kansas City","searchUrl":"http:\/\/twitter.com\/search?q=%23BestFanArmy","trendMapped":"best+fan+army","trendVolume":34434162},{"stateName":"MO","trendName":"#MAICHARDonSPS","placeID":"2486982","placeName":"St. Louis","searchUrl":"http:\/\/twitter.com\/search?q=%23MAICHARDonSPS","trendMapped":"maichar+don+sps","trendVolume":944614},{"stateName":"MO","trendName":"#panamapapers","placeID":"2486982","placeName":"St. Louis","searchUrl":"http:\/\/twitter.com\/search?q=%23panamapapers","trendMapped":"panamapapers","trendVolume":508591},{"stateName":"MO","trendName":"5SOSFAM SLAY","placeID":"2486982","placeName":"St. Louis","searchUrl":"http:\/\/twitter.com\/search?q=%225SOSFAM+SLAY%22","trendMapped":"5SOSFAM+SLAY","trendVolume":4899077},{"stateName":"MO","trendName":"LETS MAKE 5SOS PROUD","placeID":"2486982","placeName":"St. Louis","searchUrl":"http:\/\/twitter.com\/search?q=%22LETS+MAKE+5SOS+PROUD%22","trendMapped":"LETS+MAKE+5SOS+PROUD","trendVolume":1892701},{"stateName":"MO","trendName":"UNITE 5SOSFAM","placeID":"2486982","placeName":"St. Louis","searchUrl":"http:\/\/twitter.com\/search?q=%22UNITE+5SOSFAM%22","trendMapped":"UNITE+5SOSFAM","trendVolume":3604858},{"stateName":"MS","trendName":"#MAICHARDonSPS","placeID":"2428184","placeName":"Jackson","searchUrl":"http:\/\/twitter.com\/search?q=%23MAICHARDonSPS","trendMapped":"maichar+don+sps","trendVolume":863978},{"stateName":"MS","trendName":"5SOSFAM SLAY","placeID":"2428184","placeName":"Jackson","searchUrl":"http:\/\/twitter.com\/search?q=%225SOSFAM+SLAY%22","trendMapped":"5SOSFAM+SLAY","trendVolume":5067919},{"stateName":"MS","trendName":"LETS MAKE 5SOS PROUD","placeID":"2428184","placeName":"Jackson","searchUrl":"http:\/\/twitter.com\/search?q=%22LETS+MAKE+5SOS+PROUD%22","trendMapped":"LETS+MAKE+5SOS+PROUD","trendVolume":2562737},{"stateName":"MS","trendName":"UNITE 5SOSFAM","placeID":"2428184","placeName":"Jackson","searchUrl":"http:\/\/twitter.com\/search?q=%22UNITE+5SOSFAM%22","trendMapped":"UNITE+5SOSFAM","trendVolume":3635401},{"stateName":"NC","trendName":"#MAICHARDonSPS","placeID":"2478307","placeName":"Raleigh","searchUrl":"http:\/\/twitter.com\/search?q=%23MAICHARDonSPS","trendMapped":"maichar+don+sps","trendVolume":929093},{"stateName":"NC","trendName":"#panamapapers","placeID":"2478307","placeName":"Raleigh","searchUrl":"http:\/\/twitter.com\/search?q=%23panamapapers","trendMapped":"panamapapers","trendVolume":499822},{"stateName":"NC","trendName":"5SOSFAM SLAY","placeID":"2478307","placeName":"Raleigh","searchUrl":"http:\/\/twitter.com\/search?q=%225SOSFAM+SLAY%22","trendMapped":"5SOSFAM+SLAY","trendVolume":5373210},{"stateName":"NC","trendName":"LETS MAKE 5SOS PROUD","placeID":"2478307","placeName":"Raleigh","searchUrl":"http:\/\/twitter.com\/search?q=%22LETS+MAKE+5SOS+PROUD%22","trendMapped":"LETS+MAKE+5SOS+PROUD","trendVolume":2478315},{"stateName":"NC","trendName":"NOW OR NEVER FAM","placeID":"2478307","placeName":"Raleigh","searchUrl":"http:\/\/twitter.com\/search?q=%22NOW+OR+NEVER+FAM%22","trendMapped":"NOW+OR+NEVER+FAM","trendVolume":596197},{"stateName":"NC","trendName":"UNITE 5SOSFAM","placeID":"2478307","placeName":"Raleigh","searchUrl":"http:\/\/twitter.com\/search?q=%22UNITE+5SOSFAM%22","trendMapped":"UNITE+5SOSFAM","trendVolume":3635401},{"stateName":"NE","trendName":"#BestFanArmy","placeID":"2465512","placeName":"Omaha","searchUrl":"http:\/\/twitter.com\/search?q=%23BestFanArmy","trendMapped":"best+fan+army","trendVolume":29916798},{"stateName":"NE","trendName":"#MAICHARDonSPS","placeID":"2465512","placeName":"Omaha","searchUrl":"http:\/\/twitter.com\/search?q=%23MAICHARDonSPS","trendMapped":"maichar+don+sps","trendVolume":960135},{"stateName":"NE","trendName":"5SOSFAM SLAY","placeID":"2465512","placeName":"Omaha","searchUrl":"http:\/\/twitter.com\/search?q=%225SOSFAM+SLAY%22","trendMapped":"5SOSFAM+SLAY","trendVolume":2508770},{"stateName":"NE","trendName":"LETS MAKE 5SOS PROUD","placeID":"2465512","placeName":"Omaha","searchUrl":"http:\/\/twitter.com\/search?q=%22LETS+MAKE+5SOS+PROUD%22","trendMapped":"LETS+MAKE+5SOS+PROUD","trendVolume":2421186},{"stateName":"NE","trendName":"UNITE 5SOSFAM","placeID":"2465512","placeName":"Omaha","searchUrl":"http:\/\/twitter.com\/search?q=%22UNITE+5SOSFAM%22","trendMapped":"UNITE+5SOSFAM","trendVolume":3570713},{"stateName":"NM","trendName":"5SOSFAM SLAY","placeID":"2352824","placeName":"Albuquerque","searchUrl":"http:\/\/twitter.com\/search?q=%225SOSFAM+SLAY%22","trendMapped":"5SOSFAM+SLAY","trendVolume":5517658},{"stateName":"NM","trendName":"LETS MAKE 5SOS PROUD","placeID":"2352824","placeName":"Albuquerque","searchUrl":"http:\/\/twitter.com\/search?q=%22LETS+MAKE+5SOS+PROUD%22","trendMapped":"LETS+MAKE+5SOS+PROUD","trendVolume":2511507},{"stateName":"NM","trendName":"NOW OR NEVER FAM","placeID":"2352824","placeName":"Albuquerque","searchUrl":"http:\/\/twitter.com\/search?q=%22NOW+OR+NEVER+FAM%22","trendMapped":"NOW+OR+NEVER+FAM","trendVolume":659756},{"stateName":"NM","trendName":"UNITE 5SOSFAM","placeID":"2352824","placeName":"Albuquerque","searchUrl":"http:\/\/twitter.com\/search?q=%22UNITE+5SOSFAM%22","trendMapped":"UNITE+5SOSFAM","trendVolume":3246664},{"stateName":"NV","trendName":"#BestFanArmy","placeID":"2436704","placeName":"Las Vegas","searchUrl":"http:\/\/twitter.com\/search?q=%23BestFanArmy","trendMapped":"best+fan+army","trendVolume":27969108},{"stateName":"NV","trendName":"#ElClasico","placeID":"2436704","placeName":"Las Vegas","searchUrl":"http:\/\/twitter.com\/search?q=%23ElClasico","trendMapped":"el+clasico","trendVolume":767699},{"stateName":"NV","trendName":"#MAICHARDonSPS","placeID":"2436704","placeName":"Las Vegas","searchUrl":"http:\/\/twitter.com\/search?q=%23MAICHARDonSPS","trendMapped":"maichar+don+sps","trendVolume":863978},{"stateName":"NV","trendName":"UNITE 5SOSFAM","placeID":"2436704","placeName":"Las Vegas","searchUrl":"http:\/\/twitter.com\/search?q=%22UNITE+5SOSFAM%22","trendMapped":"UNITE+5SOSFAM","trendVolume":3570713},{"stateName":"NY","trendName":"#MAICHARDonSPS","placeID":"2459115","placeName":"New York","searchUrl":"http:\/\/twitter.com\/search?q=%23MAICHARDonSPS","trendMapped":"maichar+don+sps","trendVolume":914827},{"stateName":"NY","trendName":"5SOSFAM SLAY","placeID":"2459115","placeName":"New York","searchUrl":"http:\/\/twitter.com\/search?q=%225SOSFAM+SLAY%22","trendMapped":"5SOSFAM+SLAY","trendVolume":4614589},{"stateName":"NY","trendName":"LETS MAKE 5SOS PROUD","placeID":"2459115","placeName":"New York","searchUrl":"http:\/\/twitter.com\/search?q=%22LETS+MAKE+5SOS+PROUD%22","trendMapped":"LETS+MAKE+5SOS+PROUD","trendVolume":2593676},{"stateName":"NY","trendName":"PROUD OF 5H","placeID":"2459115","placeName":"New York","searchUrl":"http:\/\/twitter.com\/search?q=%22PROUD+OF+5H%22","trendMapped":"PROUD+OF+5H","trendVolume":668379},{"stateName":"NY","trendName":"UNITE 5SOSFAM","placeID":"2459115","placeName":"New York","searchUrl":"http:\/\/twitter.com\/search?q=%22UNITE+5SOSFAM%22","trendMapped":"UNITE+5SOSFAM","trendVolume":3635401},{"stateName":"OH","trendName":"#BestFanArmy","placeID":"2383660","placeName":"Columbus","searchUrl":"http:\/\/twitter.com\/search?q=%23BestFanArmy","trendMapped":"best+fan+army","trendVolume":29319490},{"stateName":"OH","trendName":"#ElClasico","placeID":"2380358","placeName":"Cincinnati","searchUrl":"http:\/\/twitter.com\/search?q=%23ElClasico","trendMapped":"el+clasico","trendVolume":767429},{"stateName":"OH","trendName":"#MAICHARDonSPS","placeID":"2381475","placeName":"Cleveland","searchUrl":"http:\/\/twitter.com\/search?q=%23MAICHARDonSPS","trendMapped":"maichar+don+sps","trendVolume":944614},{"stateName":"OH","trendName":"5SOSFAM SLAY","placeID":"2383660","placeName":"Columbus","searchUrl":"http:\/\/twitter.com\/search?q=%225SOSFAM+SLAY%22","trendMapped":"5SOSFAM+SLAY","trendVolume":5517658},{"stateName":"OH","trendName":"LETS MAKE 5SOS PROUD","placeID":"2381475","placeName":"Cleveland","searchUrl":"http:\/\/twitter.com\/search?q=%22LETS+MAKE+5SOS+PROUD%22","trendMapped":"LETS+MAKE+5SOS+PROUD","trendVolume":2593676},{"stateName":"OH","trendName":"NOW OR NEVER FAM","placeID":"2381475","placeName":"Cleveland","searchUrl":"http:\/\/twitter.com\/search?q=%22NOW+OR+NEVER+FAM%22","trendMapped":"NOW+OR+NEVER+FAM","trendVolume":789435},{"stateName":"OH","trendName":"UNITE 5SOSFAM","placeID":"2383660","placeName":"Columbus","searchUrl":"http:\/\/twitter.com\/search?q=%22UNITE+5SOSFAM%22","trendMapped":"UNITE+5SOSFAM","trendVolume":3592981},{"stateName":"OK","trendName":"#MAICHARDonSPS","placeID":"2464592","placeName":"Oklahoma City","searchUrl":"http:\/\/twitter.com\/search?q=%23MAICHARDonSPS","trendMapped":"maichar+don+sps","trendVolume":811862},{"stateName":"OK","trendName":"5SOSFAM SLAY","placeID":"2464592","placeName":"Oklahoma City","searchUrl":"http:\/\/twitter.com\/search?q=%225SOSFAM+SLAY%22","trendMapped":"5SOSFAM+SLAY","trendVolume":5517658},{"stateName":"OK","trendName":"LETS MAKE 5SOS PROUD","placeID":"2464592","placeName":"Oklahoma City","searchUrl":"http:\/\/twitter.com\/search?q=%22LETS+MAKE+5SOS+PROUD%22","trendMapped":"LETS+MAKE+5SOS+PROUD","trendVolume":2124830},{"stateName":"OK","trendName":"NOW OR NEVER FAM","placeID":"2464592","placeName":"Oklahoma City","searchUrl":"http:\/\/twitter.com\/search?q=%22NOW+OR+NEVER+FAM%22","trendMapped":"NOW+OR+NEVER+FAM","trendVolume":596197},{"stateName":"OK","trendName":"PROUD OF 5H","placeID":"2464592","placeName":"Oklahoma City","searchUrl":"http:\/\/twitter.com\/search?q=%22PROUD+OF+5H%22","trendMapped":"PROUD+OF+5H","trendVolume":592370},{"stateName":"OK","trendName":"UNITE 5SOSFAM","placeID":"2464592","placeName":"Oklahoma City","searchUrl":"http:\/\/twitter.com\/search?q=%22UNITE+5SOSFAM%22","trendMapped":"UNITE+5SOSFAM","trendVolume":3246664},{"stateName":"OR","trendName":"#MAICHARDonSPS","placeID":"2475687","placeName":"Portland","searchUrl":"http:\/\/twitter.com\/search?q=%23MAICHARDonSPS","trendMapped":"maichar+don+sps","trendVolume":909676},{"stateName":"OR","trendName":"5SOSFAM SLAY","placeID":"2475687","placeName":"Portland","searchUrl":"http:\/\/twitter.com\/search?q=%225SOSFAM+SLAY%22","trendMapped":"5SOSFAM+SLAY","trendVolume":3414975},{"stateName":"OR","trendName":"LETS MAKE 5SOS PROUD","placeID":"2475687","placeName":"Portland","searchUrl":"http:\/\/twitter.com\/search?q=%22LETS+MAKE+5SOS+PROUD%22","trendMapped":"LETS+MAKE+5SOS+PROUD","trendVolume":2494092},{"stateName":"OR","trendName":"UNITE 5SOSFAM","placeID":"2475687","placeName":"Portland","searchUrl":"http:\/\/twitter.com\/search?q=%22UNITE+5SOSFAM%22","trendMapped":"UNITE+5SOSFAM","trendVolume":3604858},{"stateName":"PA","trendName":"#BestFanArmy","placeID":"2418046","placeName":"Harrisburg","searchUrl":"http:\/\/twitter.com\/search?q=%23BestFanArmy","trendMapped":"best+fan+army","trendVolume":31945001},{"stateName":"PA","trendName":"#MAICHARDonSPS","placeID":"2471217","placeName":"Philadelphia","searchUrl":"http:\/\/twitter.com\/search?q=%23MAICHARDonSPS","trendMapped":"maichar+don+sps","trendVolume":944614},{"stateName":"PA","trendName":"5SOSFAM SLAY","placeID":"2473224","placeName":"Pittsburgh","searchUrl":"http:\/\/twitter.com\/search?q=%225SOSFAM+SLAY%22","trendMapped":"5SOSFAM+SLAY","trendVolume":5373210},{"stateName":"PA","trendName":"LETS MAKE 5SOS PROUD","placeID":"2473224","placeName":"Pittsburgh","searchUrl":"http:\/\/twitter.com\/search?q=%22LETS+MAKE+5SOS+PROUD%22","trendMapped":"LETS+MAKE+5SOS+PROUD","trendVolume":2562737},{"stateName":"PA","trendName":"NOW OR NEVER FAM","placeID":"2473224","placeName":"Pittsburgh","searchUrl":"http:\/\/twitter.com\/search?q=%22NOW+OR+NEVER+FAM%22","trendMapped":"NOW+OR+NEVER+FAM","trendVolume":1042501},{"stateName":"PA","trendName":"UNITE 5SOSFAM","placeID":"2473224","placeName":"Pittsburgh","searchUrl":"http:\/\/twitter.com\/search?q=%22UNITE+5SOSFAM%22","trendMapped":"UNITE+5SOSFAM","trendVolume":3497539},{"stateName":"RI","trendName":"UNITE 5SOSFAM","placeID":"2477058","placeName":"Providence","searchUrl":"http:\/\/twitter.com\/search?q=%22UNITE+5SOSFAM%22","trendMapped":"UNITE+5SOSFAM","trendVolume":2389661},{"stateName":"TN","trendName":"#MAICHARDonSPS","placeID":"2457170","placeName":"Nashville","searchUrl":"http:\/\/twitter.com\/search?q=%23MAICHARDonSPS","trendMapped":"maichar+don+sps","trendVolume":960135},{"stateName":"TN","trendName":"5SOSFAM SLAY","placeID":"2457170","placeName":"Nashville","searchUrl":"http:\/\/twitter.com\/search?q=%225SOSFAM+SLAY%22","trendMapped":"5SOSFAM+SLAY","trendVolume":5543328},{"stateName":"TN","trendName":"Black","placeID":"2449323","placeName":"Memphis","searchUrl":"http:\/\/twitter.com\/search?q=Black","trendMapped":"black","trendVolume":786429},{"stateName":"TN","trendName":"LETS MAKE 5SOS PROUD","placeID":"2457170","placeName":"Nashville","searchUrl":"http:\/\/twitter.com\/search?q=%22LETS+MAKE+5SOS+PROUD%22","trendMapped":"LETS+MAKE+5SOS+PROUD","trendVolume":2593676},{"stateName":"TN","trendName":"UNITE 5SOSFAM","placeID":"2457170","placeName":"Nashville","searchUrl":"http:\/\/twitter.com\/search?q=%22UNITE+5SOSFAM%22","trendMapped":"UNITE+5SOSFAM","trendVolume":3635401},{"stateName":"TX","trendName":"#BestFanArmy","placeID":"2397816","placeName":"El Paso","searchUrl":"http:\/\/twitter.com\/search?q=%23BestFanArmy","trendMapped":"best+fan+army","trendVolume":27062673},{"stateName":"TX","trendName":"#MAICHARDonSPS","placeID":"2487796","placeName":"San Antonio","searchUrl":"http:\/\/twitter.com\/search?q=%23MAICHARDonSPS","trendMapped":"maichar+don+sps","trendVolume":949777},{"stateName":"TX","trendName":"5SOSFAM SLAY","placeID":"2487796","placeName":"San Antonio","searchUrl":"http:\/\/twitter.com\/search?q=%225SOSFAM+SLAY%22","trendMapped":"5SOSFAM+SLAY","trendVolume":5373210},{"stateName":"TX","trendName":"LETS MAKE 5SOS PROUD","placeID":"2487796","placeName":"San Antonio","searchUrl":"http:\/\/twitter.com\/search?q=%22LETS+MAKE+5SOS+PROUD%22","trendMapped":"LETS+MAKE+5SOS+PROUD","trendVolume":2604787},{"stateName":"TX","trendName":"Madrid","placeID":"2424766","placeName":"Houston","searchUrl":"http:\/\/twitter.com\/search?q=Madrid","trendMapped":"madrid","trendVolume":1501647},{"stateName":"TX","trendName":"POWER OF DIRECTIONERS","placeID":"2397816","placeName":"El Paso","searchUrl":"http:\/\/twitter.com\/search?q=%22POWER+OF+DIRECTIONERS%22","trendMapped":"POWER+OF+DIRECTIONERS","trendVolume":2951683},{"stateName":"TX","trendName":"PROUD OF 5H","placeID":"2487796","placeName":"San Antonio","searchUrl":"http:\/\/twitter.com\/search?q=%22PROUD+OF+5H%22","trendMapped":"PROUD+OF+5H","trendVolume":668379},{"stateName":"TX","trendName":"UNITE 5SOSFAM","placeID":"2487796","placeName":"San Antonio","searchUrl":"http:\/\/twitter.com\/search?q=%22UNITE+5SOSFAM%22","trendMapped":"UNITE+5SOSFAM","trendVolume":3604858},{"stateName":"UT","trendName":"#MAICHARDonSPS","placeID":"2487610","placeName":"Salt Lake City","searchUrl":"http:\/\/twitter.com\/search?q=%23MAICHARDonSPS","trendMapped":"maichar+don+sps","trendVolume":899627},{"stateName":"UT","trendName":"5SOSFAM SLAY","placeID":"2487610","placeName":"Salt Lake City","searchUrl":"http:\/\/twitter.com\/search?q=%225SOSFAM+SLAY%22","trendMapped":"5SOSFAM+SLAY","trendVolume":3251825},{"stateName":"UT","trendName":"LETS MAKE 5SOS PROUD","placeID":"2487610","placeName":"Salt Lake City","searchUrl":"http:\/\/twitter.com\/search?q=%22LETS+MAKE+5SOS+PROUD%22","trendMapped":"LETS+MAKE+5SOS+PROUD","trendVolume":2442778},{"stateName":"UT","trendName":"NOW OR NEVER FAM","placeID":"2487610","placeName":"Salt Lake City","searchUrl":"http:\/\/twitter.com\/search?q=%22NOW+OR+NEVER+FAM%22","trendMapped":"NOW+OR+NEVER+FAM","trendVolume":596197},{"stateName":"UT","trendName":"UNITE 5SOSFAM","placeID":"2487610","placeName":"Salt Lake City","searchUrl":"http:\/\/twitter.com\/search?q=%22UNITE+5SOSFAM%22","trendMapped":"UNITE+5SOSFAM","trendVolume":3570713},{"stateName":"VA","trendName":"#BestFanArmy","placeID":"2460389","placeName":"Norfolk","searchUrl":"http:\/\/twitter.com\/search?q=%23BestFanArmy","trendMapped":"best+fan+army","trendVolume":32380936},{"stateName":"VA","trendName":"#MAICHARDonSPS","placeID":"2480894","placeName":"Richmond","searchUrl":"http:\/\/twitter.com\/search?q=%23MAICHARDonSPS","trendMapped":"maichar+don+sps","trendVolume":929093},{"stateName":"VA","trendName":"#panamapapers","placeID":"2480894","placeName":"Richmond","searchUrl":"http:\/\/twitter.com\/search?q=%23panamapapers","trendMapped":"panamapapers","trendVolume":525987},{"stateName":"VA","trendName":"5SOSFAM SLAY","placeID":"2512636","placeName":"Virginia Beach","searchUrl":"http:\/\/twitter.com\/search?q=%225SOSFAM+SLAY%22","trendMapped":"5SOSFAM+SLAY","trendVolume":5432088},{"stateName":"VA","trendName":"LETS MAKE 5SOS PROUD","placeID":"2512636","placeName":"Virginia Beach","searchUrl":"http:\/\/twitter.com\/search?q=%22LETS+MAKE+5SOS+PROUD%22","trendMapped":"LETS+MAKE+5SOS+PROUD","trendVolume":2442778},{"stateName":"VA","trendName":"UNITE 5SOSFAM","placeID":"2512636","placeName":"Virginia Beach","searchUrl":"http:\/\/twitter.com\/search?q=%22UNITE+5SOSFAM%22","trendMapped":"UNITE+5SOSFAM","trendVolume":3481309},{"stateName":"WA","trendName":"#BestFanArmy","placeID":"2490383","placeName":"Seattle","searchUrl":"http:\/\/twitter.com\/search?q=%23BestFanArmy","trendMapped":"best+fan+army","trendVolume":33987334},{"stateName":"WA","trendName":"#MAICHARDonSPS","placeID":"2490383","placeName":"Seattle","searchUrl":"http:\/\/twitter.com\/search?q=%23MAICHARDonSPS","trendMapped":"maichar+don+sps","trendVolume":914827},{"stateName":"WA","trendName":"5SOSFAM SLAY","placeID":"2490383","placeName":"Seattle","searchUrl":"http:\/\/twitter.com\/search?q=%225SOSFAM+SLAY%22","trendMapped":"5SOSFAM+SLAY","trendVolume":5182403},{"stateName":"WA","trendName":"LETS MAKE 5SOS PROUD","placeID":"2490383","placeName":"Seattle","searchUrl":"http:\/\/twitter.com\/search?q=%22LETS+MAKE+5SOS+PROUD%22","trendMapped":"LETS+MAKE+5SOS+PROUD","trendVolume":2593676},{"stateName":"WA","trendName":"UNITE 5SOSFAM","placeID":"2490383","placeName":"Seattle","searchUrl":"http:\/\/twitter.com\/search?q=%22UNITE+5SOSFAM%22","trendMapped":"UNITE+5SOSFAM","trendVolume":3604858},{"stateName":"WI","trendName":"#MAICHARDonSPS","placeID":"2451822","placeName":"Milwaukee","searchUrl":"http:\/\/twitter.com\/search?q=%23MAICHARDonSPS","trendMapped":"maichar+don+sps","trendVolume":939291},{"stateName":"WI","trendName":"#panamapapers","placeID":"2451822","placeName":"Milwaukee","searchUrl":"http:\/\/twitter.com\/search?q=%23panamapapers","trendMapped":"panamapapers","trendVolume":525987},{"stateName":"WI","trendName":"5SOSFAM SLAY","placeID":"2451822","placeName":"Milwaukee","searchUrl":"http:\/\/twitter.com\/search?q=%225SOSFAM+SLAY%22","trendMapped":"5SOSFAM+SLAY","trendVolume":5125083},{"stateName":"WI","trendName":"LETS MAKE 5SOS PROUD","placeID":"2451822","placeName":"Milwaukee","searchUrl":"http:\/\/twitter.com\/search?q=%22LETS+MAKE+5SOS+PROUD%22","trendMapped":"LETS+MAKE+5SOS+PROUD","trendVolume":2442778},{"stateName":"WI","trendName":"PROUD OF 5H","placeID":"2451822","placeName":"Milwaukee","searchUrl":"http:\/\/twitter.com\/search?q=%22PROUD+OF+5H%22","trendMapped":"PROUD+OF+5H","trendVolume":668379},{"stateName":"WI","trendName":"UNITE 5SOSFAM","placeID":"2451822","placeName":"Milwaukee","searchUrl":"http:\/\/twitter.com\/search?q=%22UNITE+5SOSFAM%22","trendMapped":"UNITE+5SOSFAM","trendVolume":3635401},{"stateName":"XX","trendName":"#MAICHARDonSPS","placeID":"23424977","placeName":"United States","searchUrl":"http:\/\/twitter.com\/search?q=%23MAICHARDonSPS","trendMapped":"maichar+don+sps","trendVolume":811862},{"stateName":"XX","trendName":"#panamapapers","placeID":"23424977","placeName":"United States","searchUrl":"http:\/\/twitter.com\/search?q=%23panamapapers","trendMapped":"panamapapers","trendVolume":499822},{"stateName":"XX","trendName":"5SOSFAM SLAY","placeID":"23424977","placeName":"United States","searchUrl":"http:\/\/twitter.com\/search?q=%225SOSFAM+SLAY%22","trendMapped":"5SOSFAM+SLAY","trendVolume":4701329},{"stateName":"XX","trendName":"LETS MAKE 5SOS PROUD","placeID":"23424977","placeName":"United States","searchUrl":"http:\/\/twitter.com\/search?q=%22LETS+MAKE+5SOS+PROUD%22","trendMapped":"LETS+MAKE+5SOS+PROUD","trendVolume":2442778},{"stateName":"XX","trendName":"NOW OR NEVER FAM","placeID":"23424977","placeName":"United States","searchUrl":"http:\/\/twitter.com\/search?q=%22NOW+OR+NEVER+FAM%22","trendMapped":"NOW+OR+NEVER+FAM","trendVolume":1042501},{"stateName":"XX","trendName":"UNITE 5SOSFAM","placeID":"23424977","placeName":"United States","searchUrl":"http:\/\/twitter.com\/search?q=%22UNITE+5SOSFAM%22","trendMapped":"UNITE+5SOSFAM","trendVolume":3635401}]