[{"stateName":"AL","trendName":"#HalaMadrid","placeID":"2364559","placeName":"Birmingham","searchUrl":"http:\/\/twitter.com\/search?q=%23HalaMadrid","trendMapped":"hala+madrid","trendVolume":407396},{"stateName":"AL","trendName":"#MambaDay","placeID":"2364559","placeName":"Birmingham","searchUrl":"http:\/\/twitter.com\/search?q=%23MambaDay","trendMapped":"mamba+day","trendVolume":903234},{"stateName":"AL","trendName":"Kobe","placeID":"2364559","placeName":"Birmingham","searchUrl":"http:\/\/twitter.com\/search?q=Kobe","trendMapped":"kobe","trendVolume":397394},{"stateName":"AZ","trendName":"#CaptainAmericaPremiere","placeID":"2449808","placeName":"Mesa","searchUrl":"http:\/\/twitter.com\/search?q=%23CaptainAmericaPremiere","trendMapped":"captain+america+premiere","trendVolume":140573},{"stateName":"AZ","trendName":"#DoctorStrange","placeID":"2449808","placeName":"Mesa","searchUrl":"http:\/\/twitter.com\/search?q=%23DoctorStrange","trendMapped":"doctor+strange","trendVolume":101128},{"stateName":"AZ","trendName":"#DolanTwinsOnTour","placeID":"2471390","placeName":"Phoenix","searchUrl":"http:\/\/twitter.com\/search?q=%23DolanTwinsOnTour","trendMapped":"dolan+twins+on+tour","trendVolume":256142},{"stateName":"AZ","trendName":"#EqualPayDay","placeID":"2471390","placeName":"Phoenix","searchUrl":"http:\/\/twitter.com\/search?q=%23EqualPayDay","trendMapped":"equal+pay+day","trendVolume":251190},{"stateName":"AZ","trendName":"#HalaMadrid","placeID":"2471390","placeName":"Phoenix","searchUrl":"http:\/\/twitter.com\/search?q=%23HalaMadrid","trendMapped":"hala+madrid","trendVolume":404703},{"stateName":"AZ","trendName":"#MambaDay","placeID":"2508428","placeName":"Tucson","searchUrl":"http:\/\/twitter.com\/search?q=%23MambaDay","trendMapped":"mamba+day","trendVolume":822049},{"stateName":"AZ","trendName":"#PurposeTourAtlanta","placeID":"2508428","placeName":"Tucson","searchUrl":"http:\/\/twitter.com\/search?q=%23PurposeTourAtlanta","trendMapped":"purpose+tour+atlanta","trendVolume":67690},{"stateName":"AZ","trendName":"Atletico","placeID":"2508428","placeName":"Tucson","searchUrl":"http:\/\/twitter.com\/search?q=Atletico","trendMapped":"atletico","trendVolume":603541},{"stateName":"AZ","trendName":"House","placeID":"2471390","placeName":"Phoenix","searchUrl":"http:\/\/twitter.com\/search?q=House","trendMapped":"house","trendVolume":496652},{"stateName":"AZ","trendName":"Kobe","placeID":"2471390","placeName":"Phoenix","searchUrl":"http:\/\/twitter.com\/search?q=Kobe","trendMapped":"kobe","trendVolume":364523},{"stateName":"AZ","trendName":"Ronaldo","placeID":"2508428","placeName":"Tucson","searchUrl":"http:\/\/twitter.com\/search?q=Ronaldo","trendMapped":"ronaldo","trendVolume":597882},{"stateName":"CA","trendName":"#CaptainAmericaPremiere","placeID":"2442047","placeName":"Los Angeles","searchUrl":"http:\/\/twitter.com\/search?q=%23CaptainAmericaPremiere","trendMapped":"captain+america+premiere","trendVolume":156124},{"stateName":"CA","trendName":"#DoctorStrange","placeID":"2488042","placeName":"San Jose","searchUrl":"http:\/\/twitter.com\/search?q=%23DoctorStrange","trendMapped":"doctor+strange","trendVolume":100682},{"stateName":"CA","trendName":"#DolanTwinsOnTour","placeID":"2487889","placeName":"San Diego","searchUrl":"http:\/\/twitter.com\/search?q=%23DolanTwinsOnTour","trendMapped":"dolan+twins+on+tour","trendVolume":247333},{"stateName":"CA","trendName":"#EqualPayDay","placeID":"2487956","placeName":"San Francisco","searchUrl":"http:\/\/twitter.com\/search?q=%23EqualPayDay","trendMapped":"equal+pay+day","trendVolume":252626},{"stateName":"CA","trendName":"#HalaMadrid","placeID":"2488042","placeName":"San Jose","searchUrl":"http:\/\/twitter.com\/search?q=%23HalaMadrid","trendMapped":"hala+madrid","trendVolume":411685},{"stateName":"CA","trendName":"#MambaDay","placeID":"2488042","placeName":"San Jose","searchUrl":"http:\/\/twitter.com\/search?q=%23MambaDay","trendMapped":"mamba+day","trendVolume":889002},{"stateName":"CA","trendName":"#PurposeTourAtlanta","placeID":"2488042","placeName":"San Jose","searchUrl":"http:\/\/twitter.com\/search?q=%23PurposeTourAtlanta","trendMapped":"purpose+tour+atlanta","trendVolume":68585},{"stateName":"CA","trendName":"Atletico","placeID":"2488042","placeName":"San Jose","searchUrl":"http:\/\/twitter.com\/search?q=Atletico","trendMapped":"atletico","trendVolume":596240},{"stateName":"CA","trendName":"Hell","placeID":"2487956","placeName":"San Francisco","searchUrl":"http:\/\/twitter.com\/search?q=Hell","trendMapped":"hell","trendVolume":301231},{"stateName":"CA","trendName":"Kobe","placeID":"2486340","placeName":"Sacramento","searchUrl":"http:\/\/twitter.com\/search?q=Kobe","trendMapped":"kobe","trendVolume":408634},{"stateName":"CA","trendName":"Ronaldo","placeID":"2442047","placeName":"Los Angeles","searchUrl":"http:\/\/twitter.com\/search?q=Ronaldo","trendMapped":"ronaldo","trendVolume":597882},{"stateName":"CA","trendName":"Soria","placeID":"2488042","placeName":"San Jose","searchUrl":"http:\/\/twitter.com\/search?q=Soria","trendMapped":"soria","trendVolume":81141},{"stateName":"CO","trendName":"#CaptainAmericaPremiere","placeID":"2383489","placeName":"Colorado Springs","searchUrl":"http:\/\/twitter.com\/search?q=%23CaptainAmericaPremiere","trendMapped":"captain+america+premiere","trendVolume":161162},{"stateName":"CO","trendName":"#EqualPayDay","placeID":"2391279","placeName":"Denver","searchUrl":"http:\/\/twitter.com\/search?q=%23EqualPayDay","trendMapped":"equal+pay+day","trendVolume":251720},{"stateName":"CO","trendName":"#HalaMadrid","placeID":"2391279","placeName":"Denver","searchUrl":"http:\/\/twitter.com\/search?q=%23HalaMadrid","trendMapped":"hala+madrid","trendVolume":406793},{"stateName":"CO","trendName":"#MambaDay","placeID":"2391279","placeName":"Denver","searchUrl":"http:\/\/twitter.com\/search?q=%23MambaDay","trendMapped":"mamba+day","trendVolume":829579},{"stateName":"CO","trendName":"#PurposeTourAtlanta","placeID":"2383489","placeName":"Colorado Springs","searchUrl":"http:\/\/twitter.com\/search?q=%23PurposeTourAtlanta","trendMapped":"purpose+tour+atlanta","trendVolume":67005},{"stateName":"CO","trendName":"Kobe","placeID":"2391279","placeName":"Denver","searchUrl":"http:\/\/twitter.com\/search?q=Kobe","trendMapped":"kobe","trendVolume":356400},{"stateName":"CO","trendName":"Ronaldo","placeID":"2391279","placeName":"Denver","searchUrl":"http:\/\/twitter.com\/search?q=Ronaldo","trendMapped":"ronaldo","trendVolume":595183},{"stateName":"CO","trendName":"Soria","placeID":"2383489","placeName":"Colorado Springs","searchUrl":"http:\/\/twitter.com\/search?q=Soria","trendMapped":"soria","trendVolume":81194},{"stateName":"CT","trendName":"#EqualPayDay","placeID":"2458410","placeName":"New Haven","searchUrl":"http:\/\/twitter.com\/search?q=%23EqualPayDay","trendMapped":"equal+pay+day","trendVolume":252094},{"stateName":"CT","trendName":"#MambaDay","placeID":"2458410","placeName":"New Haven","searchUrl":"http:\/\/twitter.com\/search?q=%23MambaDay","trendMapped":"mamba+day","trendVolume":822049},{"stateName":"CT","trendName":"Atletico","placeID":"2458410","placeName":"New Haven","searchUrl":"http:\/\/twitter.com\/search?q=Atletico","trendMapped":"atletico","trendVolume":584405},{"stateName":"CT","trendName":"Barca","placeID":"2458410","placeName":"New Haven","searchUrl":"http:\/\/twitter.com\/search?q=Barca","trendMapped":"barca","trendVolume":756104},{"stateName":"CT","trendName":"Cristiano Ronaldo","placeID":"2458410","placeName":"New Haven","searchUrl":"http:\/\/twitter.com\/search?q=%22Cristiano+Ronaldo%22","trendMapped":"Cristiano+Ronaldo","trendVolume":302825},{"stateName":"DC","trendName":"#CaptainAmericaPremiere","placeID":"2514815","placeName":"Washington","searchUrl":"http:\/\/twitter.com\/search?q=%23CaptainAmericaPremiere","trendMapped":"captain+america+premiere","trendVolume":160382},{"stateName":"DC","trendName":"#HalaMadrid","placeID":"2514815","placeName":"Washington","searchUrl":"http:\/\/twitter.com\/search?q=%23HalaMadrid","trendMapped":"hala+madrid","trendVolume":407396},{"stateName":"DC","trendName":"#MambaDay","placeID":"2514815","placeName":"Washington","searchUrl":"http:\/\/twitter.com\/search?q=%23MambaDay","trendMapped":"mamba+day","trendVolume":822049},{"stateName":"DC","trendName":"Barca","placeID":"2514815","placeName":"Washington","searchUrl":"http:\/\/twitter.com\/search?q=Barca","trendMapped":"barca","trendVolume":743482},{"stateName":"DC","trendName":"Doctor Strange","placeID":"2514815","placeName":"Washington","searchUrl":"http:\/\/twitter.com\/search?q=%22Doctor+Strange%22","trendMapped":"Doctor+Strange","trendVolume":72591},{"stateName":"DC","trendName":"Ronaldo","placeID":"2514815","placeName":"Washington","searchUrl":"http:\/\/twitter.com\/search?q=Ronaldo","trendMapped":"ronaldo","trendVolume":595183},{"stateName":"DC","trendName":"Sony","placeID":"2514815","placeName":"Washington","searchUrl":"http:\/\/twitter.com\/search?q=Sony","trendMapped":"sony","trendVolume":80255},{"stateName":"FL","trendName":"#CaptainAmericaPremiere","placeID":"2450022","placeName":"Miami","searchUrl":"http:\/\/twitter.com\/search?q=%23CaptainAmericaPremiere","trendMapped":"captain+america+premiere","trendVolume":131269},{"stateName":"FL","trendName":"#DoctorStrange","placeID":"2450022","placeName":"Miami","searchUrl":"http:\/\/twitter.com\/search?q=%23DoctorStrange","trendMapped":"doctor+strange","trendVolume":44145},{"stateName":"FL","trendName":"#DolanTwinsOnTour","placeID":"2503863","placeName":"Tampa","searchUrl":"http:\/\/twitter.com\/search?q=%23DolanTwinsOnTour","trendMapped":"dolan+twins+on+tour","trendVolume":241472},{"stateName":"FL","trendName":"#EqualPayDay","placeID":"2503863","placeName":"Tampa","searchUrl":"http:\/\/twitter.com\/search?q=%23EqualPayDay","trendMapped":"equal+pay+day","trendVolume":253782},{"stateName":"FL","trendName":"#HalaMadrid","placeID":"2450022","placeName":"Miami","searchUrl":"http:\/\/twitter.com\/search?q=%23HalaMadrid","trendMapped":"hala+madrid","trendVolume":421977},{"stateName":"FL","trendName":"#MambaDay","placeID":"2503863","placeName":"Tampa","searchUrl":"http:\/\/twitter.com\/search?q=%23MambaDay","trendMapped":"mamba+day","trendVolume":925767},{"stateName":"FL","trendName":"America","placeID":"2428344","placeName":"Jacksonville","searchUrl":"http:\/\/twitter.com\/search?q=America","trendMapped":"america","trendVolume":351601},{"stateName":"FL","trendName":"Atletico","placeID":"2503863","placeName":"Tampa","searchUrl":"http:\/\/twitter.com\/search?q=Atletico","trendMapped":"atletico","trendVolume":580604},{"stateName":"FL","trendName":"Champions","placeID":"2450022","placeName":"Miami","searchUrl":"http:\/\/twitter.com\/search?q=Champions","trendMapped":"champions","trendVolume":450653},{"stateName":"FL","trendName":"Cristiano","placeID":"2450022","placeName":"Miami","searchUrl":"http:\/\/twitter.com\/search?q=Cristiano","trendMapped":"cristiano","trendVolume":793290},{"stateName":"FL","trendName":"Kobe","placeID":"2503713","placeName":"Tallahassee","searchUrl":"http:\/\/twitter.com\/search?q=Kobe","trendMapped":"kobe","trendVolume":916861},{"stateName":"FL","trendName":"Trump","placeID":"2503713","placeName":"Tallahassee","searchUrl":"http:\/\/twitter.com\/search?q=Trump","trendMapped":"trump","trendVolume":742717},{"stateName":"GA","trendName":"#CaptainAmericaPremiere","placeID":"2357024","placeName":"Atlanta","searchUrl":"http:\/\/twitter.com\/search?q=%23CaptainAmericaPremiere","trendMapped":"captain+america+premiere","trendVolume":166943},{"stateName":"GA","trendName":"#EqualPayDay","placeID":"2357024","placeName":"Atlanta","searchUrl":"http:\/\/twitter.com\/search?q=%23EqualPayDay","trendMapped":"equal+pay+day","trendVolume":252094},{"stateName":"GA","trendName":"#MambaDay","placeID":"2357024","placeName":"Atlanta","searchUrl":"http:\/\/twitter.com\/search?q=%23MambaDay","trendMapped":"mamba+day","trendVolume":445668},{"stateName":"GA","trendName":"Justin Bieber","placeID":"2357024","placeName":"Atlanta","searchUrl":"http:\/\/twitter.com\/search?q=%22Justin+Bieber%22","trendMapped":"Justin+Bieber","trendVolume":140757},{"stateName":"HI","trendName":"#DolanTwinsOnTour","placeID":"2423945","placeName":"Honolulu","searchUrl":"http:\/\/twitter.com\/search?q=%23DolanTwinsOnTour","trendMapped":"dolan+twins+on+tour","trendVolume":256786},{"stateName":"HI","trendName":"#HalaMadrid","placeID":"2423945","placeName":"Honolulu","searchUrl":"http:\/\/twitter.com\/search?q=%23HalaMadrid","trendMapped":"hala+madrid","trendVolume":406614},{"stateName":"HI","trendName":"#MambaDay","placeID":"2423945","placeName":"Honolulu","searchUrl":"http:\/\/twitter.com\/search?q=%23MambaDay","trendMapped":"mamba+day","trendVolume":703000},{"stateName":"HI","trendName":"#Periscope","placeID":"2423945","placeName":"Honolulu","searchUrl":"http:\/\/twitter.com\/search?q=%23Periscope","trendMapped":"periscope","trendVolume":206845},{"stateName":"HI","trendName":"Trump","placeID":"2423945","placeName":"Honolulu","searchUrl":"http:\/\/twitter.com\/search?q=Trump","trendMapped":"trump","trendVolume":756583},{"stateName":"IL","trendName":"#CaptainAmericaPremiere","placeID":"2379574","placeName":"Chicago","searchUrl":"http:\/\/twitter.com\/search?q=%23CaptainAmericaPremiere","trendMapped":"captain+america+premiere","trendVolume":164654},{"stateName":"IL","trendName":"#EqualPayDay","placeID":"2379574","placeName":"Chicago","searchUrl":"http:\/\/twitter.com\/search?q=%23EqualPayDay","trendMapped":"equal+pay+day","trendVolume":244115},{"stateName":"IL","trendName":"#HalaMadrid","placeID":"2379574","placeName":"Chicago","searchUrl":"http:\/\/twitter.com\/search?q=%23HalaMadrid","trendMapped":"hala+madrid","trendVolume":424959},{"stateName":"IL","trendName":"#MambaDay","placeID":"2379574","placeName":"Chicago","searchUrl":"http:\/\/twitter.com\/search?q=%23MambaDay","trendMapped":"mamba+day","trendVolume":829579},{"stateName":"IL","trendName":"#PurposeTourAtlanta","placeID":"2379574","placeName":"Chicago","searchUrl":"http:\/\/twitter.com\/search?q=%23PurposeTourAtlanta","trendMapped":"purpose+tour+atlanta","trendVolume":67872},{"stateName":"IL","trendName":"Atl\u00e9tico","placeID":"2379574","placeName":"Chicago","searchUrl":"http:\/\/twitter.com\/search?q=Atl%C3%A9tico","trendMapped":"atl\u00e9tico","trendVolume":596238},{"stateName":"IL","trendName":"Barcelona","placeID":"2379574","placeName":"Chicago","searchUrl":"http:\/\/twitter.com\/search?q=Barcelona","trendMapped":"barcelona","trendVolume":560858},{"stateName":"IN","trendName":"#DolanTwinsOnTour","placeID":"2427032","placeName":"Indianapolis","searchUrl":"http:\/\/twitter.com\/search?q=%23DolanTwinsOnTour","trendMapped":"dolan+twins+on+tour","trendVolume":241673},{"stateName":"IN","trendName":"#EqualPayDay","placeID":"2427032","placeName":"Indianapolis","searchUrl":"http:\/\/twitter.com\/search?q=%23EqualPayDay","trendMapped":"equal+pay+day","trendVolume":252915},{"stateName":"IN","trendName":"#HalaMadrid","placeID":"2427032","placeName":"Indianapolis","searchUrl":"http:\/\/twitter.com\/search?q=%23HalaMadrid","trendMapped":"hala+madrid","trendVolume":407396},{"stateName":"IN","trendName":"#MambaDay","placeID":"2427032","placeName":"Indianapolis","searchUrl":"http:\/\/twitter.com\/search?q=%23MambaDay","trendMapped":"mamba+day","trendVolume":829579},{"stateName":"IN","trendName":"Black","placeID":"2427032","placeName":"Indianapolis","searchUrl":"http:\/\/twitter.com\/search?q=Black","trendMapped":"black","trendVolume":872491},{"stateName":"IN","trendName":"Kobe","placeID":"2427032","placeName":"Indianapolis","searchUrl":"http:\/\/twitter.com\/search?q=Kobe","trendMapped":"kobe","trendVolume":1072545},{"stateName":"KY","trendName":"#HalaMadrid","placeID":"2442327","placeName":"Louisville","searchUrl":"http:\/\/twitter.com\/search?q=%23HalaMadrid","trendMapped":"hala+madrid","trendVolume":407396},{"stateName":"KY","trendName":"#MambaDay","placeID":"2442327","placeName":"Louisville","searchUrl":"http:\/\/twitter.com\/search?q=%23MambaDay","trendMapped":"mamba+day","trendVolume":655648},{"stateName":"KY","trendName":"Atletico","placeID":"2442327","placeName":"Louisville","searchUrl":"http:\/\/twitter.com\/search?q=Atletico","trendMapped":"atletico","trendVolume":607296},{"stateName":"KY","trendName":"Kobe","placeID":"2442327","placeName":"Louisville","searchUrl":"http:\/\/twitter.com\/search?q=Kobe","trendMapped":"kobe","trendVolume":374888},{"stateName":"LA","trendName":"#CaptainAmericaPremiere","placeID":"2359991","placeName":"Baton Rouge","searchUrl":"http:\/\/twitter.com\/search?q=%23CaptainAmericaPremiere","trendMapped":"captain+america+premiere","trendVolume":112395},{"stateName":"LA","trendName":"#DiaInternacionalDelBeso","placeID":"2359991","placeName":"Baton Rouge","searchUrl":"http:\/\/twitter.com\/search?q=%23DiaInternacionalDelBeso","trendMapped":"dia+internacional+del+beso","trendVolume":84284},{"stateName":"LA","trendName":"#DoctorStrange","placeID":"2359991","placeName":"Baton Rouge","searchUrl":"http:\/\/twitter.com\/search?q=%23DoctorStrange","trendMapped":"doctor+strange","trendVolume":99649},{"stateName":"LA","trendName":"#EqualPayDay","placeID":"2458833","placeName":"New Orleans","searchUrl":"http:\/\/twitter.com\/search?q=%23EqualPayDay","trendMapped":"equal+pay+day","trendVolume":243687},{"stateName":"LA","trendName":"#HalaMadrid","placeID":"2458833","placeName":"New Orleans","searchUrl":"http:\/\/twitter.com\/search?q=%23HalaMadrid","trendMapped":"hala+madrid","trendVolume":402557},{"stateName":"LA","trendName":"#MambaDay","placeID":"2458833","placeName":"New Orleans","searchUrl":"http:\/\/twitter.com\/search?q=%23MambaDay","trendMapped":"mamba+day","trendVolume":889002},{"stateName":"LA","trendName":"Atletico","placeID":"2458833","placeName":"New Orleans","searchUrl":"http:\/\/twitter.com\/search?q=Atletico","trendMapped":"atletico","trendVolume":601481},{"stateName":"LA","trendName":"House","placeID":"2359991","placeName":"Baton Rouge","searchUrl":"http:\/\/twitter.com\/search?q=House","trendMapped":"house","trendVolume":495465},{"stateName":"LA","trendName":"Kobe","placeID":"2458833","placeName":"New Orleans","searchUrl":"http:\/\/twitter.com\/search?q=Kobe","trendMapped":"kobe","trendVolume":941055},{"stateName":"LA","trendName":"Ronaldo","placeID":"2359991","placeName":"Baton Rouge","searchUrl":"http:\/\/twitter.com\/search?q=Ronaldo","trendMapped":"ronaldo","trendVolume":595183},{"stateName":"MA","trendName":"#CaptainAmericaPremiere","placeID":"2367105","placeName":"Boston","searchUrl":"http:\/\/twitter.com\/search?q=%23CaptainAmericaPremiere","trendMapped":"captain+america+premiere","trendVolume":156124},{"stateName":"MA","trendName":"#DolanTwinsOnTour","placeID":"2367105","placeName":"Boston","searchUrl":"http:\/\/twitter.com\/search?q=%23DolanTwinsOnTour","trendMapped":"dolan+twins+on+tour","trendVolume":254543},{"stateName":"MA","trendName":"#HalaMadrid","placeID":"2367105","placeName":"Boston","searchUrl":"http:\/\/twitter.com\/search?q=%23HalaMadrid","trendMapped":"hala+madrid","trendVolume":400142},{"stateName":"MA","trendName":"#MambaDay","placeID":"2367105","placeName":"Boston","searchUrl":"http:\/\/twitter.com\/search?q=%23MambaDay","trendMapped":"mamba+day","trendVolume":876693},{"stateName":"MA","trendName":"Batman","placeID":"2367105","placeName":"Boston","searchUrl":"http:\/\/twitter.com\/search?q=Batman","trendMapped":"batman","trendVolume":103110},{"stateName":"MA","trendName":"Kobe","placeID":"2367105","placeName":"Boston","searchUrl":"http:\/\/twitter.com\/search?q=Kobe","trendMapped":"kobe","trendVolume":320465},{"stateName":"MD","trendName":"#EqualPayDay","placeID":"2358820","placeName":"Baltimore","searchUrl":"http:\/\/twitter.com\/search?q=%23EqualPayDay","trendMapped":"equal+pay+day","trendVolume":252094},{"stateName":"MD","trendName":"#HalaMadrid","placeID":"2358820","placeName":"Baltimore","searchUrl":"http:\/\/twitter.com\/search?q=%23HalaMadrid","trendMapped":"hala+madrid","trendVolume":407396},{"stateName":"MD","trendName":"#MambaDay","placeID":"2358820","placeName":"Baltimore","searchUrl":"http:\/\/twitter.com\/search?q=%23MambaDay","trendMapped":"mamba+day","trendVolume":361569},{"stateName":"MD","trendName":"Kobe","placeID":"2358820","placeName":"Baltimore","searchUrl":"http:\/\/twitter.com\/search?q=Kobe","trendMapped":"kobe","trendVolume":893571},{"stateName":"MI","trendName":"#EqualPayDay","placeID":"2391585","placeName":"Detroit","searchUrl":"http:\/\/twitter.com\/search?q=%23EqualPayDay","trendMapped":"equal+pay+day","trendVolume":252094},{"stateName":"MI","trendName":"#HalaMadrid","placeID":"2391585","placeName":"Detroit","searchUrl":"http:\/\/twitter.com\/search?q=%23HalaMadrid","trendMapped":"hala+madrid","trendVolume":400142},{"stateName":"MI","trendName":"#MambaDay","placeID":"2391585","placeName":"Detroit","searchUrl":"http:\/\/twitter.com\/search?q=%23MambaDay","trendMapped":"mamba+day","trendVolume":925767},{"stateName":"MN","trendName":"#DolanTwinsOnTour","placeID":"2452078","placeName":"Minneapolis","searchUrl":"http:\/\/twitter.com\/search?q=%23DolanTwinsOnTour","trendMapped":"dolan+twins+on+tour","trendVolume":240923},{"stateName":"MN","trendName":"#EqualPayDay","placeID":"2452078","placeName":"Minneapolis","searchUrl":"http:\/\/twitter.com\/search?q=%23EqualPayDay","trendMapped":"equal+pay+day","trendVolume":253782},{"stateName":"MN","trendName":"#MambaDay","placeID":"2452078","placeName":"Minneapolis","searchUrl":"http:\/\/twitter.com\/search?q=%23MambaDay","trendMapped":"mamba+day","trendVolume":374288},{"stateName":"MN","trendName":"Kobe","placeID":"2452078","placeName":"Minneapolis","searchUrl":"http:\/\/twitter.com\/search?q=Kobe","trendMapped":"kobe","trendVolume":1072545},{"stateName":"MO","trendName":"#EqualPayDay","placeID":"2486982","placeName":"St. Louis","searchUrl":"http:\/\/twitter.com\/search?q=%23EqualPayDay","trendMapped":"equal+pay+day","trendVolume":253596},{"stateName":"MO","trendName":"#HalaMadrid","placeID":"2486982","placeName":"St. Louis","searchUrl":"http:\/\/twitter.com\/search?q=%23HalaMadrid","trendMapped":"hala+madrid","trendVolume":400142},{"stateName":"MO","trendName":"#MambaDay","placeID":"2486982","placeName":"St. Louis","searchUrl":"http:\/\/twitter.com\/search?q=%23MambaDay","trendMapped":"mamba+day","trendVolume":876693},{"stateName":"MO","trendName":"Kobe","placeID":"2486982","placeName":"St. Louis","searchUrl":"http:\/\/twitter.com\/search?q=Kobe","trendMapped":"kobe","trendVolume":1187217},{"stateName":"MO","trendName":"Ronaldo","placeID":"2486982","placeName":"St. Louis","searchUrl":"http:\/\/twitter.com\/search?q=Ronaldo","trendMapped":"ronaldo","trendVolume":595183},{"stateName":"MS","trendName":"#MambaDay","placeID":"2428184","placeName":"Jackson","searchUrl":"http:\/\/twitter.com\/search?q=%23MambaDay","trendMapped":"mamba+day","trendVolume":829579},{"stateName":"MS","trendName":"Kobe","placeID":"2428184","placeName":"Jackson","searchUrl":"http:\/\/twitter.com\/search?q=Kobe","trendMapped":"kobe","trendVolume":442135},{"stateName":"MS","trendName":"Trump","placeID":"2428184","placeName":"Jackson","searchUrl":"http:\/\/twitter.com\/search?q=Trump","trendMapped":"trump","trendVolume":754847},{"stateName":"NC","trendName":"#DolanTwinsOnTour","placeID":"2414469","placeName":"Greensboro","searchUrl":"http:\/\/twitter.com\/search?q=%23DolanTwinsOnTour","trendMapped":"dolan+twins+on+tour","trendVolume":247740},{"stateName":"NC","trendName":"#EqualPayDay","placeID":"2414469","placeName":"Greensboro","searchUrl":"http:\/\/twitter.com\/search?q=%23EqualPayDay","trendMapped":"equal+pay+day","trendVolume":250849},{"stateName":"NC","trendName":"#HalaMadrid","placeID":"2478307","placeName":"Raleigh","searchUrl":"http:\/\/twitter.com\/search?q=%23HalaMadrid","trendMapped":"hala+madrid","trendVolume":404703},{"stateName":"NC","trendName":"#MambaDay","placeID":"2478307","placeName":"Raleigh","searchUrl":"http:\/\/twitter.com\/search?q=%23MambaDay","trendMapped":"mamba+day","trendVolume":910702},{"stateName":"NC","trendName":"Drake","placeID":"2414469","placeName":"Greensboro","searchUrl":"http:\/\/twitter.com\/search?q=Drake","trendMapped":"drake","trendVolume":159328},{"stateName":"NC","trendName":"Kobe","placeID":"2478307","placeName":"Raleigh","searchUrl":"http:\/\/twitter.com\/search?q=Kobe","trendMapped":"kobe","trendVolume":442135},{"stateName":"NE","trendName":"#DolanTwinsOnTour","placeID":"2465512","placeName":"Omaha","searchUrl":"http:\/\/twitter.com\/search?q=%23DolanTwinsOnTour","trendMapped":"dolan+twins+on+tour","trendVolume":241472},{"stateName":"NE","trendName":"#EqualPayDay","placeID":"2465512","placeName":"Omaha","searchUrl":"http:\/\/twitter.com\/search?q=%23EqualPayDay","trendMapped":"equal+pay+day","trendVolume":238302},{"stateName":"NE","trendName":"#HalaMadrid","placeID":"2465512","placeName":"Omaha","searchUrl":"http:\/\/twitter.com\/search?q=%23HalaMadrid","trendMapped":"hala+madrid","trendVolume":402557},{"stateName":"NE","trendName":"#MambaDay","placeID":"2465512","placeName":"Omaha","searchUrl":"http:\/\/twitter.com\/search?q=%23MambaDay","trendMapped":"mamba+day","trendVolume":925767},{"stateName":"NE","trendName":"Kobe","placeID":"2465512","placeName":"Omaha","searchUrl":"http:\/\/twitter.com\/search?q=Kobe","trendMapped":"kobe","trendVolume":437290},{"stateName":"NM","trendName":"#CaptainAmericaPremiere","placeID":"2352824","placeName":"Albuquerque","searchUrl":"http:\/\/twitter.com\/search?q=%23CaptainAmericaPremiere","trendMapped":"captain+america+premiere","trendVolume":126904},{"stateName":"NM","trendName":"#DolanTwinsOnTour","placeID":"2352824","placeName":"Albuquerque","searchUrl":"http:\/\/twitter.com\/search?q=%23DolanTwinsOnTour","trendMapped":"dolan+twins+on+tour","trendVolume":241472},{"stateName":"NM","trendName":"#HalaMadrid","placeID":"2352824","placeName":"Albuquerque","searchUrl":"http:\/\/twitter.com\/search?q=%23HalaMadrid","trendMapped":"hala+madrid","trendVolume":400142},{"stateName":"NM","trendName":"#MambaDay","placeID":"2352824","placeName":"Albuquerque","searchUrl":"http:\/\/twitter.com\/search?q=%23MambaDay","trendMapped":"mamba+day","trendVolume":790221},{"stateName":"NM","trendName":"#PurposeTourAtlanta","placeID":"2352824","placeName":"Albuquerque","searchUrl":"http:\/\/twitter.com\/search?q=%23PurposeTourAtlanta","trendMapped":"purpose+tour+atlanta","trendVolume":67690},{"stateName":"NM","trendName":"Atletico","placeID":"2352824","placeName":"Albuquerque","searchUrl":"http:\/\/twitter.com\/search?q=Atletico","trendMapped":"atletico","trendVolume":605466},{"stateName":"NM","trendName":"Ronaldo","placeID":"2352824","placeName":"Albuquerque","searchUrl":"http:\/\/twitter.com\/search?q=Ronaldo","trendMapped":"ronaldo","trendVolume":595183},{"stateName":"NV","trendName":"#EqualPayDay","placeID":"2436704","placeName":"Las Vegas","searchUrl":"http:\/\/twitter.com\/search?q=%23EqualPayDay","trendMapped":"equal+pay+day","trendVolume":248168},{"stateName":"NV","trendName":"#HalaMadrid","placeID":"2436704","placeName":"Las Vegas","searchUrl":"http:\/\/twitter.com\/search?q=%23HalaMadrid","trendMapped":"hala+madrid","trendVolume":406614},{"stateName":"NV","trendName":"#MambaDay","placeID":"2436704","placeName":"Las Vegas","searchUrl":"http:\/\/twitter.com\/search?q=%23MambaDay","trendMapped":"mamba+day","trendVolume":903234},{"stateName":"NV","trendName":"Kobe","placeID":"2436704","placeName":"Las Vegas","searchUrl":"http:\/\/twitter.com\/search?q=Kobe","trendMapped":"kobe","trendVolume":437290},{"stateName":"NY","trendName":"#DoctorStrange","placeID":"2459115","placeName":"New York","searchUrl":"http:\/\/twitter.com\/search?q=%23DoctorStrange","trendMapped":"doctor+strange","trendVolume":72650},{"stateName":"NY","trendName":"#HalaMadrid","placeID":"2459115","placeName":"New York","searchUrl":"http:\/\/twitter.com\/search?q=%23HalaMadrid","trendMapped":"hala+madrid","trendVolume":407396},{"stateName":"NY","trendName":"#MambaDay","placeID":"2459115","placeName":"New York","searchUrl":"http:\/\/twitter.com\/search?q=%23MambaDay","trendMapped":"mamba+day","trendVolume":790221},{"stateName":"NY","trendName":"#PurposeTourAtlanta","placeID":"2459115","placeName":"New York","searchUrl":"http:\/\/twitter.com\/search?q=%23PurposeTourAtlanta","trendMapped":"purpose+tour+atlanta","trendVolume":66301},{"stateName":"NY","trendName":"Barcelona","placeID":"2459115","placeName":"New York","searchUrl":"http:\/\/twitter.com\/search?q=Barcelona","trendMapped":"barcelona","trendVolume":560858},{"stateName":"OH","trendName":"#DolanTwinsOnTour","placeID":"2383660","placeName":"Columbus","searchUrl":"http:\/\/twitter.com\/search?q=%23DolanTwinsOnTour","trendMapped":"dolan+twins+on+tour","trendVolume":240923},{"stateName":"OH","trendName":"#EqualPayDay","placeID":"2383660","placeName":"Columbus","searchUrl":"http:\/\/twitter.com\/search?q=%23EqualPayDay","trendMapped":"equal+pay+day","trendVolume":253407},{"stateName":"OH","trendName":"#HalaMadrid","placeID":"2383660","placeName":"Columbus","searchUrl":"http:\/\/twitter.com\/search?q=%23HalaMadrid","trendMapped":"hala+madrid","trendVolume":406614},{"stateName":"OH","trendName":"#MambaDay","placeID":"2383660","placeName":"Columbus","searchUrl":"http:\/\/twitter.com\/search?q=%23MambaDay","trendMapped":"mamba+day","trendVolume":829579},{"stateName":"OH","trendName":"Kobe","placeID":"2383660","placeName":"Columbus","searchUrl":"http:\/\/twitter.com\/search?q=Kobe","trendMapped":"kobe","trendVolume":860424},{"stateName":"OK","trendName":"#HalaMadrid","placeID":"2464592","placeName":"Oklahoma City","searchUrl":"http:\/\/twitter.com\/search?q=%23HalaMadrid","trendMapped":"hala+madrid","trendVolume":407396},{"stateName":"OK","trendName":"#MambaDay","placeID":"2464592","placeName":"Oklahoma City","searchUrl":"http:\/\/twitter.com\/search?q=%23MambaDay","trendMapped":"mamba+day","trendVolume":822049},{"stateName":"OK","trendName":"Kobe","placeID":"2464592","placeName":"Oklahoma City","searchUrl":"http:\/\/twitter.com\/search?q=Kobe","trendMapped":"kobe","trendVolume":422806},{"stateName":"OK","trendName":"Ronaldo","placeID":"2464592","placeName":"Oklahoma City","searchUrl":"http:\/\/twitter.com\/search?q=Ronaldo","trendMapped":"ronaldo","trendVolume":595183},{"stateName":"OR","trendName":"#HalaMadrid","placeID":"2475687","placeName":"Portland","searchUrl":"http:\/\/twitter.com\/search?q=%23HalaMadrid","trendMapped":"hala+madrid","trendVolume":420963},{"stateName":"OR","trendName":"#MambaDay","placeID":"2475687","placeName":"Portland","searchUrl":"http:\/\/twitter.com\/search?q=%23MambaDay","trendMapped":"mamba+day","trendVolume":597617},{"stateName":"OR","trendName":"Black","placeID":"2475687","placeName":"Portland","searchUrl":"http:\/\/twitter.com\/search?q=Black","trendMapped":"black","trendVolume":844077},{"stateName":"PA","trendName":"#CaptainAmericaPremiere","placeID":"2471217","placeName":"Philadelphia","searchUrl":"http:\/\/twitter.com\/search?q=%23CaptainAmericaPremiere","trendMapped":"captain+america+premiere","trendVolume":112395},{"stateName":"PA","trendName":"#DoctorStrange","placeID":"2471217","placeName":"Philadelphia","searchUrl":"http:\/\/twitter.com\/search?q=%23DoctorStrange","trendMapped":"doctor+strange","trendVolume":69414},{"stateName":"PA","trendName":"#DolanTwinsOnTour","placeID":"2473224","placeName":"Pittsburgh","searchUrl":"http:\/\/twitter.com\/search?q=%23DolanTwinsOnTour","trendMapped":"dolan+twins+on+tour","trendVolume":241111},{"stateName":"PA","trendName":"#EqualPayDay","placeID":"2473224","placeName":"Pittsburgh","searchUrl":"http:\/\/twitter.com\/search?q=%23EqualPayDay","trendMapped":"equal+pay+day","trendVolume":253407},{"stateName":"PA","trendName":"#MambaDay","placeID":"2473224","placeName":"Pittsburgh","searchUrl":"http:\/\/twitter.com\/search?q=%23MambaDay","trendMapped":"mamba+day","trendVolume":889002},{"stateName":"PA","trendName":"#Periscope","placeID":"2473224","placeName":"Pittsburgh","searchUrl":"http:\/\/twitter.com\/search?q=%23Periscope","trendMapped":"periscope","trendVolume":195860},{"stateName":"PA","trendName":"#PurposeTourAtlanta","placeID":"2471217","placeName":"Philadelphia","searchUrl":"http:\/\/twitter.com\/search?q=%23PurposeTourAtlanta","trendMapped":"purpose+tour+atlanta","trendVolume":64759},{"stateName":"PA","trendName":"Cristiano","placeID":"2471217","placeName":"Philadelphia","searchUrl":"http:\/\/twitter.com\/search?q=Cristiano","trendMapped":"cristiano","trendVolume":768927},{"stateName":"PA","trendName":"House","placeID":"2418046","placeName":"Harrisburg","searchUrl":"http:\/\/twitter.com\/search?q=House","trendMapped":"house","trendVolume":498040},{"stateName":"PA","trendName":"Kobe","placeID":"2473224","placeName":"Pittsburgh","searchUrl":"http:\/\/twitter.com\/search?q=Kobe","trendMapped":"kobe","trendVolume":1072545},{"stateName":"PA","trendName":"Ronaldo","placeID":"2473224","placeName":"Pittsburgh","searchUrl":"http:\/\/twitter.com\/search?q=Ronaldo","trendMapped":"ronaldo","trendVolume":595183},{"stateName":"PA","trendName":"Soria","placeID":"2471217","placeName":"Philadelphia","searchUrl":"http:\/\/twitter.com\/search?q=Soria","trendMapped":"soria","trendVolume":81141},{"stateName":"PA","trendName":"Trump","placeID":"2473224","placeName":"Pittsburgh","searchUrl":"http:\/\/twitter.com\/search?q=Trump","trendMapped":"trump","trendVolume":702552},{"stateName":"RI","trendName":"#DolanTwinsOnTour","placeID":"2477058","placeName":"Providence","searchUrl":"http:\/\/twitter.com\/search?q=%23DolanTwinsOnTour","trendMapped":"dolan+twins+on+tour","trendVolume":256269},{"stateName":"RI","trendName":"#EqualPayDay","placeID":"2477058","placeName":"Providence","searchUrl":"http:\/\/twitter.com\/search?q=%23EqualPayDay","trendMapped":"equal+pay+day","trendVolume":248892},{"stateName":"RI","trendName":"#HalaMadrid","placeID":"2477058","placeName":"Providence","searchUrl":"http:\/\/twitter.com\/search?q=%23HalaMadrid","trendMapped":"hala+madrid","trendVolume":404703},{"stateName":"RI","trendName":"#MambaDay","placeID":"2477058","placeName":"Providence","searchUrl":"http:\/\/twitter.com\/search?q=%23MambaDay","trendMapped":"mamba+day","trendVolume":822049},{"stateName":"RI","trendName":"Kobe","placeID":"2477058","placeName":"Providence","searchUrl":"http:\/\/twitter.com\/search?q=Kobe","trendMapped":"kobe","trendVolume":871810},{"stateName":"TN","trendName":"#EqualPayDay","placeID":"2457170","placeName":"Nashville","searchUrl":"http:\/\/twitter.com\/search?q=%23EqualPayDay","trendMapped":"equal+pay+day","trendVolume":253407},{"stateName":"TN","trendName":"#MambaDay","placeID":"2457170","placeName":"Nashville","searchUrl":"http:\/\/twitter.com\/search?q=%23MambaDay","trendMapped":"mamba+day","trendVolume":776045},{"stateName":"TN","trendName":"Kobe","placeID":"2449323","placeName":"Memphis","searchUrl":"http:\/\/twitter.com\/search?q=Kobe","trendMapped":"kobe","trendVolume":1020757},{"stateName":"TN","trendName":"Snapchat","placeID":"2449323","placeName":"Memphis","searchUrl":"http:\/\/twitter.com\/search?q=Snapchat","trendMapped":"snapchat","trendVolume":423701},{"stateName":"TX","trendName":"#CaptainAmericaPremiere","placeID":"2424766","placeName":"Houston","searchUrl":"http:\/\/twitter.com\/search?q=%23CaptainAmericaPremiere","trendMapped":"captain+america+premiere","trendVolume":166943},{"stateName":"TX","trendName":"#DolanTwinsOnTour","placeID":"2424766","placeName":"Houston","searchUrl":"http:\/\/twitter.com\/search?q=%23DolanTwinsOnTour","trendMapped":"dolan+twins+on+tour","trendVolume":241472},{"stateName":"TX","trendName":"#EqualPayDay","placeID":"2487796","placeName":"San Antonio","searchUrl":"http:\/\/twitter.com\/search?q=%23EqualPayDay","trendMapped":"equal+pay+day","trendVolume":253782},{"stateName":"TX","trendName":"#HalaMadrid","placeID":"2487796","placeName":"San Antonio","searchUrl":"http:\/\/twitter.com\/search?q=%23HalaMadrid","trendMapped":"hala+madrid","trendVolume":426852},{"stateName":"TX","trendName":"#MambaDay","placeID":"2487796","placeName":"San Antonio","searchUrl":"http:\/\/twitter.com\/search?q=%23MambaDay","trendMapped":"mamba+day","trendVolume":925767},{"stateName":"TX","trendName":"#PurposeTourAtlanta","placeID":"2388929","placeName":"Dallas-Ft. Worth","searchUrl":"http:\/\/twitter.com\/search?q=%23PurposeTourAtlanta","trendMapped":"purpose+tour+atlanta","trendVolume":64759},{"stateName":"TX","trendName":"#TeamCap","placeID":"2424766","placeName":"Houston","searchUrl":"http:\/\/twitter.com\/search?q=%23TeamCap","trendMapped":"team+cap","trendVolume":103268},{"stateName":"TX","trendName":"Atletico","placeID":"2357536","placeName":"Austin","searchUrl":"http:\/\/twitter.com\/search?q=Atletico","trendMapped":"atletico","trendVolume":593465},{"stateName":"TX","trendName":"Barca","placeID":"2424766","placeName":"Houston","searchUrl":"http:\/\/twitter.com\/search?q=Barca","trendMapped":"barca","trendVolume":743482},{"stateName":"TX","trendName":"Bernie","placeID":"2397816","placeName":"El Paso","searchUrl":"http:\/\/twitter.com\/search?q=Bernie","trendMapped":"bernie","trendVolume":259414},{"stateName":"TX","trendName":"Kobe","placeID":"2487796","placeName":"San Antonio","searchUrl":"http:\/\/twitter.com\/search?q=Kobe","trendMapped":"kobe","trendVolume":988346},{"stateName":"TX","trendName":"Madrid","placeID":"2388929","placeName":"Dallas-Ft. Worth","searchUrl":"http:\/\/twitter.com\/search?q=Madrid","trendMapped":"madrid","trendVolume":998165},{"stateName":"TX","trendName":"Ronaldo","placeID":"2424766","placeName":"Houston","searchUrl":"http:\/\/twitter.com\/search?q=Ronaldo","trendMapped":"ronaldo","trendVolume":595183},{"stateName":"TX","trendName":"Trump","placeID":"2397816","placeName":"El Paso","searchUrl":"http:\/\/twitter.com\/search?q=Trump","trendMapped":"trump","trendVolume":755851},{"stateName":"UT","trendName":"#EqualPayDay","placeID":"2487610","placeName":"Salt Lake City","searchUrl":"http:\/\/twitter.com\/search?q=%23EqualPayDay","trendMapped":"equal+pay+day","trendVolume":248588},{"stateName":"UT","trendName":"#MambaDay","placeID":"2487610","placeName":"Salt Lake City","searchUrl":"http:\/\/twitter.com\/search?q=%23MambaDay","trendMapped":"mamba+day","trendVolume":822049},{"stateName":"VA","trendName":"#EqualPayDay","placeID":"2460389","placeName":"Norfolk","searchUrl":"http:\/\/twitter.com\/search?q=%23EqualPayDay","trendMapped":"equal+pay+day","trendVolume":244561},{"stateName":"VA","trendName":"#HalaMadrid","placeID":"2480894","placeName":"Richmond","searchUrl":"http:\/\/twitter.com\/search?q=%23HalaMadrid","trendMapped":"hala+madrid","trendVolume":404703},{"stateName":"VA","trendName":"#MambaDay","placeID":"2512636","placeName":"Virginia Beach","searchUrl":"http:\/\/twitter.com\/search?q=%23MambaDay","trendMapped":"mamba+day","trendVolume":862241},{"stateName":"VA","trendName":"#PurposeTourAtlanta","placeID":"2512636","placeName":"Virginia Beach","searchUrl":"http:\/\/twitter.com\/search?q=%23PurposeTourAtlanta","trendMapped":"purpose+tour+atlanta","trendVolume":67005},{"stateName":"VA","trendName":"Atletico","placeID":"2512636","placeName":"Virginia Beach","searchUrl":"http:\/\/twitter.com\/search?q=Atletico","trendMapped":"atletico","trendVolume":607296},{"stateName":"VA","trendName":"Kobe","placeID":"2480894","placeName":"Richmond","searchUrl":"http:\/\/twitter.com\/search?q=Kobe","trendMapped":"kobe","trendVolume":1072545},{"stateName":"VA","trendName":"Ronaldo","placeID":"2512636","placeName":"Virginia Beach","searchUrl":"http:\/\/twitter.com\/search?q=Ronaldo","trendMapped":"ronaldo","trendVolume":595183},{"stateName":"VA","trendName":"Soria","placeID":"2512636","placeName":"Virginia Beach","searchUrl":"http:\/\/twitter.com\/search?q=Soria","trendMapped":"soria","trendVolume":81194},{"stateName":"WA","trendName":"#DolanTwinsOnTour","placeID":"2490383","placeName":"Seattle","searchUrl":"http:\/\/twitter.com\/search?q=%23DolanTwinsOnTour","trendMapped":"dolan+twins+on+tour","trendVolume":243825},{"stateName":"WA","trendName":"#EqualPayDay","placeID":"2490383","placeName":"Seattle","searchUrl":"http:\/\/twitter.com\/search?q=%23EqualPayDay","trendMapped":"equal+pay+day","trendVolume":241855},{"stateName":"WA","trendName":"#MambaDay","placeID":"2490383","placeName":"Seattle","searchUrl":"http:\/\/twitter.com\/search?q=%23MambaDay","trendMapped":"mamba+day","trendVolume":611783},{"stateName":"WI","trendName":"#EqualPayDay","placeID":"2451822","placeName":"Milwaukee","searchUrl":"http:\/\/twitter.com\/search?q=%23EqualPayDay","trendMapped":"equal+pay+day","trendVolume":252915},{"stateName":"WI","trendName":"#HalaMadrid","placeID":"2451822","placeName":"Milwaukee","searchUrl":"http:\/\/twitter.com\/search?q=%23HalaMadrid","trendMapped":"hala+madrid","trendVolume":407396},{"stateName":"WI","trendName":"#MambaDay","placeID":"2451822","placeName":"Milwaukee","searchUrl":"http:\/\/twitter.com\/search?q=%23MambaDay","trendMapped":"mamba+day","trendVolume":925767},{"stateName":"WI","trendName":"Kobe","placeID":"2451822","placeName":"Milwaukee","searchUrl":"http:\/\/twitter.com\/search?q=Kobe","trendMapped":"kobe","trendVolume":1020757},{"stateName":"XX","trendName":"#CaptainAmericaPremiere","placeID":"23424977","placeName":"United States","searchUrl":"http:\/\/twitter.com\/search?q=%23CaptainAmericaPremiere","trendMapped":"captain+america+premiere","trendVolume":126904},{"stateName":"XX","trendName":"#DoctorStrange","placeID":"23424977","placeName":"United States","searchUrl":"http:\/\/twitter.com\/search?q=%23DoctorStrange","trendMapped":"doctor+strange","trendVolume":100125},{"stateName":"XX","trendName":"#HalaMadrid","placeID":"23424977","placeName":"United States","searchUrl":"http:\/\/twitter.com\/search?q=%23HalaMadrid","trendMapped":"hala+madrid","trendVolume":406793},{"stateName":"XX","trendName":"#MambaDay","placeID":"23424977","placeName":"United States","searchUrl":"http:\/\/twitter.com\/search?q=%23MambaDay","trendMapped":"mamba+day","trendVolume":571006},{"stateName":"XX","trendName":"#PurposeTourAtlanta","placeID":"23424977","placeName":"United States","searchUrl":"http:\/\/twitter.com\/search?q=%23PurposeTourAtlanta","trendMapped":"purpose+tour+atlanta","trendVolume":67690},{"stateName":"XX","trendName":"Ronaldo","placeID":"23424977","placeName":"United States","searchUrl":"http:\/\/twitter.com\/search?q=Ronaldo","trendMapped":"ronaldo","trendVolume":597882}]