[{"stateName":"AL","trendName":"#WrestleMania","placeID":"2364559","placeName":"Birmingham","searchUrl":"http:\/\/twitter.com\/search?q=%23WrestleMania","trendMapped":"wrestle+mania","trendVolume":2182497},{"stateName":"AZ","trendName":"#NationalChampionship","placeID":"2471390","placeName":"Phoenix","searchUrl":"http:\/\/twitter.com\/search?q=%23NationalChampionship","trendMapped":"national+championship","trendVolume":163981},{"stateName":"AZ","trendName":"#OurJustin","placeID":"2449808","placeName":"Mesa","searchUrl":"http:\/\/twitter.com\/search?q=%23OurJustin","trendMapped":"our+justin","trendVolume":157794},{"stateName":"AZ","trendName":"#TWDFinale","placeID":"2508428","placeName":"Tucson","searchUrl":"http:\/\/twitter.com\/search?q=%23TWDFinale","trendMapped":"twd+finale","trendVolume":1056785},{"stateName":"AZ","trendName":"#WrestleMania","placeID":"2508428","placeName":"Tucson","searchUrl":"http:\/\/twitter.com\/search?q=%23WrestleMania","trendMapped":"wrestle+mania","trendVolume":2311608},{"stateName":"AZ","trendName":"#mondaymotivation","placeID":"2508428","placeName":"Tucson","searchUrl":"http:\/\/twitter.com\/search?q=%23mondaymotivation","trendMapped":"mondaymotivation","trendVolume":124000},{"stateName":"AZ","trendName":"#panamapapers","placeID":"2508428","placeName":"Tucson","searchUrl":"http:\/\/twitter.com\/search?q=%23panamapapers","trendMapped":"panamapapers","trendVolume":1139689},{"stateName":"AZ","trendName":"A.I.","placeID":"2508428","placeName":"Tucson","searchUrl":"http:\/\/twitter.com\/search?q=A.I.","trendMapped":"a.i.","trendVolume":5516000},{"stateName":"AZ","trendName":"Allen Iverson","placeID":"2449808","placeName":"Mesa","searchUrl":"http:\/\/twitter.com\/search?q=%22Allen+Iverson%22","trendMapped":"Allen+Iverson","trendVolume":125924},{"stateName":"AZ","trendName":"Panama Papers","placeID":"2508428","placeName":"Tucson","searchUrl":"http:\/\/twitter.com\/search?q=%22Panama+Papers%22","trendMapped":"Panama+Papers","trendVolume":595371},{"stateName":"AZ","trendName":"Panam\u00e1 Papers","placeID":"2449808","placeName":"Mesa","searchUrl":"http:\/\/twitter.com\/search?q=%22Panam%C3%A1+Papers%22","trendMapped":"Panam\u00e1+Papers","trendVolume":394280},{"stateName":"CA","trendName":"#NationalChampionship","placeID":"2487956","placeName":"San Francisco","searchUrl":"http:\/\/twitter.com\/search?q=%23NationalChampionship","trendMapped":"national+championship","trendVolume":186534},{"stateName":"CA","trendName":"#OurJustin","placeID":"2442047","placeName":"Los Angeles","searchUrl":"http:\/\/twitter.com\/search?q=%23OurJustin","trendMapped":"our+justin","trendVolume":156209},{"stateName":"CA","trendName":"#TWDFinale","placeID":"2488042","placeName":"San Jose","searchUrl":"http:\/\/twitter.com\/search?q=%23TWDFinale","trendMapped":"twd+finale","trendVolume":1152032},{"stateName":"CA","trendName":"#WrestleMania","placeID":"2488042","placeName":"San Jose","searchUrl":"http:\/\/twitter.com\/search?q=%23WrestleMania","trendMapped":"wrestle+mania","trendVolume":2315368},{"stateName":"CA","trendName":"#iFakeAwards","placeID":"2442047","placeName":"Los Angeles","searchUrl":"http:\/\/twitter.com\/search?q=%23iFakeAwards","trendMapped":"i+fake+awards","trendVolume":343101},{"stateName":"CA","trendName":"#mondaymotivation","placeID":"2487956","placeName":"San Francisco","searchUrl":"http:\/\/twitter.com\/search?q=%23mondaymotivation","trendMapped":"mondaymotivation","trendVolume":128097},{"stateName":"CA","trendName":"#panamapapers","placeID":"2488042","placeName":"San Jose","searchUrl":"http:\/\/twitter.com\/search?q=%23panamapapers","trendMapped":"panamapapers","trendVolume":1168446},{"stateName":"CA","trendName":"A.I.","placeID":"2487956","placeName":"San Francisco","searchUrl":"http:\/\/twitter.com\/search?q=A.I.","trendMapped":"a.i.","trendVolume":5625319},{"stateName":"CA","trendName":"Allen Iverson","placeID":"2488042","placeName":"San Jose","searchUrl":"http:\/\/twitter.com\/search?q=%22Allen+Iverson%22","trendMapped":"Allen+Iverson","trendVolume":125924},{"stateName":"CA","trendName":"Panama Papers","placeID":"2488042","placeName":"San Jose","searchUrl":"http:\/\/twitter.com\/search?q=%22Panama+Papers%22","trendMapped":"Panama+Papers","trendVolume":586504},{"stateName":"CO","trendName":"#WrestleMania","placeID":"2391279","placeName":"Denver","searchUrl":"http:\/\/twitter.com\/search?q=%23WrestleMania","trendMapped":"wrestle+mania","trendVolume":2301070},{"stateName":"CO","trendName":"#mondaymotivation","placeID":"2383489","placeName":"Colorado Springs","searchUrl":"http:\/\/twitter.com\/search?q=%23mondaymotivation","trendMapped":"mondaymotivation","trendVolume":128097},{"stateName":"CO","trendName":"#panamapapers","placeID":"2383489","placeName":"Colorado Springs","searchUrl":"http:\/\/twitter.com\/search?q=%23panamapapers","trendMapped":"panamapapers","trendVolume":1161988},{"stateName":"CO","trendName":"A.I.","placeID":"2383489","placeName":"Colorado Springs","searchUrl":"http:\/\/twitter.com\/search?q=A.I.","trendMapped":"a.i.","trendVolume":5681055},{"stateName":"CO","trendName":"Panama Papers","placeID":"2383489","placeName":"Colorado Springs","searchUrl":"http:\/\/twitter.com\/search?q=%22Panama+Papers%22","trendMapped":"Panama+Papers","trendVolume":576707},{"stateName":"CO","trendName":"Wrestlemania","placeID":"2391279","placeName":"Denver","searchUrl":"http:\/\/twitter.com\/search?q=Wrestlemania","trendMapped":"wrestlemania","trendVolume":2641577},{"stateName":"CT","trendName":"#panamapapers","placeID":"2458410","placeName":"New Haven","searchUrl":"http:\/\/twitter.com\/search?q=%23panamapapers","trendMapped":"panamapapers","trendVolume":1187703},{"stateName":"CT","trendName":"NOW OR NEVER FAM","placeID":"2458410","placeName":"New Haven","searchUrl":"http:\/\/twitter.com\/search?q=%22NOW+OR+NEVER+FAM%22","trendMapped":"NOW+OR+NEVER+FAM","trendVolume":1192155},{"stateName":"DC","trendName":"#WrestleMania","placeID":"2514815","placeName":"Washington","searchUrl":"http:\/\/twitter.com\/search?q=%23WrestleMania","trendMapped":"wrestle+mania","trendVolume":2292897},{"stateName":"DC","trendName":"Panama Papers","placeID":"2514815","placeName":"Washington","searchUrl":"http:\/\/twitter.com\/search?q=%22Panama+Papers%22","trendMapped":"Panama+Papers","trendVolume":569585},{"stateName":"FL","trendName":"#TWDFinale","placeID":"2466256","placeName":"Orlando","searchUrl":"http:\/\/twitter.com\/search?q=%23TWDFinale","trendMapped":"twd+finale","trendVolume":1115297},{"stateName":"FL","trendName":"#WrestleMania","placeID":"2503863","placeName":"Tampa","searchUrl":"http:\/\/twitter.com\/search?q=%23WrestleMania","trendMapped":"wrestle+mania","trendVolume":2314576},{"stateName":"FL","trendName":"#panamapapers","placeID":"2466256","placeName":"Orlando","searchUrl":"http:\/\/twitter.com\/search?q=%23panamapapers","trendMapped":"panamapapers","trendVolume":1221320},{"stateName":"FL","trendName":"A.I.","placeID":"2503713","placeName":"Tallahassee","searchUrl":"http:\/\/twitter.com\/search?q=A.I.","trendMapped":"a.i.","trendVolume":5709264},{"stateName":"GA","trendName":"#NationalChampionship","placeID":"2357024","placeName":"Atlanta","searchUrl":"http:\/\/twitter.com\/search?q=%23NationalChampionship","trendMapped":"national+championship","trendVolume":170787},{"stateName":"GA","trendName":"#OpeningDay","placeID":"2357024","placeName":"Atlanta","searchUrl":"http:\/\/twitter.com\/search?q=%23OpeningDay","trendMapped":"opening+day","trendVolume":171530},{"stateName":"GA","trendName":"#WrestleMania","placeID":"2357024","placeName":"Atlanta","searchUrl":"http:\/\/twitter.com\/search?q=%23WrestleMania","trendMapped":"wrestle+mania","trendVolume":2233696},{"stateName":"GA","trendName":"#panamapapers","placeID":"2357024","placeName":"Atlanta","searchUrl":"http:\/\/twitter.com\/search?q=%23panamapapers","trendMapped":"panamapapers","trendVolume":1187703},{"stateName":"GA","trendName":"Panama Papers","placeID":"2357024","placeName":"Atlanta","searchUrl":"http:\/\/twitter.com\/search?q=%22Panama+Papers%22","trendMapped":"Panama+Papers","trendVolume":576707},{"stateName":"HI","trendName":"#WrestleMania","placeID":"2423945","placeName":"Honolulu","searchUrl":"http:\/\/twitter.com\/search?q=%23WrestleMania","trendMapped":"wrestle+mania","trendVolume":2244981},{"stateName":"IL","trendName":"#PanamaLeaks","placeID":"2379574","placeName":"Chicago","searchUrl":"http:\/\/twitter.com\/search?q=%23PanamaLeaks","trendMapped":"panama+leaks","trendVolume":176374},{"stateName":"IL","trendName":"#WrestleMania","placeID":"2379574","placeName":"Chicago","searchUrl":"http:\/\/twitter.com\/search?q=%23WrestleMania","trendMapped":"wrestle+mania","trendVolume":2318308},{"stateName":"IL","trendName":"#mondaymotivation","placeID":"2379574","placeName":"Chicago","searchUrl":"http:\/\/twitter.com\/search?q=%23mondaymotivation","trendMapped":"mondaymotivation","trendVolume":129865},{"stateName":"IL","trendName":"#panamapapers","placeID":"2379574","placeName":"Chicago","searchUrl":"http:\/\/twitter.com\/search?q=%23panamapapers","trendMapped":"panamapapers","trendVolume":1149252},{"stateName":"KY","trendName":"#WrestleMania","placeID":"2442327","placeName":"Louisville","searchUrl":"http:\/\/twitter.com\/search?q=%23WrestleMania","trendMapped":"wrestle+mania","trendVolume":2246890},{"stateName":"LA","trendName":"#WrestleMania","placeID":"2359991","placeName":"Baton Rouge","searchUrl":"http:\/\/twitter.com\/search?q=%23WrestleMania","trendMapped":"wrestle+mania","trendVolume":2314631},{"stateName":"LA","trendName":"NOW OR NEVER FAM","placeID":"2359991","placeName":"Baton Rouge","searchUrl":"http:\/\/twitter.com\/search?q=%22NOW+OR+NEVER+FAM%22","trendMapped":"NOW+OR+NEVER+FAM","trendVolume":1267310},{"stateName":"MA","trendName":"#NationalChampionship","placeID":"2367105","placeName":"Boston","searchUrl":"http:\/\/twitter.com\/search?q=%23NationalChampionship","trendMapped":"national+championship","trendVolume":142069},{"stateName":"MA","trendName":"#TWDFinale","placeID":"2367105","placeName":"Boston","searchUrl":"http:\/\/twitter.com\/search?q=%23TWDFinale","trendMapped":"twd+finale","trendVolume":1068127},{"stateName":"MA","trendName":"#WrestleMania","placeID":"2367105","placeName":"Boston","searchUrl":"http:\/\/twitter.com\/search?q=%23WrestleMania","trendMapped":"wrestle+mania","trendVolume":2313824},{"stateName":"MA","trendName":"#mondaymotivation","placeID":"2367105","placeName":"Boston","searchUrl":"http:\/\/twitter.com\/search?q=%23mondaymotivation","trendMapped":"mondaymotivation","trendVolume":128097},{"stateName":"MA","trendName":"Panama Papers","placeID":"2367105","placeName":"Boston","searchUrl":"http:\/\/twitter.com\/search?q=%22Panama+Papers%22","trendMapped":"Panama+Papers","trendVolume":488738},{"stateName":"MD","trendName":"#WrestleMania","placeID":"2358820","placeName":"Baltimore","searchUrl":"http:\/\/twitter.com\/search?q=%23WrestleMania","trendMapped":"wrestle+mania","trendVolume":2276189},{"stateName":"MD","trendName":"Panama Papers","placeID":"2358820","placeName":"Baltimore","searchUrl":"http:\/\/twitter.com\/search?q=%22Panama+Papers%22","trendMapped":"Panama+Papers","trendVolume":595371},{"stateName":"MI","trendName":"#TWDFinale","placeID":"2391585","placeName":"Detroit","searchUrl":"http:\/\/twitter.com\/search?q=%23TWDFinale","trendMapped":"twd+finale","trendVolume":1110598},{"stateName":"MI","trendName":"#WrestleMania","placeID":"2391585","placeName":"Detroit","searchUrl":"http:\/\/twitter.com\/search?q=%23WrestleMania","trendMapped":"wrestle+mania","trendVolume":2307919},{"stateName":"MN","trendName":"#WrestleMania","placeID":"2452078","placeName":"Minneapolis","searchUrl":"http:\/\/twitter.com\/search?q=%23WrestleMania","trendMapped":"wrestle+mania","trendVolume":2312012},{"stateName":"MN","trendName":"#panamapapers","placeID":"2452078","placeName":"Minneapolis","searchUrl":"http:\/\/twitter.com\/search?q=%23panamapapers","trendMapped":"panamapapers","trendVolume":1200971},{"stateName":"MO","trendName":"#TWDFinale","placeID":"2430683","placeName":"Kansas City","searchUrl":"http:\/\/twitter.com\/search?q=%23TWDFinale","trendMapped":"twd+finale","trendVolume":1123898},{"stateName":"MO","trendName":"#WrestleMania","placeID":"2486982","placeName":"St. Louis","searchUrl":"http:\/\/twitter.com\/search?q=%23WrestleMania","trendMapped":"wrestle+mania","trendVolume":2308179},{"stateName":"MO","trendName":"#panamapapers","placeID":"2430683","placeName":"Kansas City","searchUrl":"http:\/\/twitter.com\/search?q=%23panamapapers","trendMapped":"panamapapers","trendVolume":1168446},{"stateName":"MO","trendName":"A.I.","placeID":"2430683","placeName":"Kansas City","searchUrl":"http:\/\/twitter.com\/search?q=A.I.","trendMapped":"a.i.","trendVolume":5709264},{"stateName":"MS","trendName":"#WrestleMania","placeID":"2428184","placeName":"Jackson","searchUrl":"http:\/\/twitter.com\/search?q=%23WrestleMania","trendMapped":"wrestle+mania","trendVolume":2318308},{"stateName":"MS","trendName":"A.I.","placeID":"2428184","placeName":"Jackson","searchUrl":"http:\/\/twitter.com\/search?q=A.I.","trendMapped":"a.i.","trendVolume":5766531},{"stateName":"NC","trendName":"#WrestleMania","placeID":"2478307","placeName":"Raleigh","searchUrl":"http:\/\/twitter.com\/search?q=%23WrestleMania","trendMapped":"wrestle+mania","trendVolume":2315368},{"stateName":"NC","trendName":"A.I.","placeID":"2378426","placeName":"Charlotte","searchUrl":"http:\/\/twitter.com\/search?q=A.I.","trendMapped":"a.i.","trendVolume":5516000},{"stateName":"NE","trendName":"#WrestleMania","placeID":"2465512","placeName":"Omaha","searchUrl":"http:\/\/twitter.com\/search?q=%23WrestleMania","trendMapped":"wrestle+mania","trendVolume":2306162},{"stateName":"NM","trendName":"#NationalChampionship","placeID":"2352824","placeName":"Albuquerque","searchUrl":"http:\/\/twitter.com\/search?q=%23NationalChampionship","trendMapped":"national+championship","trendVolume":190698},{"stateName":"NM","trendName":"#TWDFinale","placeID":"2352824","placeName":"Albuquerque","searchUrl":"http:\/\/twitter.com\/search?q=%23TWDFinale","trendMapped":"twd+finale","trendVolume":1070516},{"stateName":"NM","trendName":"#WrestleMania","placeID":"2352824","placeName":"Albuquerque","searchUrl":"http:\/\/twitter.com\/search?q=%23WrestleMania","trendMapped":"wrestle+mania","trendVolume":2298717},{"stateName":"NM","trendName":"#mondaymotivation","placeID":"2352824","placeName":"Albuquerque","searchUrl":"http:\/\/twitter.com\/search?q=%23mondaymotivation","trendMapped":"mondaymotivation","trendVolume":128097},{"stateName":"NM","trendName":"#panamapapers","placeID":"2352824","placeName":"Albuquerque","searchUrl":"http:\/\/twitter.com\/search?q=%23panamapapers","trendMapped":"panamapapers","trendVolume":1178166},{"stateName":"NM","trendName":"Panama Papers","placeID":"2352824","placeName":"Albuquerque","searchUrl":"http:\/\/twitter.com\/search?q=%22Panama+Papers%22","trendMapped":"Panama+Papers","trendVolume":586504},{"stateName":"NM","trendName":"Panam\u00e1 Papers","placeID":"2352824","placeName":"Albuquerque","searchUrl":"http:\/\/twitter.com\/search?q=%22Panam%C3%A1+Papers%22","trendMapped":"Panam\u00e1+Papers","trendVolume":394280},{"stateName":"NV","trendName":"#WrestleMania","placeID":"2436704","placeName":"Las Vegas","searchUrl":"http:\/\/twitter.com\/search?q=%23WrestleMania","trendMapped":"wrestle+mania","trendVolume":2235919},{"stateName":"NV","trendName":"#iheartawards","placeID":"2436704","placeName":"Las Vegas","searchUrl":"http:\/\/twitter.com\/search?q=%23iheartawards","trendMapped":"iheartawards","trendVolume":19482438},{"stateName":"NY","trendName":"#TWDFinale","placeID":"2459115","placeName":"New York","searchUrl":"http:\/\/twitter.com\/search?q=%23TWDFinale","trendMapped":"twd+finale","trendVolume":1068127},{"stateName":"NY","trendName":"#mondaymotivation","placeID":"2459115","placeName":"New York","searchUrl":"http:\/\/twitter.com\/search?q=%23mondaymotivation","trendMapped":"mondaymotivation","trendVolume":126412},{"stateName":"NY","trendName":"A.I.","placeID":"2459115","placeName":"New York","searchUrl":"http:\/\/twitter.com\/search?q=A.I.","trendMapped":"a.i.","trendVolume":5709264},{"stateName":"NY","trendName":"Panama Papers","placeID":"2459115","placeName":"New York","searchUrl":"http:\/\/twitter.com\/search?q=%22Panama+Papers%22","trendMapped":"Panama+Papers","trendVolume":595371},{"stateName":"OH","trendName":"#OpeningDay","placeID":"2381475","placeName":"Cleveland","searchUrl":"http:\/\/twitter.com\/search?q=%23OpeningDay","trendMapped":"opening+day","trendVolume":167487},{"stateName":"OH","trendName":"#WrestleMania","placeID":"2383660","placeName":"Columbus","searchUrl":"http:\/\/twitter.com\/search?q=%23WrestleMania","trendMapped":"wrestle+mania","trendVolume":2313080},{"stateName":"OH","trendName":"#mondaymotivation","placeID":"2381475","placeName":"Cleveland","searchUrl":"http:\/\/twitter.com\/search?q=%23mondaymotivation","trendMapped":"mondaymotivation","trendVolume":125546},{"stateName":"OH","trendName":"A.I.","placeID":"2381475","placeName":"Cleveland","searchUrl":"http:\/\/twitter.com\/search?q=A.I.","trendMapped":"a.i.","trendVolume":5709264},{"stateName":"OK","trendName":"#WrestleMania","placeID":"2464592","placeName":"Oklahoma City","searchUrl":"http:\/\/twitter.com\/search?q=%23WrestleMania","trendMapped":"wrestle+mania","trendVolume":2272735},{"stateName":"OR","trendName":"#WrestleMania","placeID":"2475687","placeName":"Portland","searchUrl":"http:\/\/twitter.com\/search?q=%23WrestleMania","trendMapped":"wrestle+mania","trendVolume":2272735},{"stateName":"PA","trendName":"#OurJustin","placeID":"2471217","placeName":"Philadelphia","searchUrl":"http:\/\/twitter.com\/search?q=%23OurJustin","trendMapped":"our+justin","trendVolume":156664},{"stateName":"PA","trendName":"#WrestleMania","placeID":"2473224","placeName":"Pittsburgh","searchUrl":"http:\/\/twitter.com\/search?q=%23WrestleMania","trendMapped":"wrestle+mania","trendVolume":2286173},{"stateName":"PA","trendName":"#mondaymotivation","placeID":"2471217","placeName":"Philadelphia","searchUrl":"http:\/\/twitter.com\/search?q=%23mondaymotivation","trendMapped":"mondaymotivation","trendVolume":126854},{"stateName":"PA","trendName":"#panamapapers","placeID":"2471217","placeName":"Philadelphia","searchUrl":"http:\/\/twitter.com\/search?q=%23panamapapers","trendMapped":"panamapapers","trendVolume":1133415},{"stateName":"PA","trendName":"A.I.","placeID":"2471217","placeName":"Philadelphia","searchUrl":"http:\/\/twitter.com\/search?q=A.I.","trendMapped":"a.i.","trendVolume":5709264},{"stateName":"PA","trendName":"Panama Papers","placeID":"2471217","placeName":"Philadelphia","searchUrl":"http:\/\/twitter.com\/search?q=%22Panama+Papers%22","trendMapped":"Panama+Papers","trendVolume":569585},{"stateName":"RI","trendName":"#BestFanArmy","placeID":"2477058","placeName":"Providence","searchUrl":"http:\/\/twitter.com\/search?q=%23BestFanArmy","trendMapped":"best+fan+army","trendVolume":24637886},{"stateName":"TN","trendName":"#TWDFinale","placeID":"2457170","placeName":"Nashville","searchUrl":"http:\/\/twitter.com\/search?q=%23TWDFinale","trendMapped":"twd+finale","trendVolume":1041375},{"stateName":"TN","trendName":"#WrestleMania","placeID":"2449323","placeName":"Memphis","searchUrl":"http:\/\/twitter.com\/search?q=%23WrestleMania","trendMapped":"wrestle+mania","trendVolume":2311608},{"stateName":"TN","trendName":"#panamapapers","placeID":"2457170","placeName":"Nashville","searchUrl":"http:\/\/twitter.com\/search?q=%23panamapapers","trendMapped":"panamapapers","trendVolume":1190906},{"stateName":"TN","trendName":"A.I.","placeID":"2449323","placeName":"Memphis","searchUrl":"http:\/\/twitter.com\/search?q=A.I.","trendMapped":"a.i.","trendVolume":5709264},{"stateName":"TX","trendName":"#Harmonizers","placeID":"2388929","placeName":"Dallas-Ft. Worth","searchUrl":"http:\/\/twitter.com\/search?q=%23Harmonizers","trendMapped":"harmonizers","trendVolume":10371645},{"stateName":"TX","trendName":"#NationalChampionship","placeID":"2388929","placeName":"Dallas-Ft. Worth","searchUrl":"http:\/\/twitter.com\/search?q=%23NationalChampionship","trendMapped":"national+championship","trendVolume":163981},{"stateName":"TX","trendName":"#OpeningDay","placeID":"2388929","placeName":"Dallas-Ft. Worth","searchUrl":"http:\/\/twitter.com\/search?q=%23OpeningDay","trendMapped":"opening+day","trendVolume":172068},{"stateName":"TX","trendName":"#TWDFinale","placeID":"2388929","placeName":"Dallas-Ft. Worth","searchUrl":"http:\/\/twitter.com\/search?q=%23TWDFinale","trendMapped":"twd+finale","trendVolume":1030705},{"stateName":"TX","trendName":"#WrestleMania","placeID":"2424766","placeName":"Houston","searchUrl":"http:\/\/twitter.com\/search?q=%23WrestleMania","trendMapped":"wrestle+mania","trendVolume":2306474},{"stateName":"TX","trendName":"#openingday","placeID":"2388929","placeName":"Dallas-Ft. Worth","searchUrl":"http:\/\/twitter.com\/search?q=%23openingday","trendMapped":"openingday","trendVolume":174911},{"stateName":"TX","trendName":"#panamapapers","placeID":"2424766","placeName":"Houston","searchUrl":"http:\/\/twitter.com\/search?q=%23panamapapers","trendMapped":"panamapapers","trendVolume":1254237},{"stateName":"TX","trendName":"A.I.","placeID":"2397816","placeName":"El Paso","searchUrl":"http:\/\/twitter.com\/search?q=A.I.","trendMapped":"a.i.","trendVolume":5709264},{"stateName":"TX","trendName":"Panama Papers","placeID":"2388929","placeName":"Dallas-Ft. Worth","searchUrl":"http:\/\/twitter.com\/search?q=%22Panama+Papers%22","trendMapped":"Panama+Papers","trendVolume":586632},{"stateName":"UT","trendName":"#WrestleMania","placeID":"2487610","placeName":"Salt Lake City","searchUrl":"http:\/\/twitter.com\/search?q=%23WrestleMania","trendMapped":"wrestle+mania","trendVolume":2281210},{"stateName":"UT","trendName":"#panamapapers","placeID":"2487610","placeName":"Salt Lake City","searchUrl":"http:\/\/twitter.com\/search?q=%23panamapapers","trendMapped":"panamapapers","trendVolume":1551493},{"stateName":"VA","trendName":"#WrestleMania","placeID":"2512636","placeName":"Virginia Beach","searchUrl":"http:\/\/twitter.com\/search?q=%23WrestleMania","trendMapped":"wrestle+mania","trendVolume":2317553},{"stateName":"VA","trendName":"#mondaymotivation","placeID":"2512636","placeName":"Virginia Beach","searchUrl":"http:\/\/twitter.com\/search?q=%23mondaymotivation","trendMapped":"mondaymotivation","trendVolume":126854},{"stateName":"VA","trendName":"Allen Iverson","placeID":"2512636","placeName":"Virginia Beach","searchUrl":"http:\/\/twitter.com\/search?q=%22Allen+Iverson%22","trendMapped":"Allen+Iverson","trendVolume":125924},{"stateName":"VA","trendName":"NOW OR NEVER FAM","placeID":"2512636","placeName":"Virginia Beach","searchUrl":"http:\/\/twitter.com\/search?q=%22NOW+OR+NEVER+FAM%22","trendMapped":"NOW+OR+NEVER+FAM","trendVolume":1192155},{"stateName":"VA","trendName":"Panama Papers","placeID":"2512636","placeName":"Virginia Beach","searchUrl":"http:\/\/twitter.com\/search?q=%22Panama+Papers%22","trendMapped":"Panama+Papers","trendVolume":586632},{"stateName":"WA","trendName":"#PanamaLeaks","placeID":"2490383","placeName":"Seattle","searchUrl":"http:\/\/twitter.com\/search?q=%23PanamaLeaks","trendMapped":"panama+leaks","trendVolume":176374},{"stateName":"WA","trendName":"#TWDFinale","placeID":"2490383","placeName":"Seattle","searchUrl":"http:\/\/twitter.com\/search?q=%23TWDFinale","trendMapped":"twd+finale","trendVolume":1056785},{"stateName":"WA","trendName":"#WrestleMania","placeID":"2490383","placeName":"Seattle","searchUrl":"http:\/\/twitter.com\/search?q=%23WrestleMania","trendMapped":"wrestle+mania","trendVolume":2283444},{"stateName":"WA","trendName":"King","placeID":"2490383","placeName":"Seattle","searchUrl":"http:\/\/twitter.com\/search?q=King","trendMapped":"king","trendVolume":447212},{"stateName":"WA","trendName":"Panama Papers","placeID":"2490383","placeName":"Seattle","searchUrl":"http:\/\/twitter.com\/search?q=%22Panama+Papers%22","trendMapped":"Panama+Papers","trendVolume":595371},{"stateName":"WI","trendName":"#WrestleMania","placeID":"2451822","placeName":"Milwaukee","searchUrl":"http:\/\/twitter.com\/search?q=%23WrestleMania","trendMapped":"wrestle+mania","trendVolume":2317553},{"stateName":"WI","trendName":"#openingday","placeID":"2451822","placeName":"Milwaukee","searchUrl":"http:\/\/twitter.com\/search?q=%23openingday","trendMapped":"openingday","trendVolume":174911},{"stateName":"WI","trendName":"A.I.","placeID":"2451822","placeName":"Milwaukee","searchUrl":"http:\/\/twitter.com\/search?q=A.I.","trendMapped":"a.i.","trendVolume":5571426},{"stateName":"XX","trendName":"#NationalChampionship","placeID":"23424977","placeName":"United States","searchUrl":"http:\/\/twitter.com\/search?q=%23NationalChampionship","trendMapped":"national+championship","trendVolume":163981},{"stateName":"XX","trendName":"#OurJustin","placeID":"23424977","placeName":"United States","searchUrl":"http:\/\/twitter.com\/search?q=%23OurJustin","trendMapped":"our+justin","trendVolume":156209},{"stateName":"XX","trendName":"#TWDFinale","placeID":"23424977","placeName":"United States","searchUrl":"http:\/\/twitter.com\/search?q=%23TWDFinale","trendMapped":"twd+finale","trendVolume":1070516},{"stateName":"XX","trendName":"#WrestleMania","placeID":"23424977","placeName":"United States","searchUrl":"http:\/\/twitter.com\/search?q=%23WrestleMania","trendMapped":"wrestle+mania","trendVolume":2288949},{"stateName":"XX","trendName":"#mondaymotivation","placeID":"23424977","placeName":"United States","searchUrl":"http:\/\/twitter.com\/search?q=%23mondaymotivation","trendMapped":"mondaymotivation","trendVolume":115698},{"stateName":"XX","trendName":"#panamapapers","placeID":"23424977","placeName":"United States","searchUrl":"http:\/\/twitter.com\/search?q=%23panamapapers","trendMapped":"panamapapers","trendVolume":1178166},{"stateName":"XX","trendName":"Allen Iverson","placeID":"23424977","placeName":"United States","searchUrl":"http:\/\/twitter.com\/search?q=%22Allen+Iverson%22","trendMapped":"Allen+Iverson","trendVolume":123961},{"stateName":"XX","trendName":"Panama Papers","placeID":"23424977","placeName":"United States","searchUrl":"http:\/\/twitter.com\/search?q=%22Panama+Papers%22","trendMapped":"Panama+Papers","trendVolume":586504}]