[{"stateName":"AL","trendName":"#NationalChampionship","placeID":"2364559","placeName":"Birmingham","searchUrl":"http:\/\/twitter.com\/search?q=%23NationalChampionship","trendMapped":"national+championship","trendVolume":616739},{"stateName":"AL","trendName":"House","placeID":"2364559","placeName":"Birmingham","searchUrl":"http:\/\/twitter.com\/search?q=House","trendMapped":"house","trendVolume":488538},{"stateName":"AL","trendName":"Wolfsburg","placeID":"2364559","placeName":"Birmingham","searchUrl":"http:\/\/twitter.com\/search?q=Wolfsburg","trendMapped":"wolfsburg","trendVolume":252941},{"stateName":"AZ","trendName":"#BlackGirlsRock","placeID":"2508428","placeName":"Tucson","searchUrl":"http:\/\/twitter.com\/search?q=%23BlackGirlsRock","trendMapped":"black+girls+rock","trendVolume":174136},{"stateName":"AZ","trendName":"#FelizMiercoles","placeID":"2508428","placeName":"Tucson","searchUrl":"http:\/\/twitter.com\/search?q=%23FelizMiercoles","trendMapped":"feliz+miercoles","trendVolume":54736},{"stateName":"AZ","trendName":"#FifthHarmony","placeID":"2471390","placeName":"Phoenix","searchUrl":"http:\/\/twitter.com\/search?q=%23FifthHarmony","trendMapped":"fifth+harmony","trendVolume":423754},{"stateName":"AZ","trendName":"#JuniorDoctorsStrike","placeID":"2449808","placeName":"Mesa","searchUrl":"http:\/\/twitter.com\/search?q=%23JuniorDoctorsStrike","trendMapped":"junior+doctors+strike","trendVolume":32680},{"stateName":"AZ","trendName":"#NationalChampionship","placeID":"2471390","placeName":"Phoenix","searchUrl":"http:\/\/twitter.com\/search?q=%23NationalChampionship","trendMapped":"national+championship","trendVolume":499626},{"stateName":"AZ","trendName":"#OliviaLamasanXKathNiel","placeID":"2508428","placeName":"Tucson","searchUrl":"http:\/\/twitter.com\/search?q=%23OliviaLamasanXKathNiel","trendMapped":"olivia+lamasan+x+kath+niel","trendVolume":78061},{"stateName":"AZ","trendName":"#PSYAppreciationLunch","placeID":"2508428","placeName":"Tucson","searchUrl":"http:\/\/twitter.com\/search?q=%23PSYAppreciationLunch","trendMapped":"psy+appreciation+lunch","trendVolume":130653},{"stateName":"AZ","trendName":"#WednesdayWisdom","placeID":"2508428","placeName":"Tucson","searchUrl":"http:\/\/twitter.com\/search?q=%23WednesdayWisdom","trendMapped":"wednesday+wisdom","trendVolume":48900},{"stateName":"AZ","trendName":"#WisconsinPrimary","placeID":"2508428","placeName":"Tucson","searchUrl":"http:\/\/twitter.com\/search?q=%23WisconsinPrimary","trendMapped":"wisconsin+primary","trendVolume":185202},{"stateName":"AZ","trendName":"Glass","placeID":"2449808","placeName":"Mesa","searchUrl":"http:\/\/twitter.com\/search?q=Glass","trendMapped":"glass","trendVolume":82228},{"stateName":"AZ","trendName":"Merle Haggard","placeID":"2508428","placeName":"Tucson","searchUrl":"http:\/\/twitter.com\/search?q=%22Merle+Haggard%22","trendMapped":"Merle+Haggard","trendVolume":78943},{"stateName":"AZ","trendName":"Story","placeID":"2471390","placeName":"Phoenix","searchUrl":"http:\/\/twitter.com\/search?q=Story","trendMapped":"story","trendVolume":1400123},{"stateName":"AZ","trendName":"Torres","placeID":"2508428","placeName":"Tucson","searchUrl":"http:\/\/twitter.com\/search?q=Torres","trendMapped":"torres","trendVolume":398865},{"stateName":"AZ","trendName":"Wolfsburg","placeID":"2508428","placeName":"Tucson","searchUrl":"http:\/\/twitter.com\/search?q=Wolfsburg","trendMapped":"wolfsburg","trendVolume":248049},{"stateName":"CA","trendName":"#BlackGirlsRock","placeID":"2488042","placeName":"San Jose","searchUrl":"http:\/\/twitter.com\/search?q=%23BlackGirlsRock","trendMapped":"black+girls+rock","trendVolume":199957},{"stateName":"CA","trendName":"#DolanTwinsNewVideo","placeID":"2488042","placeName":"San Jose","searchUrl":"http:\/\/twitter.com\/search?q=%23DolanTwinsNewVideo","trendMapped":"dolan+twins+new+video","trendVolume":135346},{"stateName":"CA","trendName":"#FelizMiercoles","placeID":"2488042","placeName":"San Jose","searchUrl":"http:\/\/twitter.com\/search?q=%23FelizMiercoles","trendMapped":"feliz+miercoles","trendVolume":52284},{"stateName":"CA","trendName":"#JuniorDoctorsStrike","placeID":"2488042","placeName":"San Jose","searchUrl":"http:\/\/twitter.com\/search?q=%23JuniorDoctorsStrike","trendMapped":"junior+doctors+strike","trendVolume":32680},{"stateName":"CA","trendName":"#NationalChampionship","placeID":"2486340","placeName":"Sacramento","searchUrl":"http:\/\/twitter.com\/search?q=%23NationalChampionship","trendMapped":"national+championship","trendVolume":179586},{"stateName":"CA","trendName":"#OliviaLamasanXKathNiel","placeID":"2407517","placeName":"Fresno","searchUrl":"http:\/\/twitter.com\/search?q=%23OliviaLamasanXKathNiel","trendMapped":"olivia+lamasan+x+kath+niel","trendVolume":75011},{"stateName":"CA","trendName":"#PSYAppreciationLunch","placeID":"2407517","placeName":"Fresno","searchUrl":"http:\/\/twitter.com\/search?q=%23PSYAppreciationLunch","trendMapped":"psy+appreciation+lunch","trendVolume":130653},{"stateName":"CA","trendName":"#PanamaPapers","placeID":"2487956","placeName":"San Francisco","searchUrl":"http:\/\/twitter.com\/search?q=%23PanamaPapers","trendMapped":"panama+papers","trendVolume":727561},{"stateName":"CA","trendName":"#WednesdayWisdom","placeID":"2487956","placeName":"San Francisco","searchUrl":"http:\/\/twitter.com\/search?q=%23WednesdayWisdom","trendMapped":"wednesday+wisdom","trendVolume":44668},{"stateName":"CA","trendName":"#WisconsinPrimary","placeID":"2488042","placeName":"San Jose","searchUrl":"http:\/\/twitter.com\/search?q=%23WisconsinPrimary","trendMapped":"wisconsin+primary","trendVolume":187360},{"stateName":"CA","trendName":"#panamapapers","placeID":"2487889","placeName":"San Diego","searchUrl":"http:\/\/twitter.com\/search?q=%23panamapapers","trendMapped":"panamapapers","trendVolume":563707},{"stateName":"CA","trendName":"Drake","placeID":"2486340","placeName":"Sacramento","searchUrl":"http:\/\/twitter.com\/search?q=Drake","trendMapped":"drake","trendVolume":452848},{"stateName":"CA","trendName":"Irene","placeID":"2442047","placeName":"Los Angeles","searchUrl":"http:\/\/twitter.com\/search?q=Irene","trendMapped":"irene","trendVolume":45075},{"stateName":"CA","trendName":"Merle Haggard","placeID":"2442047","placeName":"Los Angeles","searchUrl":"http:\/\/twitter.com\/search?q=%22Merle+Haggard%22","trendMapped":"Merle+Haggard","trendVolume":68536},{"stateName":"CA","trendName":"Panama Papers","placeID":"2486340","placeName":"Sacramento","searchUrl":"http:\/\/twitter.com\/search?q=%22Panama+Papers%22","trendMapped":"Panama+Papers","trendVolume":602454},{"stateName":"CA","trendName":"Real Madrid","placeID":"2487956","placeName":"San Francisco","searchUrl":"http:\/\/twitter.com\/search?q=%22Real+Madrid%22","trendMapped":"Real+Madrid","trendVolume":198761},{"stateName":"CA","trendName":"Torres","placeID":"2487956","placeName":"San Francisco","searchUrl":"http:\/\/twitter.com\/search?q=Torres","trendMapped":"torres","trendVolume":403155},{"stateName":"CA","trendName":"Wolfsburg","placeID":"2488042","placeName":"San Jose","searchUrl":"http:\/\/twitter.com\/search?q=Wolfsburg","trendMapped":"wolfsburg","trendVolume":250450},{"stateName":"CO","trendName":"#BlackGirlsRock","placeID":"2383489","placeName":"Colorado Springs","searchUrl":"http:\/\/twitter.com\/search?q=%23BlackGirlsRock","trendMapped":"black+girls+rock","trendVolume":76027},{"stateName":"CO","trendName":"#DolanTwinsNewVideo","placeID":"2383489","placeName":"Colorado Springs","searchUrl":"http:\/\/twitter.com\/search?q=%23DolanTwinsNewVideo","trendMapped":"dolan+twins+new+video","trendVolume":135289},{"stateName":"CO","trendName":"#FelizMiercoles","placeID":"2383489","placeName":"Colorado Springs","searchUrl":"http:\/\/twitter.com\/search?q=%23FelizMiercoles","trendMapped":"feliz+miercoles","trendVolume":50701},{"stateName":"CO","trendName":"#JuniorDoctorsStrike","placeID":"2383489","placeName":"Colorado Springs","searchUrl":"http:\/\/twitter.com\/search?q=%23JuniorDoctorsStrike","trendMapped":"junior+doctors+strike","trendVolume":32680},{"stateName":"CO","trendName":"#NationalChampionship","placeID":"2391279","placeName":"Denver","searchUrl":"http:\/\/twitter.com\/search?q=%23NationalChampionship","trendMapped":"national+championship","trendVolume":179380},{"stateName":"CO","trendName":"#PanamaPapers","placeID":"2391279","placeName":"Denver","searchUrl":"http:\/\/twitter.com\/search?q=%23PanamaPapers","trendMapped":"panama+papers","trendVolume":585292},{"stateName":"CO","trendName":"#WednesdayWisdom","placeID":"2383489","placeName":"Colorado Springs","searchUrl":"http:\/\/twitter.com\/search?q=%23WednesdayWisdom","trendMapped":"wednesday+wisdom","trendVolume":44668},{"stateName":"CO","trendName":"#WisconsinPrimary","placeID":"2391279","placeName":"Denver","searchUrl":"http:\/\/twitter.com\/search?q=%23WisconsinPrimary","trendMapped":"wisconsin+primary","trendVolume":186978},{"stateName":"CO","trendName":"Irene","placeID":"2383489","placeName":"Colorado Springs","searchUrl":"http:\/\/twitter.com\/search?q=Irene","trendMapped":"irene","trendVolume":40629},{"stateName":"CO","trendName":"Merle Haggard","placeID":"2383489","placeName":"Colorado Springs","searchUrl":"http:\/\/twitter.com\/search?q=%22Merle+Haggard%22","trendMapped":"Merle+Haggard","trendVolume":75528},{"stateName":"CO","trendName":"Wolfsburg","placeID":"2391279","placeName":"Denver","searchUrl":"http:\/\/twitter.com\/search?q=Wolfsburg","trendMapped":"wolfsburg","trendVolume":248695},{"stateName":"CT","trendName":"#BlackGirlsRock","placeID":"2458410","placeName":"New Haven","searchUrl":"http:\/\/twitter.com\/search?q=%23BlackGirlsRock","trendMapped":"black+girls+rock","trendVolume":194065},{"stateName":"CT","trendName":"#NationalChampionship","placeID":"2458410","placeName":"New Haven","searchUrl":"http:\/\/twitter.com\/search?q=%23NationalChampionship","trendMapped":"national+championship","trendVolume":568308},{"stateName":"CT","trendName":"#PSGMCI","placeID":"2458410","placeName":"New Haven","searchUrl":"http:\/\/twitter.com\/search?q=%23PSGMCI","trendMapped":"psgmci","trendVolume":165645},{"stateName":"CT","trendName":"#WIPrimary","placeID":"2458410","placeName":"New Haven","searchUrl":"http:\/\/twitter.com\/search?q=%23WIPrimary","trendMapped":"wi+primary","trendVolume":249723},{"stateName":"CT","trendName":"#WisconsinPrimary","placeID":"2458410","placeName":"New Haven","searchUrl":"http:\/\/twitter.com\/search?q=%23WisconsinPrimary","trendMapped":"wisconsin+primary","trendVolume":185484},{"stateName":"CT","trendName":"Real Madrid","placeID":"2458410","placeName":"New Haven","searchUrl":"http:\/\/twitter.com\/search?q=%22Real+Madrid%22","trendMapped":"Real+Madrid","trendVolume":183276},{"stateName":"CT","trendName":"Torres","placeID":"2458410","placeName":"New Haven","searchUrl":"http:\/\/twitter.com\/search?q=Torres","trendMapped":"torres","trendVolume":399382},{"stateName":"DC","trendName":"#FelizMiercoles","placeID":"2514815","placeName":"Washington","searchUrl":"http:\/\/twitter.com\/search?q=%23FelizMiercoles","trendMapped":"feliz+miercoles","trendVolume":55086},{"stateName":"DC","trendName":"#JuniorDoctorsStrike","placeID":"2514815","placeName":"Washington","searchUrl":"http:\/\/twitter.com\/search?q=%23JuniorDoctorsStrike","trendMapped":"junior+doctors+strike","trendVolume":32680},{"stateName":"DC","trendName":"#PanamaPapers","placeID":"2514815","placeName":"Washington","searchUrl":"http:\/\/twitter.com\/search?q=%23PanamaPapers","trendMapped":"panama+papers","trendVolume":585292},{"stateName":"DC","trendName":"#WisconsinPrimary","placeID":"2514815","placeName":"Washington","searchUrl":"http:\/\/twitter.com\/search?q=%23WisconsinPrimary","trendMapped":"wisconsin+primary","trendVolume":185484},{"stateName":"DC","trendName":"Merle Haggard","placeID":"2514815","placeName":"Washington","searchUrl":"http:\/\/twitter.com\/search?q=%22Merle+Haggard%22","trendMapped":"Merle+Haggard","trendVolume":55993},{"stateName":"DC","trendName":"Torres","placeID":"2514815","placeName":"Washington","searchUrl":"http:\/\/twitter.com\/search?q=Torres","trendMapped":"torres","trendVolume":404146},{"stateName":"DC","trendName":"Wolfsburg","placeID":"2514815","placeName":"Washington","searchUrl":"http:\/\/twitter.com\/search?q=Wolfsburg","trendMapped":"wolfsburg","trendVolume":252174},{"stateName":"FL","trendName":"#BlackGirlsRock","placeID":"2503863","placeName":"Tampa","searchUrl":"http:\/\/twitter.com\/search?q=%23BlackGirlsRock","trendMapped":"black+girls+rock","trendVolume":202889},{"stateName":"FL","trendName":"#NationalChampionship","placeID":"2503713","placeName":"Tallahassee","searchUrl":"http:\/\/twitter.com\/search?q=%23NationalChampionship","trendMapped":"national+championship","trendVolume":616739},{"stateName":"FL","trendName":"#PSGMCI","placeID":"2450022","placeName":"Miami","searchUrl":"http:\/\/twitter.com\/search?q=%23PSGMCI","trendMapped":"psgmci","trendVolume":167827},{"stateName":"FL","trendName":"#PanamaPapers","placeID":"2503863","placeName":"Tampa","searchUrl":"http:\/\/twitter.com\/search?q=%23PanamaPapers","trendMapped":"panama+papers","trendVolume":691307},{"stateName":"FL","trendName":"#WisconsinPrimary","placeID":"2503863","placeName":"Tampa","searchUrl":"http:\/\/twitter.com\/search?q=%23WisconsinPrimary","trendMapped":"wisconsin+primary","trendVolume":186528},{"stateName":"FL","trendName":"#panamapapers","placeID":"2503863","placeName":"Tampa","searchUrl":"http:\/\/twitter.com\/search?q=%23panamapapers","trendMapped":"panamapapers","trendVolume":590273},{"stateName":"FL","trendName":"Bernie Sanders","placeID":"2428344","placeName":"Jacksonville","searchUrl":"http:\/\/twitter.com\/search?q=%22Bernie+Sanders%22","trendMapped":"Bernie+Sanders","trendVolume":227623},{"stateName":"FL","trendName":"Drake","placeID":"2503713","placeName":"Tallahassee","searchUrl":"http:\/\/twitter.com\/search?q=Drake","trendMapped":"drake","trendVolume":525512},{"stateName":"FL","trendName":"Torres","placeID":"2450022","placeName":"Miami","searchUrl":"http:\/\/twitter.com\/search?q=Torres","trendMapped":"torres","trendVolume":401303},{"stateName":"FL","trendName":"Villanova","placeID":"2428344","placeName":"Jacksonville","searchUrl":"http:\/\/twitter.com\/search?q=Villanova","trendMapped":"villanova","trendVolume":577936},{"stateName":"FL","trendName":"Wolfsburg","placeID":"2503863","placeName":"Tampa","searchUrl":"http:\/\/twitter.com\/search?q=Wolfsburg","trendMapped":"wolfsburg","trendVolume":252941},{"stateName":"GA","trendName":"#BlackGirlsRock","placeID":"2357024","placeName":"Atlanta","searchUrl":"http:\/\/twitter.com\/search?q=%23BlackGirlsRock","trendMapped":"black+girls+rock","trendVolume":172616},{"stateName":"GA","trendName":"#WisconsinPrimary","placeID":"2357024","placeName":"Atlanta","searchUrl":"http:\/\/twitter.com\/search?q=%23WisconsinPrimary","trendMapped":"wisconsin+primary","trendVolume":184702},{"stateName":"GA","trendName":"Merle Haggard","placeID":"2357024","placeName":"Atlanta","searchUrl":"http:\/\/twitter.com\/search?q=%22Merle+Haggard%22","trendMapped":"Merle+Haggard","trendVolume":85084},{"stateName":"GA","trendName":"Panam\u00e1","placeID":"2357024","placeName":"Atlanta","searchUrl":"http:\/\/twitter.com\/search?q=Panam%C3%A1","trendMapped":"panam\u00e1","trendVolume":1062546},{"stateName":"GA","trendName":"Real Madrid","placeID":"2357024","placeName":"Atlanta","searchUrl":"http:\/\/twitter.com\/search?q=%22Real+Madrid%22","trendMapped":"Real+Madrid","trendVolume":284643},{"stateName":"HI","trendName":"#NationalChampionship","placeID":"2423945","placeName":"Honolulu","searchUrl":"http:\/\/twitter.com\/search?q=%23NationalChampionship","trendMapped":"national+championship","trendVolume":179380},{"stateName":"HI","trendName":"#PanamaPapers","placeID":"2423945","placeName":"Honolulu","searchUrl":"http:\/\/twitter.com\/search?q=%23PanamaPapers","trendMapped":"panama+papers","trendVolume":547048},{"stateName":"HI","trendName":"#WisconsinPrimary","placeID":"2423945","placeName":"Honolulu","searchUrl":"http:\/\/twitter.com\/search?q=%23WisconsinPrimary","trendMapped":"wisconsin+primary","trendVolume":179728},{"stateName":"HI","trendName":"#panamapapers","placeID":"2423945","placeName":"Honolulu","searchUrl":"http:\/\/twitter.com\/search?q=%23panamapapers","trendMapped":"panamapapers","trendVolume":563707},{"stateName":"HI","trendName":"Trump","placeID":"2423945","placeName":"Honolulu","searchUrl":"http:\/\/twitter.com\/search?q=Trump","trendMapped":"trump","trendVolume":974297},{"stateName":"IL","trendName":"#BlackGirlsRock","placeID":"2379574","placeName":"Chicago","searchUrl":"http:\/\/twitter.com\/search?q=%23BlackGirlsRock","trendMapped":"black+girls+rock","trendVolume":191421},{"stateName":"IL","trendName":"#DolanTwinsNewVideo","placeID":"2379574","placeName":"Chicago","searchUrl":"http:\/\/twitter.com\/search?q=%23DolanTwinsNewVideo","trendMapped":"dolan+twins+new+video","trendVolume":135374},{"stateName":"IL","trendName":"#WisconsinPrimary","placeID":"2379574","placeName":"Chicago","searchUrl":"http:\/\/twitter.com\/search?q=%23WisconsinPrimary","trendMapped":"wisconsin+primary","trendVolume":184834},{"stateName":"IL","trendName":"Real Madrid","placeID":"2379574","placeName":"Chicago","searchUrl":"http:\/\/twitter.com\/search?q=%22Real+Madrid%22","trendMapped":"Real+Madrid","trendVolume":262885},{"stateName":"IN","trendName":"#BlackGirlsRock","placeID":"2427032","placeName":"Indianapolis","searchUrl":"http:\/\/twitter.com\/search?q=%23BlackGirlsRock","trendMapped":"black+girls+rock","trendVolume":200249},{"stateName":"IN","trendName":"#WisconsinPrimary","placeID":"2427032","placeName":"Indianapolis","searchUrl":"http:\/\/twitter.com\/search?q=%23WisconsinPrimary","trendMapped":"wisconsin+primary","trendVolume":187548},{"stateName":"IN","trendName":"Drake","placeID":"2427032","placeName":"Indianapolis","searchUrl":"http:\/\/twitter.com\/search?q=Drake","trendMapped":"drake","trendVolume":518311},{"stateName":"KY","trendName":"#WIPrimary","placeID":"2442327","placeName":"Louisville","searchUrl":"http:\/\/twitter.com\/search?q=%23WIPrimary","trendMapped":"wi+primary","trendVolume":247530},{"stateName":"KY","trendName":"Hillary","placeID":"2442327","placeName":"Louisville","searchUrl":"http:\/\/twitter.com\/search?q=Hillary","trendMapped":"hillary","trendVolume":293079},{"stateName":"KY","trendName":"Panama Papers","placeID":"2442327","placeName":"Louisville","searchUrl":"http:\/\/twitter.com\/search?q=%22Panama+Papers%22","trendMapped":"Panama+Papers","trendVolume":519055},{"stateName":"KY","trendName":"Villanova","placeID":"2442327","placeName":"Louisville","searchUrl":"http:\/\/twitter.com\/search?q=Villanova","trendMapped":"villanova","trendVolume":523027},{"stateName":"KY","trendName":"Wolfsburg","placeID":"2442327","placeName":"Louisville","searchUrl":"http:\/\/twitter.com\/search?q=Wolfsburg","trendMapped":"wolfsburg","trendVolume":223332},{"stateName":"LA","trendName":"#BlackGirlsRock","placeID":"2359991","placeName":"Baton Rouge","searchUrl":"http:\/\/twitter.com\/search?q=%23BlackGirlsRock","trendMapped":"black+girls+rock","trendVolume":202457},{"stateName":"LA","trendName":"#PanamaPapers","placeID":"2458833","placeName":"New Orleans","searchUrl":"http:\/\/twitter.com\/search?q=%23PanamaPapers","trendMapped":"panama+papers","trendVolume":708976},{"stateName":"LA","trendName":"Drake","placeID":"2458833","placeName":"New Orleans","searchUrl":"http:\/\/twitter.com\/search?q=Drake","trendMapped":"drake","trendVolume":523455},{"stateName":"LA","trendName":"Villanova","placeID":"2458833","placeName":"New Orleans","searchUrl":"http:\/\/twitter.com\/search?q=Villanova","trendMapped":"villanova","trendVolume":576892},{"stateName":"LA","trendName":"Wolfsburg","placeID":"2359991","placeName":"Baton Rouge","searchUrl":"http:\/\/twitter.com\/search?q=Wolfsburg","trendMapped":"wolfsburg","trendVolume":203625},{"stateName":"MA","trendName":"#PanamaPapers","placeID":"2367105","placeName":"Boston","searchUrl":"http:\/\/twitter.com\/search?q=%23PanamaPapers","trendMapped":"panama+papers","trendVolume":568192},{"stateName":"MA","trendName":"#WisconsinPrimary","placeID":"2367105","placeName":"Boston","searchUrl":"http:\/\/twitter.com\/search?q=%23WisconsinPrimary","trendMapped":"wisconsin+primary","trendVolume":186900},{"stateName":"MA","trendName":"Glass","placeID":"2367105","placeName":"Boston","searchUrl":"http:\/\/twitter.com\/search?q=Glass","trendMapped":"glass","trendVolume":82228},{"stateName":"MA","trendName":"Merle Haggard","placeID":"2367105","placeName":"Boston","searchUrl":"http:\/\/twitter.com\/search?q=%22Merle+Haggard%22","trendMapped":"Merle+Haggard","trendVolume":78943},{"stateName":"MA","trendName":"Torres","placeID":"2367105","placeName":"Boston","searchUrl":"http:\/\/twitter.com\/search?q=Torres","trendMapped":"torres","trendVolume":399382},{"stateName":"MA","trendName":"Wolfsburg","placeID":"2367105","placeName":"Boston","searchUrl":"http:\/\/twitter.com\/search?q=Wolfsburg","trendMapped":"wolfsburg","trendVolume":239095},{"stateName":"MD","trendName":"#NationalChampionship","placeID":"2358820","placeName":"Baltimore","searchUrl":"http:\/\/twitter.com\/search?q=%23NationalChampionship","trendMapped":"national+championship","trendVolume":616739},{"stateName":"MD","trendName":"Drake","placeID":"2358820","placeName":"Baltimore","searchUrl":"http:\/\/twitter.com\/search?q=Drake","trendMapped":"drake","trendVolume":525512},{"stateName":"MD","trendName":"Wolfsburg","placeID":"2358820","placeName":"Baltimore","searchUrl":"http:\/\/twitter.com\/search?q=Wolfsburg","trendMapped":"wolfsburg","trendVolume":231674},{"stateName":"MI","trendName":"#BlackGirlsRock","placeID":"2391585","placeName":"Detroit","searchUrl":"http:\/\/twitter.com\/search?q=%23BlackGirlsRock","trendMapped":"black+girls+rock","trendVolume":194065},{"stateName":"MI","trendName":"#WisconsinPrimary","placeID":"2391585","placeName":"Detroit","searchUrl":"http:\/\/twitter.com\/search?q=%23WisconsinPrimary","trendMapped":"wisconsin+primary","trendVolume":184702},{"stateName":"MI","trendName":"Wolfsburg","placeID":"2391585","placeName":"Detroit","searchUrl":"http:\/\/twitter.com\/search?q=Wolfsburg","trendMapped":"wolfsburg","trendVolume":223332},{"stateName":"MN","trendName":"#BlackGirlsRock","placeID":"2452078","placeName":"Minneapolis","searchUrl":"http:\/\/twitter.com\/search?q=%23BlackGirlsRock","trendMapped":"black+girls+rock","trendVolume":188764},{"stateName":"MN","trendName":"#NationalChampionship","placeID":"2452078","placeName":"Minneapolis","searchUrl":"http:\/\/twitter.com\/search?q=%23NationalChampionship","trendMapped":"national+championship","trendVolume":568308},{"stateName":"MN","trendName":"#WisconsinPrimary","placeID":"2452078","placeName":"Minneapolis","searchUrl":"http:\/\/twitter.com\/search?q=%23WisconsinPrimary","trendMapped":"wisconsin+primary","trendVolume":187548},{"stateName":"MN","trendName":"Warriors","placeID":"2452078","placeName":"Minneapolis","searchUrl":"http:\/\/twitter.com\/search?q=Warriors","trendMapped":"warriors","trendVolume":167284},{"stateName":"MN","trendName":"Wolfsburg","placeID":"2452078","placeName":"Minneapolis","searchUrl":"http:\/\/twitter.com\/search?q=Wolfsburg","trendMapped":"wolfsburg","trendVolume":248695},{"stateName":"MO","trendName":"#BlackGirlsRock","placeID":"2486982","placeName":"St. Louis","searchUrl":"http:\/\/twitter.com\/search?q=%23BlackGirlsRock","trendMapped":"black+girls+rock","trendVolume":201603},{"stateName":"MO","trendName":"#NationalChampionship","placeID":"2486982","placeName":"St. Louis","searchUrl":"http:\/\/twitter.com\/search?q=%23NationalChampionship","trendMapped":"national+championship","trendVolume":568924},{"stateName":"MO","trendName":"#PanamaPapers","placeID":"2486982","placeName":"St. Louis","searchUrl":"http:\/\/twitter.com\/search?q=%23PanamaPapers","trendMapped":"panama+papers","trendVolume":704208},{"stateName":"MO","trendName":"#WIPrimary","placeID":"2486982","placeName":"St. Louis","searchUrl":"http:\/\/twitter.com\/search?q=%23WIPrimary","trendMapped":"wi+primary","trendVolume":244490},{"stateName":"MO","trendName":"#panamapapers","placeID":"2486982","placeName":"St. Louis","searchUrl":"http:\/\/twitter.com\/search?q=%23panamapapers","trendMapped":"panamapapers","trendVolume":590273},{"stateName":"MO","trendName":"Drake","placeID":"2430683","placeName":"Kansas City","searchUrl":"http:\/\/twitter.com\/search?q=Drake","trendMapped":"drake","trendVolume":522828},{"stateName":"MO","trendName":"Wolfsburg","placeID":"2486982","placeName":"St. Louis","searchUrl":"http:\/\/twitter.com\/search?q=Wolfsburg","trendMapped":"wolfsburg","trendVolume":252941},{"stateName":"MS","trendName":"#BlackGirlsRock","placeID":"2428184","placeName":"Jackson","searchUrl":"http:\/\/twitter.com\/search?q=%23BlackGirlsRock","trendMapped":"black+girls+rock","trendVolume":173520},{"stateName":"MS","trendName":"#WisconsinPrimary","placeID":"2428184","placeName":"Jackson","searchUrl":"http:\/\/twitter.com\/search?q=%23WisconsinPrimary","trendMapped":"wisconsin+primary","trendVolume":174233},{"stateName":"MS","trendName":"Drake","placeID":"2428184","placeName":"Jackson","searchUrl":"http:\/\/twitter.com\/search?q=Drake","trendMapped":"drake","trendVolume":513153},{"stateName":"NC","trendName":"#BlackGirlsRock","placeID":"2478307","placeName":"Raleigh","searchUrl":"http:\/\/twitter.com\/search?q=%23BlackGirlsRock","trendMapped":"black+girls+rock","trendVolume":202597},{"stateName":"NC","trendName":"#NationalChampionship","placeID":"2378426","placeName":"Charlotte","searchUrl":"http:\/\/twitter.com\/search?q=%23NationalChampionship","trendMapped":"national+championship","trendVolume":498995},{"stateName":"NC","trendName":"#WisconsinPrimary","placeID":"2378426","placeName":"Charlotte","searchUrl":"http:\/\/twitter.com\/search?q=%23WisconsinPrimary","trendMapped":"wisconsin+primary","trendVolume":186528},{"stateName":"NC","trendName":"#nationalchampionship","placeID":"2378426","placeName":"Charlotte","searchUrl":"http:\/\/twitter.com\/search?q=%23nationalchampionship","trendMapped":"nationalchampionship","trendVolume":616445},{"stateName":"NC","trendName":"Blac Chyna","placeID":"2478307","placeName":"Raleigh","searchUrl":"http:\/\/twitter.com\/search?q=%22Blac+Chyna%22","trendMapped":"Blac+Chyna","trendVolume":309094},{"stateName":"NC","trendName":"Drake","placeID":"2414469","placeName":"Greensboro","searchUrl":"http:\/\/twitter.com\/search?q=Drake","trendMapped":"drake","trendVolume":515069},{"stateName":"NC","trendName":"Hillary","placeID":"2414469","placeName":"Greensboro","searchUrl":"http:\/\/twitter.com\/search?q=Hillary","trendMapped":"hillary","trendVolume":291306},{"stateName":"NC","trendName":"Sanders","placeID":"2478307","placeName":"Raleigh","searchUrl":"http:\/\/twitter.com\/search?q=Sanders","trendMapped":"sanders","trendVolume":339855},{"stateName":"NC","trendName":"Villanova","placeID":"2478307","placeName":"Raleigh","searchUrl":"http:\/\/twitter.com\/search?q=Villanova","trendMapped":"villanova","trendVolume":577936},{"stateName":"NC","trendName":"Wolfsburg","placeID":"2478307","placeName":"Raleigh","searchUrl":"http:\/\/twitter.com\/search?q=Wolfsburg","trendMapped":"wolfsburg","trendVolume":248049},{"stateName":"NE","trendName":"#PanamaPapers","placeID":"2465512","placeName":"Omaha","searchUrl":"http:\/\/twitter.com\/search?q=%23PanamaPapers","trendMapped":"panama+papers","trendVolume":727561},{"stateName":"NE","trendName":"#WIPrimary","placeID":"2465512","placeName":"Omaha","searchUrl":"http:\/\/twitter.com\/search?q=%23WIPrimary","trendMapped":"wi+primary","trendVolume":222049},{"stateName":"NE","trendName":"#panamapapers","placeID":"2465512","placeName":"Omaha","searchUrl":"http:\/\/twitter.com\/search?q=%23panamapapers","trendMapped":"panamapapers","trendVolume":649614},{"stateName":"NE","trendName":"Bernie Sanders","placeID":"2465512","placeName":"Omaha","searchUrl":"http:\/\/twitter.com\/search?q=%22Bernie+Sanders%22","trendMapped":"Bernie+Sanders","trendVolume":225031},{"stateName":"NE","trendName":"Ted Cruz","placeID":"2465512","placeName":"Omaha","searchUrl":"http:\/\/twitter.com\/search?q=%22Ted+Cruz%22","trendMapped":"Ted+Cruz","trendVolume":166934},{"stateName":"NE","trendName":"Villanova","placeID":"2465512","placeName":"Omaha","searchUrl":"http:\/\/twitter.com\/search?q=Villanova","trendMapped":"villanova","trendVolume":549597},{"stateName":"NE","trendName":"Wolfsburg","placeID":"2465512","placeName":"Omaha","searchUrl":"http:\/\/twitter.com\/search?q=Wolfsburg","trendMapped":"wolfsburg","trendVolume":245922},{"stateName":"NM","trendName":"#FelizMiercoles","placeID":"2352824","placeName":"Albuquerque","searchUrl":"http:\/\/twitter.com\/search?q=%23FelizMiercoles","trendMapped":"feliz+miercoles","trendVolume":44917},{"stateName":"NM","trendName":"#JuniorDoctorsStrike","placeID":"2352824","placeName":"Albuquerque","searchUrl":"http:\/\/twitter.com\/search?q=%23JuniorDoctorsStrike","trendMapped":"junior+doctors+strike","trendVolume":30157},{"stateName":"NM","trendName":"#OliviaLamasanXKathNiel","placeID":"2352824","placeName":"Albuquerque","searchUrl":"http:\/\/twitter.com\/search?q=%23OliviaLamasanXKathNiel","trendMapped":"olivia+lamasan+x+kath+niel","trendVolume":78061},{"stateName":"NM","trendName":"#WednesdayWisdom","placeID":"2352824","placeName":"Albuquerque","searchUrl":"http:\/\/twitter.com\/search?q=%23WednesdayWisdom","trendMapped":"wednesday+wisdom","trendVolume":46060},{"stateName":"NM","trendName":"#WisconsinPrimary","placeID":"2352824","placeName":"Albuquerque","searchUrl":"http:\/\/twitter.com\/search?q=%23WisconsinPrimary","trendMapped":"wisconsin+primary","trendVolume":184702},{"stateName":"NM","trendName":"Irene","placeID":"2352824","placeName":"Albuquerque","searchUrl":"http:\/\/twitter.com\/search?q=Irene","trendMapped":"irene","trendVolume":42312},{"stateName":"NM","trendName":"Torres","placeID":"2352824","placeName":"Albuquerque","searchUrl":"http:\/\/twitter.com\/search?q=Torres","trendMapped":"torres","trendVolume":404840},{"stateName":"NM","trendName":"Wolfsburg","placeID":"2352824","placeName":"Albuquerque","searchUrl":"http:\/\/twitter.com\/search?q=Wolfsburg","trendMapped":"wolfsburg","trendVolume":149993},{"stateName":"NV","trendName":"#BlackGirlsRock","placeID":"2436704","placeName":"Las Vegas","searchUrl":"http:\/\/twitter.com\/search?q=%23BlackGirlsRock","trendMapped":"black+girls+rock","trendVolume":199957},{"stateName":"NV","trendName":"#NationalChampionship","placeID":"2436704","placeName":"Las Vegas","searchUrl":"http:\/\/twitter.com\/search?q=%23NationalChampionship","trendMapped":"national+championship","trendVolume":566617},{"stateName":"NV","trendName":"#SLFLSheffield","placeID":"2436704","placeName":"Las Vegas","searchUrl":"http:\/\/twitter.com\/search?q=%23SLFLSheffield","trendMapped":"slfl+sheffield","trendVolume":195253},{"stateName":"NV","trendName":"Wolfsburg","placeID":"2436704","placeName":"Las Vegas","searchUrl":"http:\/\/twitter.com\/search?q=Wolfsburg","trendMapped":"wolfsburg","trendVolume":242522},{"stateName":"NY","trendName":"#FelizMiercoles","placeID":"2459115","placeName":"New York","searchUrl":"http:\/\/twitter.com\/search?q=%23FelizMiercoles","trendMapped":"feliz+miercoles","trendVolume":53491},{"stateName":"NY","trendName":"#WednesdayWisdom","placeID":"2459115","placeName":"New York","searchUrl":"http:\/\/twitter.com\/search?q=%23WednesdayWisdom","trendMapped":"wednesday+wisdom","trendVolume":41646},{"stateName":"NY","trendName":"#WisconsinPrimary","placeID":"2459115","placeName":"New York","searchUrl":"http:\/\/twitter.com\/search?q=%23WisconsinPrimary","trendMapped":"wisconsin+primary","trendVolume":186359},{"stateName":"NY","trendName":"Irene","placeID":"2459115","placeName":"New York","searchUrl":"http:\/\/twitter.com\/search?q=Irene","trendMapped":"irene","trendVolume":44074},{"stateName":"NY","trendName":"Torres","placeID":"2459115","placeName":"New York","searchUrl":"http:\/\/twitter.com\/search?q=Torres","trendMapped":"torres","trendVolume":401303},{"stateName":"NY","trendName":"Wolfsburg","placeID":"2459115","placeName":"New York","searchUrl":"http:\/\/twitter.com\/search?q=Wolfsburg","trendMapped":"wolfsburg","trendVolume":245922},{"stateName":"OH","trendName":"#BlackGirlsRock","placeID":"2383660","placeName":"Columbus","searchUrl":"http:\/\/twitter.com\/search?q=%23BlackGirlsRock","trendMapped":"black+girls+rock","trendVolume":201877},{"stateName":"OH","trendName":"#NationalChampionship","placeID":"2383660","placeName":"Columbus","searchUrl":"http:\/\/twitter.com\/search?q=%23NationalChampionship","trendMapped":"national+championship","trendVolume":616739},{"stateName":"OH","trendName":"#WIPrimary","placeID":"2383660","placeName":"Columbus","searchUrl":"http:\/\/twitter.com\/search?q=%23WIPrimary","trendMapped":"wi+primary","trendVolume":221319},{"stateName":"OH","trendName":"#WisconsinPrimary","placeID":"2383660","placeName":"Columbus","searchUrl":"http:\/\/twitter.com\/search?q=%23WisconsinPrimary","trendMapped":"wisconsin+primary","trendVolume":186978},{"stateName":"OH","trendName":"Bernie","placeID":"2380358","placeName":"Cincinnati","searchUrl":"http:\/\/twitter.com\/search?q=Bernie","trendMapped":"bernie","trendVolume":428736},{"stateName":"OH","trendName":"Blac Chyna","placeID":"2381475","placeName":"Cleveland","searchUrl":"http:\/\/twitter.com\/search?q=%22Blac+Chyna%22","trendMapped":"Blac+Chyna","trendVolume":336499},{"stateName":"OH","trendName":"Cruz","placeID":"2380358","placeName":"Cincinnati","searchUrl":"http:\/\/twitter.com\/search?q=Cruz","trendMapped":"cruz","trendVolume":557826},{"stateName":"OH","trendName":"Merle Haggard","placeID":"2381475","placeName":"Cleveland","searchUrl":"http:\/\/twitter.com\/search?q=%22Merle+Haggard%22","trendMapped":"Merle+Haggard","trendVolume":78943},{"stateName":"OH","trendName":"Villanova","placeID":"2383660","placeName":"Columbus","searchUrl":"http:\/\/twitter.com\/search?q=Villanova","trendMapped":"villanova","trendVolume":577936},{"stateName":"OH","trendName":"Wolfsburg","placeID":"2383660","placeName":"Columbus","searchUrl":"http:\/\/twitter.com\/search?q=Wolfsburg","trendMapped":"wolfsburg","trendVolume":245922},{"stateName":"OK","trendName":"#BlackGirlsRock","placeID":"2464592","placeName":"Oklahoma City","searchUrl":"http:\/\/twitter.com\/search?q=%23BlackGirlsRock","trendMapped":"black+girls+rock","trendVolume":198697},{"stateName":"OK","trendName":"#NationalChampionship","placeID":"2464592","placeName":"Oklahoma City","searchUrl":"http:\/\/twitter.com\/search?q=%23NationalChampionship","trendMapped":"national+championship","trendVolume":500951},{"stateName":"OK","trendName":"#WisconsinPrimary","placeID":"2464592","placeName":"Oklahoma City","searchUrl":"http:\/\/twitter.com\/search?q=%23WisconsinPrimary","trendMapped":"wisconsin+primary","trendVolume":186350},{"stateName":"OK","trendName":"House","placeID":"2464592","placeName":"Oklahoma City","searchUrl":"http:\/\/twitter.com\/search?q=House","trendMapped":"house","trendVolume":465539},{"stateName":"OK","trendName":"Jordan","placeID":"2464592","placeName":"Oklahoma City","searchUrl":"http:\/\/twitter.com\/search?q=Jordan","trendMapped":"jordan","trendVolume":176596},{"stateName":"OK","trendName":"Warriors","placeID":"2464592","placeName":"Oklahoma City","searchUrl":"http:\/\/twitter.com\/search?q=Warriors","trendMapped":"warriors","trendVolume":169965},{"stateName":"OR","trendName":"#NationalChampionship","placeID":"2475687","placeName":"Portland","searchUrl":"http:\/\/twitter.com\/search?q=%23NationalChampionship","trendMapped":"national+championship","trendVolume":500951},{"stateName":"OR","trendName":"#PanamaPapers","placeID":"2475687","placeName":"Portland","searchUrl":"http:\/\/twitter.com\/search?q=%23PanamaPapers","trendMapped":"panama+papers","trendVolume":545185},{"stateName":"OR","trendName":"#WIPrimary","placeID":"2475687","placeName":"Portland","searchUrl":"http:\/\/twitter.com\/search?q=%23WIPrimary","trendMapped":"wi+primary","trendVolume":247665},{"stateName":"OR","trendName":"#WisconsinPrimary","placeID":"2475687","placeName":"Portland","searchUrl":"http:\/\/twitter.com\/search?q=%23WisconsinPrimary","trendMapped":"wisconsin+primary","trendVolume":180443},{"stateName":"PA","trendName":"#BlackGirlsRock","placeID":"2473224","placeName":"Pittsburgh","searchUrl":"http:\/\/twitter.com\/search?q=%23BlackGirlsRock","trendMapped":"black+girls+rock","trendVolume":202016},{"stateName":"PA","trendName":"#DolanTwinsNewVideo","placeID":"2471217","placeName":"Philadelphia","searchUrl":"http:\/\/twitter.com\/search?q=%23DolanTwinsNewVideo","trendMapped":"dolan+twins+new+video","trendVolume":135289},{"stateName":"PA","trendName":"#ElderlyMovies","placeID":"2471217","placeName":"Philadelphia","searchUrl":"http:\/\/twitter.com\/search?q=%23ElderlyMovies","trendMapped":"elderly+movies","trendVolume":38867},{"stateName":"PA","trendName":"#FelizMiercoles","placeID":"2471217","placeName":"Philadelphia","searchUrl":"http:\/\/twitter.com\/search?q=%23FelizMiercoles","trendMapped":"feliz+miercoles","trendVolume":54736},{"stateName":"PA","trendName":"#NationalChampionship","placeID":"2473224","placeName":"Pittsburgh","searchUrl":"http:\/\/twitter.com\/search?q=%23NationalChampionship","trendMapped":"national+championship","trendVolume":616739},{"stateName":"PA","trendName":"#PanamaPapers","placeID":"2418046","placeName":"Harrisburg","searchUrl":"http:\/\/twitter.com\/search?q=%23PanamaPapers","trendMapped":"panama+papers","trendVolume":701520},{"stateName":"PA","trendName":"#WednesdayWisdom","placeID":"2471217","placeName":"Philadelphia","searchUrl":"http:\/\/twitter.com\/search?q=%23WednesdayWisdom","trendMapped":"wednesday+wisdom","trendVolume":46060},{"stateName":"PA","trendName":"#WisconsinPrimary","placeID":"2473224","placeName":"Pittsburgh","searchUrl":"http:\/\/twitter.com\/search?q=%23WisconsinPrimary","trendMapped":"wisconsin+primary","trendVolume":186900},{"stateName":"PA","trendName":"Bernie Sanders","placeID":"2418046","placeName":"Harrisburg","searchUrl":"http:\/\/twitter.com\/search?q=%22Bernie+Sanders%22","trendMapped":"Bernie+Sanders","trendVolume":221176},{"stateName":"PA","trendName":"Hillary","placeID":"2418046","placeName":"Harrisburg","searchUrl":"http:\/\/twitter.com\/search?q=Hillary","trendMapped":"hillary","trendVolume":286914},{"stateName":"PA","trendName":"Irene","placeID":"2471217","placeName":"Philadelphia","searchUrl":"http:\/\/twitter.com\/search?q=Irene","trendMapped":"irene","trendVolume":46266},{"stateName":"PA","trendName":"Sanders","placeID":"2418046","placeName":"Harrisburg","searchUrl":"http:\/\/twitter.com\/search?q=Sanders","trendMapped":"sanders","trendVolume":374226},{"stateName":"PA","trendName":"Torres","placeID":"2471217","placeName":"Philadelphia","searchUrl":"http:\/\/twitter.com\/search?q=Torres","trendMapped":"torres","trendVolume":403155},{"stateName":"PA","trendName":"Villanova","placeID":"2473224","placeName":"Pittsburgh","searchUrl":"http:\/\/twitter.com\/search?q=Villanova","trendMapped":"villanova","trendVolume":187751},{"stateName":"PA","trendName":"Wolfsburg","placeID":"2473224","placeName":"Pittsburgh","searchUrl":"http:\/\/twitter.com\/search?q=Wolfsburg","trendMapped":"wolfsburg","trendVolume":242522},{"stateName":"RI","trendName":"#NationalChampionship","placeID":"2477058","placeName":"Providence","searchUrl":"http:\/\/twitter.com\/search?q=%23NationalChampionship","trendMapped":"national+championship","trendVolume":500400},{"stateName":"RI","trendName":"#PanamaPapers","placeID":"2477058","placeName":"Providence","searchUrl":"http:\/\/twitter.com\/search?q=%23PanamaPapers","trendMapped":"panama+papers","trendVolume":446364},{"stateName":"RI","trendName":"Drake","placeID":"2477058","placeName":"Providence","searchUrl":"http:\/\/twitter.com\/search?q=Drake","trendMapped":"drake","trendVolume":487996},{"stateName":"TN","trendName":"#WisconsinPrimary","placeID":"2457170","placeName":"Nashville","searchUrl":"http:\/\/twitter.com\/search?q=%23WisconsinPrimary","trendMapped":"wisconsin+primary","trendVolume":176929},{"stateName":"TN","trendName":"Drake","placeID":"2457170","placeName":"Nashville","searchUrl":"http:\/\/twitter.com\/search?q=Drake","trendMapped":"drake","trendVolume":522474},{"stateName":"TN","trendName":"Villanova","placeID":"2457170","placeName":"Nashville","searchUrl":"http:\/\/twitter.com\/search?q=Villanova","trendMapped":"villanova","trendVolume":577936},{"stateName":"TN","trendName":"Wolfsburg","placeID":"2457170","placeName":"Nashville","searchUrl":"http:\/\/twitter.com\/search?q=Wolfsburg","trendMapped":"wolfsburg","trendVolume":250450},{"stateName":"TX","trendName":"#BlackGirlsRock","placeID":"2487796","placeName":"San Antonio","searchUrl":"http:\/\/twitter.com\/search?q=%23BlackGirlsRock","trendMapped":"black+girls+rock","trendVolume":202597},{"stateName":"TX","trendName":"#NationalChampionship","placeID":"2487796","placeName":"San Antonio","searchUrl":"http:\/\/twitter.com\/search?q=%23NationalChampionship","trendMapped":"national+championship","trendVolume":567273},{"stateName":"TX","trendName":"#PanamaPapers","placeID":"2424766","placeName":"Houston","searchUrl":"http:\/\/twitter.com\/search?q=%23PanamaPapers","trendMapped":"panama+papers","trendVolume":727561},{"stateName":"TX","trendName":"#WisconsinPrimary","placeID":"2487796","placeName":"San Antonio","searchUrl":"http:\/\/twitter.com\/search?q=%23WisconsinPrimary","trendMapped":"wisconsin+primary","trendVolume":187548},{"stateName":"TX","trendName":"#nationalchampionship","placeID":"2487796","placeName":"San Antonio","searchUrl":"http:\/\/twitter.com\/search?q=%23nationalchampionship","trendMapped":"nationalchampionship","trendVolume":616445},{"stateName":"TX","trendName":"#panamapapers","placeID":"2397816","placeName":"El Paso","searchUrl":"http:\/\/twitter.com\/search?q=%23panamapapers","trendMapped":"panamapapers","trendVolume":675573},{"stateName":"TX","trendName":"Blac Chyna","placeID":"2424766","placeName":"Houston","searchUrl":"http:\/\/twitter.com\/search?q=%22Blac+Chyna%22","trendMapped":"Blac+Chyna","trendVolume":325246},{"stateName":"TX","trendName":"Drake","placeID":"2357536","placeName":"Austin","searchUrl":"http:\/\/twitter.com\/search?q=Drake","trendMapped":"drake","trendVolume":495873},{"stateName":"TX","trendName":"Madrid","placeID":"2424766","placeName":"Houston","searchUrl":"http:\/\/twitter.com\/search?q=Madrid","trendMapped":"madrid","trendVolume":637744},{"stateName":"TX","trendName":"Panama Papers","placeID":"2397816","placeName":"El Paso","searchUrl":"http:\/\/twitter.com\/search?q=%22Panama+Papers%22","trendMapped":"Panama+Papers","trendVolume":538072},{"stateName":"TX","trendName":"Villanova","placeID":"2388929","placeName":"Dallas-Ft. Worth","searchUrl":"http:\/\/twitter.com\/search?q=Villanova","trendMapped":"villanova","trendVolume":576033},{"stateName":"TX","trendName":"Wolfsburg","placeID":"2487796","placeName":"San Antonio","searchUrl":"http:\/\/twitter.com\/search?q=Wolfsburg","trendMapped":"wolfsburg","trendVolume":241482},{"stateName":"UT","trendName":"#NationalChampionship","placeID":"2487610","placeName":"Salt Lake City","searchUrl":"http:\/\/twitter.com\/search?q=%23NationalChampionship","trendMapped":"national+championship","trendVolume":568308},{"stateName":"UT","trendName":"#WisconsinPrimary","placeID":"2487610","placeName":"Salt Lake City","searchUrl":"http:\/\/twitter.com\/search?q=%23WisconsinPrimary","trendMapped":"wisconsin+primary","trendVolume":186834},{"stateName":"UT","trendName":"Sanders","placeID":"2487610","placeName":"Salt Lake City","searchUrl":"http:\/\/twitter.com\/search?q=Sanders","trendMapped":"sanders","trendVolume":384017},{"stateName":"UT","trendName":"Wolfsburg","placeID":"2487610","placeName":"Salt Lake City","searchUrl":"http:\/\/twitter.com\/search?q=Wolfsburg","trendMapped":"wolfsburg","trendVolume":234902},{"stateName":"VA","trendName":"#FelizMiercoles","placeID":"2512636","placeName":"Virginia Beach","searchUrl":"http:\/\/twitter.com\/search?q=%23FelizMiercoles","trendMapped":"feliz+miercoles","trendVolume":33394},{"stateName":"VA","trendName":"#NationalChampionship","placeID":"2480894","placeName":"Richmond","searchUrl":"http:\/\/twitter.com\/search?q=%23NationalChampionship","trendMapped":"national+championship","trendVolume":566423},{"stateName":"VA","trendName":"#OliviaLamasanXKathNiel","placeID":"2512636","placeName":"Virginia Beach","searchUrl":"http:\/\/twitter.com\/search?q=%23OliviaLamasanXKathNiel","trendMapped":"olivia+lamasan+x+kath+niel","trendVolume":75011},{"stateName":"VA","trendName":"#WednesdayWisdom","placeID":"2512636","placeName":"Virginia Beach","searchUrl":"http:\/\/twitter.com\/search?q=%23WednesdayWisdom","trendMapped":"wednesday+wisdom","trendVolume":41646},{"stateName":"VA","trendName":"#WisconsinPrimary","placeID":"2512636","placeName":"Virginia Beach","searchUrl":"http:\/\/twitter.com\/search?q=%23WisconsinPrimary","trendMapped":"wisconsin+primary","trendVolume":182349},{"stateName":"VA","trendName":"Blac Chyna","placeID":"2460389","placeName":"Norfolk","searchUrl":"http:\/\/twitter.com\/search?q=%22Blac+Chyna%22","trendMapped":"Blac+Chyna","trendVolume":333216},{"stateName":"VA","trendName":"Drake","placeID":"2480894","placeName":"Richmond","searchUrl":"http:\/\/twitter.com\/search?q=Drake","trendMapped":"drake","trendVolume":522828},{"stateName":"VA","trendName":"Hillary","placeID":"2460389","placeName":"Norfolk","searchUrl":"http:\/\/twitter.com\/search?q=Hillary","trendMapped":"hillary","trendVolume":289280},{"stateName":"VA","trendName":"Torres","placeID":"2512636","placeName":"Virginia Beach","searchUrl":"http:\/\/twitter.com\/search?q=Torres","trendMapped":"torres","trendVolume":398865},{"stateName":"VA","trendName":"Villanova","placeID":"2460389","placeName":"Norfolk","searchUrl":"http:\/\/twitter.com\/search?q=Villanova","trendMapped":"villanova","trendVolume":273765},{"stateName":"VA","trendName":"Wolfsburg","placeID":"2512636","placeName":"Virginia Beach","searchUrl":"http:\/\/twitter.com\/search?q=Wolfsburg","trendMapped":"wolfsburg","trendVolume":252941},{"stateName":"WA","trendName":"#BlackGirlsRock","placeID":"2490383","placeName":"Seattle","searchUrl":"http:\/\/twitter.com\/search?q=%23BlackGirlsRock","trendMapped":"black+girls+rock","trendVolume":199957},{"stateName":"WA","trendName":"#NationalChampionship","placeID":"2490383","placeName":"Seattle","searchUrl":"http:\/\/twitter.com\/search?q=%23NationalChampionship","trendMapped":"national+championship","trendVolume":567273},{"stateName":"WA","trendName":"#PanamaPapers","placeID":"2490383","placeName":"Seattle","searchUrl":"http:\/\/twitter.com\/search?q=%23PanamaPapers","trendMapped":"panama+papers","trendVolume":585292},{"stateName":"WA","trendName":"#WisconsinPrimary","placeID":"2490383","placeName":"Seattle","searchUrl":"http:\/\/twitter.com\/search?q=%23WisconsinPrimary","trendMapped":"wisconsin+primary","trendVolume":185680},{"stateName":"WA","trendName":"Wolfsburg","placeID":"2490383","placeName":"Seattle","searchUrl":"http:\/\/twitter.com\/search?q=Wolfsburg","trendMapped":"wolfsburg","trendVolume":244240},{"stateName":"WI","trendName":"#BlackGirlsRock","placeID":"2451822","placeName":"Milwaukee","searchUrl":"http:\/\/twitter.com\/search?q=%23BlackGirlsRock","trendMapped":"black+girls+rock","trendVolume":159923},{"stateName":"WI","trendName":"#WisconsinPrimary","placeID":"2451822","placeName":"Milwaukee","searchUrl":"http:\/\/twitter.com\/search?q=%23WisconsinPrimary","trendMapped":"wisconsin+primary","trendVolume":186793},{"stateName":"WI","trendName":"Wolfsburg","placeID":"2451822","placeName":"Milwaukee","searchUrl":"http:\/\/twitter.com\/search?q=Wolfsburg","trendMapped":"wolfsburg","trendVolume":250450},{"stateName":"XX","trendName":"#FelizMiercoles","placeID":"23424977","placeName":"United States","searchUrl":"http:\/\/twitter.com\/search?q=%23FelizMiercoles","trendMapped":"feliz+miercoles","trendVolume":46443},{"stateName":"XX","trendName":"#OliviaLamasanXKathNiel","placeID":"23424977","placeName":"United States","searchUrl":"http:\/\/twitter.com\/search?q=%23OliviaLamasanXKathNiel","trendMapped":"olivia+lamasan+x+kath+niel","trendVolume":79762},{"stateName":"XX","trendName":"#WednesdayWisdom","placeID":"23424977","placeName":"United States","searchUrl":"http:\/\/twitter.com\/search?q=%23WednesdayWisdom","trendMapped":"wednesday+wisdom","trendVolume":41646},{"stateName":"XX","trendName":"#WisconsinPrimary","placeID":"23424977","placeName":"United States","searchUrl":"http:\/\/twitter.com\/search?q=%23WisconsinPrimary","trendMapped":"wisconsin+primary","trendVolume":175975},{"stateName":"XX","trendName":"Irene","placeID":"23424977","placeName":"United States","searchUrl":"http:\/\/twitter.com\/search?q=Irene","trendMapped":"irene","trendVolume":44074},{"stateName":"XX","trendName":"Merle Haggard","placeID":"23424977","placeName":"United States","searchUrl":"http:\/\/twitter.com\/search?q=%22Merle+Haggard%22","trendMapped":"Merle+Haggard","trendVolume":78943},{"stateName":"XX","trendName":"Wolfsburg","placeID":"23424977","placeName":"United States","searchUrl":"http:\/\/twitter.com\/search?q=Wolfsburg","trendMapped":"wolfsburg","trendVolume":248049}]