[{"stateName":"AL","trendName":"#SuperTuesday","placeID":"2364559","placeName":"Birmingham","searchUrl":"http:\/\/twitter.com\/search?q=%23SuperTuesday","trendMapped":"super+tuesday","trendVolume":235803},{"stateName":"AL","trendName":"#TheBachelor","placeID":"2364559","placeName":"Birmingham","searchUrl":"http:\/\/twitter.com\/search?q=%23TheBachelor","trendMapped":"the+bachelor","trendVolume":358401},{"stateName":"AL","trendName":"Arsenal","placeID":"2364559","placeName":"Birmingham","searchUrl":"http:\/\/twitter.com\/search?q=Arsenal","trendMapped":"arsenal","trendVolume":617239},{"stateName":"AL","trendName":"Rubio","placeID":"2364559","placeName":"Birmingham","searchUrl":"http:\/\/twitter.com\/search?q=Rubio","trendMapped":"rubio","trendVolume":518141},{"stateName":"AZ","trendName":"#Budget2016","placeID":"2508428","placeName":"Tucson","searchUrl":"http:\/\/twitter.com\/search?q=%23Budget2016","trendMapped":"budget2016","trendVolume":280926},{"stateName":"AZ","trendName":"#DolanTwinsNewVideo","placeID":"2449808","placeName":"Mesa","searchUrl":"http:\/\/twitter.com\/search?q=%23DolanTwinsNewVideo","trendMapped":"dolan+twins+new+video","trendVolume":190622},{"stateName":"AZ","trendName":"#PAKvBAN","placeID":"2449808","placeName":"Mesa","searchUrl":"http:\/\/twitter.com\/search?q=%23PAKvBAN","trendMapped":"pa+kv+ban","trendVolume":88720},{"stateName":"AZ","trendName":"#PrimaryDay","placeID":"2508428","placeName":"Tucson","searchUrl":"http:\/\/twitter.com\/search?q=%23PrimaryDay","trendMapped":"primary+day","trendVolume":431292},{"stateName":"AZ","trendName":"Arsenal","placeID":"2508428","placeName":"Tucson","searchUrl":"http:\/\/twitter.com\/search?q=Arsenal","trendMapped":"arsenal","trendVolume":663629},{"stateName":"AZ","trendName":"Barca","placeID":"2508428","placeName":"Tucson","searchUrl":"http:\/\/twitter.com\/search?q=Barca","trendMapped":"barca","trendVolume":168462},{"stateName":"AZ","trendName":"Bayern","placeID":"2508428","placeName":"Tucson","searchUrl":"http:\/\/twitter.com\/search?q=Bayern","trendMapped":"bayern","trendVolume":289477},{"stateName":"CA","trendName":"#Budget2016","placeID":"2488042","placeName":"San Jose","searchUrl":"http:\/\/twitter.com\/search?q=%23Budget2016","trendMapped":"budget2016","trendVolume":282853},{"stateName":"CA","trendName":"#DolanTwinsNewVideo","placeID":"2486340","placeName":"Sacramento","searchUrl":"http:\/\/twitter.com\/search?q=%23DolanTwinsNewVideo","trendMapped":"dolan+twins+new+video","trendVolume":191763},{"stateName":"CA","trendName":"#PAKvBAN","placeID":"2488042","placeName":"San Jose","searchUrl":"http:\/\/twitter.com\/search?q=%23PAKvBAN","trendMapped":"pa+kv+ban","trendVolume":88720},{"stateName":"CA","trendName":"#PrimaryDay","placeID":"2488042","placeName":"San Jose","searchUrl":"http:\/\/twitter.com\/search?q=%23PrimaryDay","trendMapped":"primary+day","trendVolume":431558},{"stateName":"CA","trendName":"#ShadowhuntersChat","placeID":"2488042","placeName":"San Jose","searchUrl":"http:\/\/twitter.com\/search?q=%23ShadowhuntersChat","trendMapped":"shadowhunters+chat","trendVolume":42283},{"stateName":"CA","trendName":"#TheBachelor","placeID":"2487889","placeName":"San Diego","searchUrl":"http:\/\/twitter.com\/search?q=%23TheBachelor","trendMapped":"the+bachelor","trendVolume":422598},{"stateName":"CA","trendName":"Arsenal","placeID":"2488042","placeName":"San Jose","searchUrl":"http:\/\/twitter.com\/search?q=Arsenal","trendMapped":"arsenal","trendVolume":663629},{"stateName":"CA","trendName":"Marco Rubio","placeID":"2487889","placeName":"San Diego","searchUrl":"http:\/\/twitter.com\/search?q=%22Marco+Rubio%22","trendMapped":"Marco+Rubio","trendVolume":171027},{"stateName":"CA","trendName":"Metro","placeID":"2487956","placeName":"San Francisco","searchUrl":"http:\/\/twitter.com\/search?q=Metro","trendMapped":"metro","trendVolume":207639},{"stateName":"CO","trendName":"#Budget2016","placeID":"2391279","placeName":"Denver","searchUrl":"http:\/\/twitter.com\/search?q=%23Budget2016","trendMapped":"budget2016","trendVolume":271595},{"stateName":"CO","trendName":"#DolanTwinsNewVideo","placeID":"2383489","placeName":"Colorado Springs","searchUrl":"http:\/\/twitter.com\/search?q=%23DolanTwinsNewVideo","trendMapped":"dolan+twins+new+video","trendVolume":190622},{"stateName":"CO","trendName":"#PrimaryDay","placeID":"2391279","placeName":"Denver","searchUrl":"http:\/\/twitter.com\/search?q=%23PrimaryDay","trendMapped":"primary+day","trendVolume":402401},{"stateName":"CO","trendName":"Arsenal","placeID":"2391279","placeName":"Denver","searchUrl":"http:\/\/twitter.com\/search?q=Arsenal","trendMapped":"arsenal","trendVolume":640009},{"stateName":"CO","trendName":"Marco Rubio","placeID":"2391279","placeName":"Denver","searchUrl":"http:\/\/twitter.com\/search?q=%22Marco+Rubio%22","trendMapped":"Marco+Rubio","trendVolume":181350},{"stateName":"CT","trendName":"#PrimaryDay","placeID":"2458410","placeName":"New Haven","searchUrl":"http:\/\/twitter.com\/search?q=%23PrimaryDay","trendMapped":"primary+day","trendVolume":431558},{"stateName":"CT","trendName":"#TheBachelor","placeID":"2458410","placeName":"New Haven","searchUrl":"http:\/\/twitter.com\/search?q=%23TheBachelor","trendMapped":"the+bachelor","trendVolume":358131},{"stateName":"CT","trendName":"Arsenal","placeID":"2458410","placeName":"New Haven","searchUrl":"http:\/\/twitter.com\/search?q=Arsenal","trendMapped":"arsenal","trendVolume":631314},{"stateName":"CT","trendName":"Rubio","placeID":"2458410","placeName":"New Haven","searchUrl":"http:\/\/twitter.com\/search?q=Rubio","trendMapped":"rubio","trendVolume":367722},{"stateName":"DC","trendName":"#Budget2016","placeID":"2514815","placeName":"Washington","searchUrl":"http:\/\/twitter.com\/search?q=%23Budget2016","trendMapped":"budget2016","trendVolume":275394},{"stateName":"DC","trendName":"#PrimaryDay","placeID":"2514815","placeName":"Washington","searchUrl":"http:\/\/twitter.com\/search?q=%23PrimaryDay","trendMapped":"primary+day","trendVolume":388231},{"stateName":"DC","trendName":"Bayern","placeID":"2514815","placeName":"Washington","searchUrl":"http:\/\/twitter.com\/search?q=Bayern","trendMapped":"bayern","trendVolume":406436},{"stateName":"FL","trendName":"#Budget2016","placeID":"2503863","placeName":"Tampa","searchUrl":"http:\/\/twitter.com\/search?q=%23Budget2016","trendMapped":"budget2016","trendVolume":282853},{"stateName":"FL","trendName":"#PrimaryDay","placeID":"2503863","placeName":"Tampa","searchUrl":"http:\/\/twitter.com\/search?q=%23PrimaryDay","trendMapped":"primary+day","trendVolume":431558},{"stateName":"FL","trendName":"#SuperTuesday","placeID":"2503713","placeName":"Tallahassee","searchUrl":"http:\/\/twitter.com\/search?q=%23SuperTuesday","trendMapped":"super+tuesday","trendVolume":240401},{"stateName":"FL","trendName":"Arsenal","placeID":"2503863","placeName":"Tampa","searchUrl":"http:\/\/twitter.com\/search?q=Arsenal","trendMapped":"arsenal","trendVolume":651607},{"stateName":"FL","trendName":"Clinton","placeID":"2428344","placeName":"Jacksonville","searchUrl":"http:\/\/twitter.com\/search?q=Clinton","trendMapped":"clinton","trendVolume":543758},{"stateName":"FL","trendName":"Cruz","placeID":"2503713","placeName":"Tallahassee","searchUrl":"http:\/\/twitter.com\/search?q=Cruz","trendMapped":"cruz","trendVolume":392344},{"stateName":"FL","trendName":"Rubio","placeID":"2503713","placeName":"Tallahassee","searchUrl":"http:\/\/twitter.com\/search?q=Rubio","trendMapped":"rubio","trendVolume":508388},{"stateName":"GA","trendName":"#Budget2016","placeID":"2357024","placeName":"Atlanta","searchUrl":"http:\/\/twitter.com\/search?q=%23Budget2016","trendMapped":"budget2016","trendVolume":261819},{"stateName":"GA","trendName":"#PrimaryDay","placeID":"2357024","placeName":"Atlanta","searchUrl":"http:\/\/twitter.com\/search?q=%23PrimaryDay","trendMapped":"primary+day","trendVolume":429388},{"stateName":"GA","trendName":"Barcelona","placeID":"2357024","placeName":"Atlanta","searchUrl":"http:\/\/twitter.com\/search?q=Barcelona","trendMapped":"barcelona","trendVolume":391613},{"stateName":"GA","trendName":"Bayern","placeID":"2357024","placeName":"Atlanta","searchUrl":"http:\/\/twitter.com\/search?q=Bayern","trendMapped":"bayern","trendVolume":406436},{"stateName":"GA","trendName":"Lula","placeID":"2357024","placeName":"Atlanta","searchUrl":"http:\/\/twitter.com\/search?q=Lula","trendMapped":"lula","trendVolume":646634},{"stateName":"GA","trendName":"Suarez","placeID":"2357024","placeName":"Atlanta","searchUrl":"http:\/\/twitter.com\/search?q=Suarez","trendMapped":"suarez","trendVolume":190802},{"stateName":"HI","trendName":"#PrimaryDay","placeID":"2423945","placeName":"Honolulu","searchUrl":"http:\/\/twitter.com\/search?q=%23PrimaryDay","trendMapped":"primary+day","trendVolume":391696},{"stateName":"HI","trendName":"#TheBachelor","placeID":"2423945","placeName":"Honolulu","searchUrl":"http:\/\/twitter.com\/search?q=%23TheBachelor","trendMapped":"the+bachelor","trendVolume":358401},{"stateName":"HI","trendName":"Arsenal","placeID":"2423945","placeName":"Honolulu","searchUrl":"http:\/\/twitter.com\/search?q=Arsenal","trendMapped":"arsenal","trendVolume":651607},{"stateName":"HI","trendName":"Barca","placeID":"2423945","placeName":"Honolulu","searchUrl":"http:\/\/twitter.com\/search?q=Barca","trendMapped":"barca","trendVolume":174289},{"stateName":"HI","trendName":"Trump","placeID":"2423945","placeName":"Honolulu","searchUrl":"http:\/\/twitter.com\/search?q=Trump","trendMapped":"trump","trendVolume":2251568},{"stateName":"IL","trendName":"#Budget2016","placeID":"2379574","placeName":"Chicago","searchUrl":"http:\/\/twitter.com\/search?q=%23Budget2016","trendMapped":"budget2016","trendVolume":282853},{"stateName":"IL","trendName":"#PLLChat","placeID":"2379574","placeName":"Chicago","searchUrl":"http:\/\/twitter.com\/search?q=%23PLLChat","trendMapped":"pll+chat","trendVolume":168102},{"stateName":"IL","trendName":"#PrimaryDay","placeID":"2379574","placeName":"Chicago","searchUrl":"http:\/\/twitter.com\/search?q=%23PrimaryDay","trendMapped":"primary+day","trendVolume":423499},{"stateName":"IL","trendName":"Arsenal","placeID":"2379574","placeName":"Chicago","searchUrl":"http:\/\/twitter.com\/search?q=Arsenal","trendMapped":"arsenal","trendVolume":614637},{"stateName":"IL","trendName":"Kasich","placeID":"2379574","placeName":"Chicago","searchUrl":"http:\/\/twitter.com\/search?q=Kasich","trendMapped":"kasich","trendVolume":383051},{"stateName":"IN","trendName":"#Budget2016","placeID":"2427032","placeName":"Indianapolis","searchUrl":"http:\/\/twitter.com\/search?q=%23Budget2016","trendMapped":"budget2016","trendVolume":282642},{"stateName":"IN","trendName":"#PrimaryDay","placeID":"2427032","placeName":"Indianapolis","searchUrl":"http:\/\/twitter.com\/search?q=%23PrimaryDay","trendMapped":"primary+day","trendVolume":429113},{"stateName":"IN","trendName":"#SuperTuesday","placeID":"2427032","placeName":"Indianapolis","searchUrl":"http:\/\/twitter.com\/search?q=%23SuperTuesday","trendMapped":"super+tuesday","trendVolume":194065},{"stateName":"IN","trendName":"Arsenal","placeID":"2427032","placeName":"Indianapolis","searchUrl":"http:\/\/twitter.com\/search?q=Arsenal","trendMapped":"arsenal","trendVolume":651607},{"stateName":"IN","trendName":"Bayern","placeID":"2427032","placeName":"Indianapolis","searchUrl":"http:\/\/twitter.com\/search?q=Bayern","trendMapped":"bayern","trendVolume":262063},{"stateName":"KY","trendName":"Bayern","placeID":"2442327","placeName":"Louisville","searchUrl":"http:\/\/twitter.com\/search?q=Bayern","trendMapped":"bayern","trendVolume":582108},{"stateName":"KY","trendName":"Clinton","placeID":"2442327","placeName":"Louisville","searchUrl":"http:\/\/twitter.com\/search?q=Clinton","trendMapped":"clinton","trendVolume":547536},{"stateName":"KY","trendName":"Kasich","placeID":"2442327","placeName":"Louisville","searchUrl":"http:\/\/twitter.com\/search?q=Kasich","trendMapped":"kasich","trendVolume":377695},{"stateName":"KY","trendName":"Rubio","placeID":"2442327","placeName":"Louisville","searchUrl":"http:\/\/twitter.com\/search?q=Rubio","trendMapped":"rubio","trendVolume":505453},{"stateName":"LA","trendName":"#Budget2016","placeID":"2359991","placeName":"Baton Rouge","searchUrl":"http:\/\/twitter.com\/search?q=%23Budget2016","trendMapped":"budget2016","trendVolume":264481},{"stateName":"LA","trendName":"#PLLChat","placeID":"2458833","placeName":"New Orleans","searchUrl":"http:\/\/twitter.com\/search?q=%23PLLChat","trendMapped":"pll+chat","trendVolume":164729},{"stateName":"LA","trendName":"#PrimaryDay","placeID":"2458833","placeName":"New Orleans","searchUrl":"http:\/\/twitter.com\/search?q=%23PrimaryDay","trendMapped":"primary+day","trendVolume":430989},{"stateName":"LA","trendName":"Arsenal","placeID":"2458833","placeName":"New Orleans","searchUrl":"http:\/\/twitter.com\/search?q=Arsenal","trendMapped":"arsenal","trendVolume":651607},{"stateName":"LA","trendName":"Clinton","placeID":"2458833","placeName":"New Orleans","searchUrl":"http:\/\/twitter.com\/search?q=Clinton","trendMapped":"clinton","trendVolume":547536},{"stateName":"LA","trendName":"Hillary","placeID":"2458833","placeName":"New Orleans","searchUrl":"http:\/\/twitter.com\/search?q=Hillary","trendMapped":"hillary","trendVolume":563777},{"stateName":"LA","trendName":"I-10","placeID":"2359991","placeName":"Baton Rouge","searchUrl":"http:\/\/twitter.com\/search?q=I-10","trendMapped":"i-10","trendVolume":205782},{"stateName":"LA","trendName":"Marco Rubio","placeID":"2458833","placeName":"New Orleans","searchUrl":"http:\/\/twitter.com\/search?q=%22Marco+Rubio%22","trendMapped":"Marco+Rubio","trendVolume":165550},{"stateName":"LA","trendName":"Rubio","placeID":"2458833","placeName":"New Orleans","searchUrl":"http:\/\/twitter.com\/search?q=Rubio","trendMapped":"rubio","trendVolume":511011},{"stateName":"MA","trendName":"#Budget2016","placeID":"2367105","placeName":"Boston","searchUrl":"http:\/\/twitter.com\/search?q=%23Budget2016","trendMapped":"budget2016","trendVolume":257156},{"stateName":"MA","trendName":"#DolanTwinsNewVideo","placeID":"2367105","placeName":"Boston","searchUrl":"http:\/\/twitter.com\/search?q=%23DolanTwinsNewVideo","trendMapped":"dolan+twins+new+video","trendVolume":190622},{"stateName":"MA","trendName":"#PrimaryDay","placeID":"2367105","placeName":"Boston","searchUrl":"http:\/\/twitter.com\/search?q=%23PrimaryDay","trendMapped":"primary+day","trendVolume":429113},{"stateName":"MA","trendName":"Arsenal","placeID":"2367105","placeName":"Boston","searchUrl":"http:\/\/twitter.com\/search?q=Arsenal","trendMapped":"arsenal","trendVolume":657445},{"stateName":"MD","trendName":"#Budget2016","placeID":"2358820","placeName":"Baltimore","searchUrl":"http:\/\/twitter.com\/search?q=%23Budget2016","trendMapped":"budget2016","trendVolume":235087},{"stateName":"MD","trendName":"#PrimaryDay","placeID":"2358820","placeName":"Baltimore","searchUrl":"http:\/\/twitter.com\/search?q=%23PrimaryDay","trendMapped":"primary+day","trendVolume":415037},{"stateName":"MD","trendName":"Arsenal","placeID":"2358820","placeName":"Baltimore","searchUrl":"http:\/\/twitter.com\/search?q=Arsenal","trendMapped":"arsenal","trendVolume":650343},{"stateName":"MI","trendName":"#PrimaryDay","placeID":"2391585","placeName":"Detroit","searchUrl":"http:\/\/twitter.com\/search?q=%23PrimaryDay","trendMapped":"primary+day","trendVolume":430718},{"stateName":"MI","trendName":"Arsenal","placeID":"2391585","placeName":"Detroit","searchUrl":"http:\/\/twitter.com\/search?q=Arsenal","trendMapped":"arsenal","trendVolume":657445},{"stateName":"MI","trendName":"Bayern","placeID":"2391585","placeName":"Detroit","searchUrl":"http:\/\/twitter.com\/search?q=Bayern","trendMapped":"bayern","trendVolume":600997},{"stateName":"MN","trendName":"#Budget2016","placeID":"2452078","placeName":"Minneapolis","searchUrl":"http:\/\/twitter.com\/search?q=%23Budget2016","trendMapped":"budget2016","trendVolume":282853},{"stateName":"MN","trendName":"#PrimaryDay","placeID":"2452078","placeName":"Minneapolis","searchUrl":"http:\/\/twitter.com\/search?q=%23PrimaryDay","trendMapped":"primary+day","trendVolume":424634},{"stateName":"MN","trendName":"#TheBachelor","placeID":"2452078","placeName":"Minneapolis","searchUrl":"http:\/\/twitter.com\/search?q=%23TheBachelor","trendMapped":"the+bachelor","trendVolume":358131},{"stateName":"MN","trendName":"Arsenal","placeID":"2452078","placeName":"Minneapolis","searchUrl":"http:\/\/twitter.com\/search?q=Arsenal","trendMapped":"arsenal","trendVolume":611822},{"stateName":"MN","trendName":"Bayern","placeID":"2452078","placeName":"Minneapolis","searchUrl":"http:\/\/twitter.com\/search?q=Bayern","trendMapped":"bayern","trendVolume":340332},{"stateName":"MN","trendName":"Clinton","placeID":"2452078","placeName":"Minneapolis","searchUrl":"http:\/\/twitter.com\/search?q=Clinton","trendMapped":"clinton","trendVolume":542973},{"stateName":"MO","trendName":"#PrimaryDay","placeID":"2486982","placeName":"St. Louis","searchUrl":"http:\/\/twitter.com\/search?q=%23PrimaryDay","trendMapped":"primary+day","trendVolume":402994},{"stateName":"MO","trendName":"#TheBachelor","placeID":"2430683","placeName":"Kansas City","searchUrl":"http:\/\/twitter.com\/search?q=%23TheBachelor","trendMapped":"the+bachelor","trendVolume":422598},{"stateName":"MO","trendName":"Arsenal","placeID":"2486982","placeName":"St. Louis","searchUrl":"http:\/\/twitter.com\/search?q=Arsenal","trendMapped":"arsenal","trendVolume":640009},{"stateName":"MO","trendName":"Kasich","placeID":"2486982","placeName":"St. Louis","searchUrl":"http:\/\/twitter.com\/search?q=Kasich","trendMapped":"kasich","trendVolume":384082},{"stateName":"MO","trendName":"Rubio","placeID":"2486982","placeName":"St. Louis","searchUrl":"http:\/\/twitter.com\/search?q=Rubio","trendMapped":"rubio","trendVolume":521553},{"stateName":"MS","trendName":"#DolanTwinsNewVideo","placeID":"2428184","placeName":"Jackson","searchUrl":"http:\/\/twitter.com\/search?q=%23DolanTwinsNewVideo","trendMapped":"dolan+twins+new+video","trendVolume":190918},{"stateName":"MS","trendName":"#PrimaryDay","placeID":"2428184","placeName":"Jackson","searchUrl":"http:\/\/twitter.com\/search?q=%23PrimaryDay","trendMapped":"primary+day","trendVolume":401699},{"stateName":"MS","trendName":"Arsenal","placeID":"2428184","placeName":"Jackson","searchUrl":"http:\/\/twitter.com\/search?q=Arsenal","trendMapped":"arsenal","trendVolume":651607},{"stateName":"MS","trendName":"Rubio","placeID":"2428184","placeName":"Jackson","searchUrl":"http:\/\/twitter.com\/search?q=Rubio","trendMapped":"rubio","trendVolume":520071},{"stateName":"NC","trendName":"#Budget2016","placeID":"2478307","placeName":"Raleigh","searchUrl":"http:\/\/twitter.com\/search?q=%23Budget2016","trendMapped":"budget2016","trendVolume":282642},{"stateName":"NC","trendName":"#PrimaryDay","placeID":"2414469","placeName":"Greensboro","searchUrl":"http:\/\/twitter.com\/search?q=%23PrimaryDay","trendMapped":"primary+day","trendVolume":430718},{"stateName":"NC","trendName":"#TheBachelor","placeID":"2478307","placeName":"Raleigh","searchUrl":"http:\/\/twitter.com\/search?q=%23TheBachelor","trendMapped":"the+bachelor","trendVolume":358401},{"stateName":"NC","trendName":"Arsenal","placeID":"2414469","placeName":"Greensboro","searchUrl":"http:\/\/twitter.com\/search?q=Arsenal","trendMapped":"arsenal","trendVolume":657445},{"stateName":"NC","trendName":"Bayern","placeID":"2478307","placeName":"Raleigh","searchUrl":"http:\/\/twitter.com\/search?q=Bayern","trendMapped":"bayern","trendVolume":569006},{"stateName":"NC","trendName":"Bernie","placeID":"2478307","placeName":"Raleigh","searchUrl":"http:\/\/twitter.com\/search?q=Bernie","trendMapped":"bernie","trendVolume":435221},{"stateName":"NC","trendName":"Cruz","placeID":"2414469","placeName":"Greensboro","searchUrl":"http:\/\/twitter.com\/search?q=Cruz","trendMapped":"cruz","trendVolume":410484},{"stateName":"NC","trendName":"Democratic","placeID":"2478307","placeName":"Raleigh","searchUrl":"http:\/\/twitter.com\/search?q=Democratic","trendMapped":"democratic","trendVolume":93313},{"stateName":"NC","trendName":"Kasich","placeID":"2478307","placeName":"Raleigh","searchUrl":"http:\/\/twitter.com\/search?q=Kasich","trendMapped":"kasich","trendVolume":369936},{"stateName":"NC","trendName":"Marco Rubio","placeID":"2378426","placeName":"Charlotte","searchUrl":"http:\/\/twitter.com\/search?q=%22Marco+Rubio%22","trendMapped":"Marco+Rubio","trendVolume":161602},{"stateName":"NC","trendName":"Rubio","placeID":"2414469","placeName":"Greensboro","searchUrl":"http:\/\/twitter.com\/search?q=Rubio","trendMapped":"rubio","trendVolume":511026},{"stateName":"NE","trendName":"#PrimaryDay","placeID":"2465512","placeName":"Omaha","searchUrl":"http:\/\/twitter.com\/search?q=%23PrimaryDay","trendMapped":"primary+day","trendVolume":402994},{"stateName":"NE","trendName":"#SuperTuesday","placeID":"2465512","placeName":"Omaha","searchUrl":"http:\/\/twitter.com\/search?q=%23SuperTuesday","trendMapped":"super+tuesday","trendVolume":235281},{"stateName":"NE","trendName":"Arsenal","placeID":"2465512","placeName":"Omaha","searchUrl":"http:\/\/twitter.com\/search?q=Arsenal","trendMapped":"arsenal","trendVolume":626998},{"stateName":"NE","trendName":"Kasich","placeID":"2465512","placeName":"Omaha","searchUrl":"http:\/\/twitter.com\/search?q=Kasich","trendMapped":"kasich","trendVolume":368504},{"stateName":"NM","trendName":"#Budget2016","placeID":"2352824","placeName":"Albuquerque","searchUrl":"http:\/\/twitter.com\/search?q=%23Budget2016","trendMapped":"budget2016","trendVolume":272020},{"stateName":"NM","trendName":"#PAKvBAN","placeID":"2352824","placeName":"Albuquerque","searchUrl":"http:\/\/twitter.com\/search?q=%23PAKvBAN","trendMapped":"pa+kv+ban","trendVolume":88720},{"stateName":"NM","trendName":"#PrimaryDay","placeID":"2352824","placeName":"Albuquerque","searchUrl":"http:\/\/twitter.com\/search?q=%23PrimaryDay","trendMapped":"primary+day","trendVolume":408151},{"stateName":"NM","trendName":"Arsenal","placeID":"2352824","placeName":"Albuquerque","searchUrl":"http:\/\/twitter.com\/search?q=Arsenal","trendMapped":"arsenal","trendVolume":640009},{"stateName":"NV","trendName":"#Budget2016","placeID":"2436704","placeName":"Las Vegas","searchUrl":"http:\/\/twitter.com\/search?q=%23Budget2016","trendMapped":"budget2016","trendVolume":280114},{"stateName":"NV","trendName":"#SuperTuesday","placeID":"2436704","placeName":"Las Vegas","searchUrl":"http:\/\/twitter.com\/search?q=%23SuperTuesday","trendMapped":"super+tuesday","trendVolume":238425},{"stateName":"NV","trendName":"Kasich","placeID":"2436704","placeName":"Las Vegas","searchUrl":"http:\/\/twitter.com\/search?q=Kasich","trendMapped":"kasich","trendVolume":368655},{"stateName":"NY","trendName":"#Budget2016","placeID":"2459115","placeName":"New York","searchUrl":"http:\/\/twitter.com\/search?q=%23Budget2016","trendMapped":"budget2016","trendVolume":274356},{"stateName":"NY","trendName":"#PrimaryDay","placeID":"2459115","placeName":"New York","searchUrl":"http:\/\/twitter.com\/search?q=%23PrimaryDay","trendMapped":"primary+day","trendVolume":405507},{"stateName":"NY","trendName":"Bayern","placeID":"2459115","placeName":"New York","searchUrl":"http:\/\/twitter.com\/search?q=Bayern","trendMapped":"bayern","trendVolume":250264},{"stateName":"OH","trendName":"#Budget2016","placeID":"2383660","placeName":"Columbus","searchUrl":"http:\/\/twitter.com\/search?q=%23Budget2016","trendMapped":"budget2016","trendVolume":282642},{"stateName":"OH","trendName":"#DolanTwinsNewVideo","placeID":"2383660","placeName":"Columbus","searchUrl":"http:\/\/twitter.com\/search?q=%23DolanTwinsNewVideo","trendMapped":"dolan+twins+new+video","trendVolume":191763},{"stateName":"OH","trendName":"#PrimaryDay","placeID":"2383660","placeName":"Columbus","searchUrl":"http:\/\/twitter.com\/search?q=%23PrimaryDay","trendMapped":"primary+day","trendVolume":424969},{"stateName":"OH","trendName":"#TheBachelor","placeID":"2380358","placeName":"Cincinnati","searchUrl":"http:\/\/twitter.com\/search?q=%23TheBachelor","trendMapped":"the+bachelor","trendVolume":422598},{"stateName":"OH","trendName":"Arsenal","placeID":"2383660","placeName":"Columbus","searchUrl":"http:\/\/twitter.com\/search?q=Arsenal","trendMapped":"arsenal","trendVolume":661437},{"stateName":"OH","trendName":"Barca","placeID":"2381475","placeName":"Cleveland","searchUrl":"http:\/\/twitter.com\/search?q=Barca","trendMapped":"barca","trendVolume":174289},{"stateName":"OH","trendName":"Kasich","placeID":"2383660","placeName":"Columbus","searchUrl":"http:\/\/twitter.com\/search?q=Kasich","trendMapped":"kasich","trendVolume":349548},{"stateName":"OK","trendName":"#PrimaryDay","placeID":"2464592","placeName":"Oklahoma City","searchUrl":"http:\/\/twitter.com\/search?q=%23PrimaryDay","trendMapped":"primary+day","trendVolume":430074},{"stateName":"OK","trendName":"#SuperTuesday","placeID":"2464592","placeName":"Oklahoma City","searchUrl":"http:\/\/twitter.com\/search?q=%23SuperTuesday","trendMapped":"super+tuesday","trendVolume":214668},{"stateName":"OK","trendName":"Arsenal","placeID":"2464592","placeName":"Oklahoma City","searchUrl":"http:\/\/twitter.com\/search?q=Arsenal","trendMapped":"arsenal","trendVolume":657445},{"stateName":"OK","trendName":"Rubio","placeID":"2464592","placeName":"Oklahoma City","searchUrl":"http:\/\/twitter.com\/search?q=Rubio","trendMapped":"rubio","trendVolume":402929},{"stateName":"OR","trendName":"#Budget2016","placeID":"2475687","placeName":"Portland","searchUrl":"http:\/\/twitter.com\/search?q=%23Budget2016","trendMapped":"budget2016","trendVolume":271595},{"stateName":"OR","trendName":"#PrimaryDay","placeID":"2475687","placeName":"Portland","searchUrl":"http:\/\/twitter.com\/search?q=%23PrimaryDay","trendMapped":"primary+day","trendVolume":431265},{"stateName":"OR","trendName":"#TheBachelor","placeID":"2475687","placeName":"Portland","searchUrl":"http:\/\/twitter.com\/search?q=%23TheBachelor","trendMapped":"the+bachelor","trendVolume":358301},{"stateName":"OR","trendName":"Arsenal","placeID":"2475687","placeName":"Portland","searchUrl":"http:\/\/twitter.com\/search?q=Arsenal","trendMapped":"arsenal","trendVolume":661437},{"stateName":"PA","trendName":"#Budget2016","placeID":"2471217","placeName":"Philadelphia","searchUrl":"http:\/\/twitter.com\/search?q=%23Budget2016","trendMapped":"budget2016","trendVolume":282642},{"stateName":"PA","trendName":"#PLLChat","placeID":"2418046","placeName":"Harrisburg","searchUrl":"http:\/\/twitter.com\/search?q=%23PLLChat","trendMapped":"pll+chat","trendVolume":159108},{"stateName":"PA","trendName":"#PrimaryDay","placeID":"2473224","placeName":"Pittsburgh","searchUrl":"http:\/\/twitter.com\/search?q=%23PrimaryDay","trendMapped":"primary+day","trendVolume":430989},{"stateName":"PA","trendName":"#ShadowhuntersChat","placeID":"2471217","placeName":"Philadelphia","searchUrl":"http:\/\/twitter.com\/search?q=%23ShadowhuntersChat","trendMapped":"shadowhunters+chat","trendVolume":42283},{"stateName":"PA","trendName":"#SuperTuesday","placeID":"2471217","placeName":"Philadelphia","searchUrl":"http:\/\/twitter.com\/search?q=%23SuperTuesday","trendMapped":"super+tuesday","trendVolume":235803},{"stateName":"PA","trendName":"Arsenal","placeID":"2473224","placeName":"Pittsburgh","searchUrl":"http:\/\/twitter.com\/search?q=Arsenal","trendMapped":"arsenal","trendVolume":663629},{"stateName":"PA","trendName":"Bayern","placeID":"2418046","placeName":"Harrisburg","searchUrl":"http:\/\/twitter.com\/search?q=Bayern","trendMapped":"bayern","trendVolume":645833},{"stateName":"PA","trendName":"Hillary","placeID":"2418046","placeName":"Harrisburg","searchUrl":"http:\/\/twitter.com\/search?q=Hillary","trendMapped":"hillary","trendVolume":563465},{"stateName":"PA","trendName":"Rubio","placeID":"2418046","placeName":"Harrisburg","searchUrl":"http:\/\/twitter.com\/search?q=Rubio","trendMapped":"rubio","trendVolume":516086},{"stateName":"RI","trendName":"#PrimaryDay","placeID":"2477058","placeName":"Providence","searchUrl":"http:\/\/twitter.com\/search?q=%23PrimaryDay","trendMapped":"primary+day","trendVolume":430989},{"stateName":"RI","trendName":"Arsenal","placeID":"2477058","placeName":"Providence","searchUrl":"http:\/\/twitter.com\/search?q=Arsenal","trendMapped":"arsenal","trendVolume":650343},{"stateName":"RI","trendName":"Rubio","placeID":"2477058","placeName":"Providence","searchUrl":"http:\/\/twitter.com\/search?q=Rubio","trendMapped":"rubio","trendVolume":518141},{"stateName":"TN","trendName":"#Budget2016","placeID":"2457170","placeName":"Nashville","searchUrl":"http:\/\/twitter.com\/search?q=%23Budget2016","trendMapped":"budget2016","trendVolume":282642},{"stateName":"TN","trendName":"#PAKvBAN","placeID":"2457170","placeName":"Nashville","searchUrl":"http:\/\/twitter.com\/search?q=%23PAKvBAN","trendMapped":"pa+kv+ban","trendVolume":80266},{"stateName":"TN","trendName":"#PrimaryDay","placeID":"2457170","placeName":"Nashville","searchUrl":"http:\/\/twitter.com\/search?q=%23PrimaryDay","trendMapped":"primary+day","trendVolume":367507},{"stateName":"TN","trendName":"#ShadowhuntersChat","placeID":"2457170","placeName":"Nashville","searchUrl":"http:\/\/twitter.com\/search?q=%23ShadowhuntersChat","trendMapped":"shadowhunters+chat","trendVolume":42350},{"stateName":"TN","trendName":"#SuperTuesday","placeID":"2449323","placeName":"Memphis","searchUrl":"http:\/\/twitter.com\/search?q=%23SuperTuesday","trendMapped":"super+tuesday","trendVolume":239931},{"stateName":"TN","trendName":"#TheBachelor","placeID":"2449323","placeName":"Memphis","searchUrl":"http:\/\/twitter.com\/search?q=%23TheBachelor","trendMapped":"the+bachelor","trendVolume":359364},{"stateName":"TN","trendName":"Barca","placeID":"2449323","placeName":"Memphis","searchUrl":"http:\/\/twitter.com\/search?q=Barca","trendMapped":"barca","trendVolume":174289},{"stateName":"TN","trendName":"Bayern","placeID":"2457170","placeName":"Nashville","searchUrl":"http:\/\/twitter.com\/search?q=Bayern","trendMapped":"bayern","trendVolume":637975},{"stateName":"TN","trendName":"Clinton","placeID":"2449323","placeName":"Memphis","searchUrl":"http:\/\/twitter.com\/search?q=Clinton","trendMapped":"clinton","trendVolume":549764},{"stateName":"TN","trendName":"Kasich","placeID":"2449323","placeName":"Memphis","searchUrl":"http:\/\/twitter.com\/search?q=Kasich","trendMapped":"kasich","trendVolume":343290},{"stateName":"TN","trendName":"Rubio","placeID":"2449323","placeName":"Memphis","searchUrl":"http:\/\/twitter.com\/search?q=Rubio","trendMapped":"rubio","trendVolume":518141},{"stateName":"TX","trendName":"#Budget2016","placeID":"2487796","placeName":"San Antonio","searchUrl":"http:\/\/twitter.com\/search?q=%23Budget2016","trendMapped":"budget2016","trendVolume":277410},{"stateName":"TX","trendName":"#DolanTwinsNewVideo","placeID":"2487796","placeName":"San Antonio","searchUrl":"http:\/\/twitter.com\/search?q=%23DolanTwinsNewVideo","trendMapped":"dolan+twins+new+video","trendVolume":191763},{"stateName":"TX","trendName":"#PrimaryDay","placeID":"2487796","placeName":"San Antonio","searchUrl":"http:\/\/twitter.com\/search?q=%23PrimaryDay","trendMapped":"primary+day","trendVolume":431558},{"stateName":"TX","trendName":"#SuperTuesday","placeID":"2487796","placeName":"San Antonio","searchUrl":"http:\/\/twitter.com\/search?q=%23SuperTuesday","trendMapped":"super+tuesday","trendVolume":236647},{"stateName":"TX","trendName":"Arsenal","placeID":"2487796","placeName":"San Antonio","searchUrl":"http:\/\/twitter.com\/search?q=Arsenal","trendMapped":"arsenal","trendVolume":661437},{"stateName":"TX","trendName":"Barca","placeID":"2388929","placeName":"Dallas-Ft. Worth","searchUrl":"http:\/\/twitter.com\/search?q=Barca","trendMapped":"barca","trendVolume":174289},{"stateName":"TX","trendName":"Bayern","placeID":"2487796","placeName":"San Antonio","searchUrl":"http:\/\/twitter.com\/search?q=Bayern","trendMapped":"bayern","trendVolume":200999},{"stateName":"TX","trendName":"Donald Trump","placeID":"2397816","placeName":"El Paso","searchUrl":"http:\/\/twitter.com\/search?q=%22Donald+Trump%22","trendMapped":"Donald+Trump","trendVolume":576028},{"stateName":"TX","trendName":"Kasich","placeID":"2397816","placeName":"El Paso","searchUrl":"http:\/\/twitter.com\/search?q=Kasich","trendMapped":"kasich","trendVolume":349548},{"stateName":"TX","trendName":"Marco Rubio","placeID":"2388929","placeName":"Dallas-Ft. Worth","searchUrl":"http:\/\/twitter.com\/search?q=%22Marco+Rubio%22","trendMapped":"Marco+Rubio","trendVolume":138760},{"stateName":"UT","trendName":"#PrimaryDay","placeID":"2487610","placeName":"Salt Lake City","searchUrl":"http:\/\/twitter.com\/search?q=%23PrimaryDay","trendMapped":"primary+day","trendVolume":429792},{"stateName":"UT","trendName":"Arsenal","placeID":"2487610","placeName":"Salt Lake City","searchUrl":"http:\/\/twitter.com\/search?q=Arsenal","trendMapped":"arsenal","trendVolume":626998},{"stateName":"UT","trendName":"Barca","placeID":"2487610","placeName":"Salt Lake City","searchUrl":"http:\/\/twitter.com\/search?q=Barca","trendMapped":"barca","trendVolume":174289},{"stateName":"VA","trendName":"#Budget2016","placeID":"2512636","placeName":"Virginia Beach","searchUrl":"http:\/\/twitter.com\/search?q=%23Budget2016","trendMapped":"budget2016","trendVolume":278342},{"stateName":"VA","trendName":"#DolanTwinsNewVideo","placeID":"2460389","placeName":"Norfolk","searchUrl":"http:\/\/twitter.com\/search?q=%23DolanTwinsNewVideo","trendMapped":"dolan+twins+new+video","trendVolume":192203},{"stateName":"VA","trendName":"#PAKvBAN","placeID":"2512636","placeName":"Virginia Beach","searchUrl":"http:\/\/twitter.com\/search?q=%23PAKvBAN","trendMapped":"pa+kv+ban","trendVolume":88720},{"stateName":"VA","trendName":"#PLLChat","placeID":"2460389","placeName":"Norfolk","searchUrl":"http:\/\/twitter.com\/search?q=%23PLLChat","trendMapped":"pll+chat","trendVolume":162717},{"stateName":"VA","trendName":"#PrimaryDay","placeID":"2512636","placeName":"Virginia Beach","searchUrl":"http:\/\/twitter.com\/search?q=%23PrimaryDay","trendMapped":"primary+day","trendVolume":431265},{"stateName":"VA","trendName":"#SuperTuesday","placeID":"2480894","placeName":"Richmond","searchUrl":"http:\/\/twitter.com\/search?q=%23SuperTuesday","trendMapped":"super+tuesday","trendVolume":235803},{"stateName":"VA","trendName":"#TheBachelor","placeID":"2480894","placeName":"Richmond","searchUrl":"http:\/\/twitter.com\/search?q=%23TheBachelor","trendMapped":"the+bachelor","trendVolume":359364},{"stateName":"VA","trendName":"Arsenal","placeID":"2512636","placeName":"Virginia Beach","searchUrl":"http:\/\/twitter.com\/search?q=Arsenal","trendMapped":"arsenal","trendVolume":631314},{"stateName":"VA","trendName":"Barca","placeID":"2480894","placeName":"Richmond","searchUrl":"http:\/\/twitter.com\/search?q=Barca","trendMapped":"barca","trendVolume":168462},{"stateName":"VA","trendName":"Bayern","placeID":"2512636","placeName":"Virginia Beach","searchUrl":"http:\/\/twitter.com\/search?q=Bayern","trendMapped":"bayern","trendVolume":251833},{"stateName":"WA","trendName":"#Budget2016","placeID":"2490383","placeName":"Seattle","searchUrl":"http:\/\/twitter.com\/search?q=%23Budget2016","trendMapped":"budget2016","trendVolume":282853},{"stateName":"WA","trendName":"#DolanTwinsNewVideo","placeID":"2490383","placeName":"Seattle","searchUrl":"http:\/\/twitter.com\/search?q=%23DolanTwinsNewVideo","trendMapped":"dolan+twins+new+video","trendVolume":190622},{"stateName":"WA","trendName":"#PrimaryDay","placeID":"2490383","placeName":"Seattle","searchUrl":"http:\/\/twitter.com\/search?q=%23PrimaryDay","trendMapped":"primary+day","trendVolume":424071},{"stateName":"WA","trendName":"Arsenal","placeID":"2490383","placeName":"Seattle","searchUrl":"http:\/\/twitter.com\/search?q=Arsenal","trendMapped":"arsenal","trendVolume":640009},{"stateName":"WI","trendName":"#PrimaryDay","placeID":"2451822","placeName":"Milwaukee","searchUrl":"http:\/\/twitter.com\/search?q=%23PrimaryDay","trendMapped":"primary+day","trendVolume":428778},{"stateName":"WI","trendName":"#SuperTuesday","placeID":"2451822","placeName":"Milwaukee","searchUrl":"http:\/\/twitter.com\/search?q=%23SuperTuesday","trendMapped":"super+tuesday","trendVolume":240288},{"stateName":"WI","trendName":"Arsenal","placeID":"2451822","placeName":"Milwaukee","searchUrl":"http:\/\/twitter.com\/search?q=Arsenal","trendMapped":"arsenal","trendVolume":626998},{"stateName":"WI","trendName":"Bayern","placeID":"2451822","placeName":"Milwaukee","searchUrl":"http:\/\/twitter.com\/search?q=Bayern","trendMapped":"bayern","trendVolume":340332},{"stateName":"WI","trendName":"Rubio","placeID":"2451822","placeName":"Milwaukee","searchUrl":"http:\/\/twitter.com\/search?q=Rubio","trendMapped":"rubio","trendVolume":518292},{"stateName":"XX","trendName":"#Budget2016","placeID":"23424977","placeName":"United States","searchUrl":"http:\/\/twitter.com\/search?q=%23Budget2016","trendMapped":"budget2016","trendVolume":282642},{"stateName":"XX","trendName":"#PrimaryDay","placeID":"23424977","placeName":"United States","searchUrl":"http:\/\/twitter.com\/search?q=%23PrimaryDay","trendMapped":"primary+day","trendVolume":408151},{"stateName":"XX","trendName":"Bayern","placeID":"23424977","placeName":"United States","searchUrl":"http:\/\/twitter.com\/search?q=Bayern","trendMapped":"bayern","trendVolume":289477}]