[{"stateName":"AL","trendName":"#MemeHistory","placeID":"2364559","placeName":"Birmingham","searchUrl":"http:\/\/twitter.com\/search?q=%23MemeHistory","trendMapped":"meme+history","trendVolume":897049},{"stateName":"AL","trendName":"#TrumpRally","placeID":"2364559","placeName":"Birmingham","searchUrl":"http:\/\/twitter.com\/search?q=%23TrumpRally","trendMapped":"trump+rally","trendVolume":662650},{"stateName":"AZ","trendName":"#MemeHistory","placeID":"2508428","placeName":"Tucson","searchUrl":"http:\/\/twitter.com\/search?q=%23MemeHistory","trendMapped":"meme+history","trendVolume":529146},{"stateName":"AZ","trendName":"#PorLaRenunciaDeMaduro","placeID":"2471390","placeName":"Phoenix","searchUrl":"http:\/\/twitter.com\/search?q=%23PorLaRenunciaDeMaduro","trendMapped":"por+la+renuncia+de+maduro","trendVolume":92747},{"stateName":"AZ","trendName":"#SLFLManila","placeID":"2508428","placeName":"Tucson","searchUrl":"http:\/\/twitter.com\/search?q=%23SLFLManila","trendMapped":"slfl+manila","trendVolume":325024},{"stateName":"AZ","trendName":"#TrumpRally","placeID":"2508428","placeName":"Tucson","searchUrl":"http:\/\/twitter.com\/search?q=%23TrumpRally","trendMapped":"trump+rally","trendVolume":532096},{"stateName":"AZ","trendName":"#TrumpRallyChi","placeID":"2508428","placeName":"Tucson","searchUrl":"http:\/\/twitter.com\/search?q=%23TrumpRallyChi","trendMapped":"trump+rally+chi","trendVolume":100117},{"stateName":"AZ","trendName":"CW STOP JASON ROTHENBERG","placeID":"2508428","placeName":"Tucson","searchUrl":"http:\/\/twitter.com\/search?q=%22CW+STOP+JASON+ROTHENBERG%22","trendMapped":"CW+STOP+JASON+ROTHENBERG","trendVolume":101252},{"stateName":"AZ","trendName":"Ciara","placeID":"2508428","placeName":"Tucson","searchUrl":"http:\/\/twitter.com\/search?q=Ciara","trendMapped":"ciara","trendVolume":203886},{"stateName":"AZ","trendName":"Getafe","placeID":"2508428","placeName":"Tucson","searchUrl":"http:\/\/twitter.com\/search?q=Getafe","trendMapped":"getafe","trendVolume":113171},{"stateName":"AZ","trendName":"Lukaku","placeID":"2508428","placeName":"Tucson","searchUrl":"http:\/\/twitter.com\/search?q=Lukaku","trendMapped":"lukaku","trendVolume":92330},{"stateName":"CA","trendName":"#MemeHistory","placeID":"2488042","placeName":"San Jose","searchUrl":"http:\/\/twitter.com\/search?q=%23MemeHistory","trendMapped":"meme+history","trendVolume":897049},{"stateName":"CA","trendName":"#PorLaRenunciaDeMaduro","placeID":"2487956","placeName":"San Francisco","searchUrl":"http:\/\/twitter.com\/search?q=%23PorLaRenunciaDeMaduro","trendMapped":"por+la+renuncia+de+maduro","trendVolume":92200},{"stateName":"CA","trendName":"#SLFLManila","placeID":"2488042","placeName":"San Jose","searchUrl":"http:\/\/twitter.com\/search?q=%23SLFLManila","trendMapped":"slfl+manila","trendVolume":339436},{"stateName":"CA","trendName":"#SXSW","placeID":"2487889","placeName":"San Diego","searchUrl":"http:\/\/twitter.com\/search?q=%23SXSW","trendMapped":"sxsw","trendVolume":88765},{"stateName":"CA","trendName":"#TrumpRally","placeID":"2488042","placeName":"San Jose","searchUrl":"http:\/\/twitter.com\/search?q=%23TrumpRally","trendMapped":"trump+rally","trendVolume":667117},{"stateName":"CA","trendName":"#TrumpRallyChi","placeID":"2488042","placeName":"San Jose","searchUrl":"http:\/\/twitter.com\/search?q=%23TrumpRallyChi","trendMapped":"trump+rally+chi","trendVolume":101865},{"stateName":"CA","trendName":"CW STOP JASON ROTHENBERG","placeID":"2488042","placeName":"San Jose","searchUrl":"http:\/\/twitter.com\/search?q=%22CW+STOP+JASON+ROTHENBERG%22","trendMapped":"CW+STOP+JASON+ROTHENBERG","trendVolume":106823},{"stateName":"CA","trendName":"Ciara","placeID":"2488042","placeName":"San Jose","searchUrl":"http:\/\/twitter.com\/search?q=Ciara","trendMapped":"ciara","trendVolume":207316},{"stateName":"CA","trendName":"Getafe","placeID":"2442047","placeName":"Los Angeles","searchUrl":"http:\/\/twitter.com\/search?q=Getafe","trendMapped":"getafe","trendVolume":113171},{"stateName":"CA","trendName":"Lukaku","placeID":"2487956","placeName":"San Francisco","searchUrl":"http:\/\/twitter.com\/search?q=Lukaku","trendMapped":"lukaku","trendVolume":90689},{"stateName":"CA","trendName":"M.O.M","placeID":"2487956","placeName":"San Francisco","searchUrl":"http:\/\/twitter.com\/search?q=M.O.M","trendMapped":"m.o.m","trendVolume":155318},{"stateName":"CA","trendName":"Messi","placeID":"2487956","placeName":"San Francisco","searchUrl":"http:\/\/twitter.com\/search?q=Messi","trendMapped":"messi","trendVolume":189917},{"stateName":"CO","trendName":"#MemeHistory","placeID":"2391279","placeName":"Denver","searchUrl":"http:\/\/twitter.com\/search?q=%23MemeHistory","trendMapped":"meme+history","trendVolume":556770},{"stateName":"CO","trendName":"#SLFLManila","placeID":"2383489","placeName":"Colorado Springs","searchUrl":"http:\/\/twitter.com\/search?q=%23SLFLManila","trendMapped":"slfl+manila","trendVolume":298516},{"stateName":"CO","trendName":"#TrumpRally","placeID":"2391279","placeName":"Denver","searchUrl":"http:\/\/twitter.com\/search?q=%23TrumpRally","trendMapped":"trump+rally","trendVolume":635436},{"stateName":"CO","trendName":"#TrumpRallyChi","placeID":"2391279","placeName":"Denver","searchUrl":"http:\/\/twitter.com\/search?q=%23TrumpRallyChi","trendMapped":"trump+rally+chi","trendVolume":98635},{"stateName":"CO","trendName":"Ciara","placeID":"2391279","placeName":"Denver","searchUrl":"http:\/\/twitter.com\/search?q=Ciara","trendMapped":"ciara","trendVolume":204861},{"stateName":"CO","trendName":"Getafe","placeID":"2383489","placeName":"Colorado Springs","searchUrl":"http:\/\/twitter.com\/search?q=Getafe","trendMapped":"getafe","trendVolume":106967},{"stateName":"CO","trendName":"Lukaku","placeID":"2391279","placeName":"Denver","searchUrl":"http:\/\/twitter.com\/search?q=Lukaku","trendMapped":"lukaku","trendVolume":90689},{"stateName":"CT","trendName":"#TrumpRally","placeID":"2458410","placeName":"New Haven","searchUrl":"http:\/\/twitter.com\/search?q=%23TrumpRally","trendMapped":"trump+rally","trendVolume":647745},{"stateName":"CT","trendName":"#TrumpRallyChi","placeID":"2458410","placeName":"New Haven","searchUrl":"http:\/\/twitter.com\/search?q=%23TrumpRallyChi","trendMapped":"trump+rally+chi","trendVolume":100117},{"stateName":"CT","trendName":"Ciara","placeID":"2458410","placeName":"New Haven","searchUrl":"http:\/\/twitter.com\/search?q=Ciara","trendMapped":"ciara","trendVolume":194624},{"stateName":"DC","trendName":"#SLFLManila","placeID":"2514815","placeName":"Washington","searchUrl":"http:\/\/twitter.com\/search?q=%23SLFLManila","trendMapped":"slfl+manila","trendVolume":318155},{"stateName":"DC","trendName":"Ciara","placeID":"2514815","placeName":"Washington","searchUrl":"http:\/\/twitter.com\/search?q=Ciara","trendMapped":"ciara","trendVolume":207316},{"stateName":"DC","trendName":"Getafe","placeID":"2514815","placeName":"Washington","searchUrl":"http:\/\/twitter.com\/search?q=Getafe","trendMapped":"getafe","trendVolume":108869},{"stateName":"DC","trendName":"Lukaku","placeID":"2514815","placeName":"Washington","searchUrl":"http:\/\/twitter.com\/search?q=Lukaku","trendMapped":"lukaku","trendVolume":96176},{"stateName":"FL","trendName":"#MemeHistory","placeID":"2503863","placeName":"Tampa","searchUrl":"http:\/\/twitter.com\/search?q=%23MemeHistory","trendMapped":"meme+history","trendVolume":900298},{"stateName":"FL","trendName":"#SLFLManila","placeID":"2466256","placeName":"Orlando","searchUrl":"http:\/\/twitter.com\/search?q=%23SLFLManila","trendMapped":"slfl+manila","trendVolume":339436},{"stateName":"FL","trendName":"#TrumpRally","placeID":"2503863","placeName":"Tampa","searchUrl":"http:\/\/twitter.com\/search?q=%23TrumpRally","trendMapped":"trump+rally","trendVolume":667117},{"stateName":"FL","trendName":"Ciara","placeID":"2450022","placeName":"Miami","searchUrl":"http:\/\/twitter.com\/search?q=Ciara","trendMapped":"ciara","trendVolume":284092},{"stateName":"FL","trendName":"Getafe","placeID":"2466256","placeName":"Orlando","searchUrl":"http:\/\/twitter.com\/search?q=Getafe","trendMapped":"getafe","trendVolume":109821},{"stateName":"FL","trendName":"Lukaku","placeID":"2466256","placeName":"Orlando","searchUrl":"http:\/\/twitter.com\/search?q=Lukaku","trendMapped":"lukaku","trendVolume":90689},{"stateName":"GA","trendName":"#MemeHistory","placeID":"2357024","placeName":"Atlanta","searchUrl":"http:\/\/twitter.com\/search?q=%23MemeHistory","trendMapped":"meme+history","trendVolume":524782},{"stateName":"GA","trendName":"#PorLaRenunciaDeMaduro","placeID":"2357024","placeName":"Atlanta","searchUrl":"http:\/\/twitter.com\/search?q=%23PorLaRenunciaDeMaduro","trendMapped":"por+la+renuncia+de+maduro","trendVolume":92747},{"stateName":"GA","trendName":"#SLFLManila","placeID":"2357024","placeName":"Atlanta","searchUrl":"http:\/\/twitter.com\/search?q=%23SLFLManila","trendMapped":"slfl+manila","trendVolume":318327},{"stateName":"GA","trendName":"#TrumpRally","placeID":"2357024","placeName":"Atlanta","searchUrl":"http:\/\/twitter.com\/search?q=%23TrumpRally","trendMapped":"trump+rally","trendVolume":402485},{"stateName":"GA","trendName":"#TrumpRallyChi","placeID":"2357024","placeName":"Atlanta","searchUrl":"http:\/\/twitter.com\/search?q=%23TrumpRallyChi","trendMapped":"trump+rally+chi","trendVolume":97234},{"stateName":"GA","trendName":"Ciara","placeID":"2357024","placeName":"Atlanta","searchUrl":"http:\/\/twitter.com\/search?q=Ciara","trendMapped":"ciara","trendVolume":206844},{"stateName":"GA","trendName":"Getafe","placeID":"2357024","placeName":"Atlanta","searchUrl":"http:\/\/twitter.com\/search?q=Getafe","trendMapped":"getafe","trendVolume":106967},{"stateName":"GA","trendName":"Lukaku","placeID":"2357024","placeName":"Atlanta","searchUrl":"http:\/\/twitter.com\/search?q=Lukaku","trendMapped":"lukaku","trendVolume":92330},{"stateName":"HI","trendName":"#MemeHistory","placeID":"2423945","placeName":"Honolulu","searchUrl":"http:\/\/twitter.com\/search?q=%23MemeHistory","trendMapped":"meme+history","trendVolume":529146},{"stateName":"HI","trendName":"#SLFLManila","placeID":"2423945","placeName":"Honolulu","searchUrl":"http:\/\/twitter.com\/search?q=%23SLFLManila","trendMapped":"slfl+manila","trendVolume":308398},{"stateName":"HI","trendName":"#Trump","placeID":"2423945","placeName":"Honolulu","searchUrl":"http:\/\/twitter.com\/search?q=%23Trump","trendMapped":"trump","trendVolume":210108},{"stateName":"HI","trendName":"#TrumpRally","placeID":"2423945","placeName":"Honolulu","searchUrl":"http:\/\/twitter.com\/search?q=%23TrumpRally","trendMapped":"trump+rally","trendVolume":337399},{"stateName":"HI","trendName":"America","placeID":"2423945","placeName":"Honolulu","searchUrl":"http:\/\/twitter.com\/search?q=America","trendMapped":"america","trendVolume":508216},{"stateName":"HI","trendName":"Ciara","placeID":"2423945","placeName":"Honolulu","searchUrl":"http:\/\/twitter.com\/search?q=Ciara","trendMapped":"ciara","trendVolume":206844},{"stateName":"IL","trendName":"#SLFLManila","placeID":"2379574","placeName":"Chicago","searchUrl":"http:\/\/twitter.com\/search?q=%23SLFLManila","trendMapped":"slfl+manila","trendVolume":318327},{"stateName":"IL","trendName":"#TrumpRally","placeID":"2379574","placeName":"Chicago","searchUrl":"http:\/\/twitter.com\/search?q=%23TrumpRally","trendMapped":"trump+rally","trendVolume":530737},{"stateName":"IL","trendName":"#TrumpRallyChi","placeID":"2379574","placeName":"Chicago","searchUrl":"http:\/\/twitter.com\/search?q=%23TrumpRallyChi","trendMapped":"trump+rally+chi","trendVolume":99878},{"stateName":"IL","trendName":"Ciara","placeID":"2379574","placeName":"Chicago","searchUrl":"http:\/\/twitter.com\/search?q=Ciara","trendMapped":"ciara","trendVolume":204039},{"stateName":"IN","trendName":"#GOPDebate","placeID":"2427032","placeName":"Indianapolis","searchUrl":"http:\/\/twitter.com\/search?q=%23GOPDebate","trendMapped":"gop+debate","trendVolume":874752},{"stateName":"IN","trendName":"#TrumpRally","placeID":"2427032","placeName":"Indianapolis","searchUrl":"http:\/\/twitter.com\/search?q=%23TrumpRally","trendMapped":"trump+rally","trendVolume":662650},{"stateName":"IN","trendName":"Ciara","placeID":"2427032","placeName":"Indianapolis","searchUrl":"http:\/\/twitter.com\/search?q=Ciara","trendMapped":"ciara","trendVolume":207316},{"stateName":"KY","trendName":"#MemeHistory","placeID":"2442327","placeName":"Louisville","searchUrl":"http:\/\/twitter.com\/search?q=%23MemeHistory","trendMapped":"meme+history","trendVolume":887267},{"stateName":"KY","trendName":"#TrumpRally","placeID":"2442327","placeName":"Louisville","searchUrl":"http:\/\/twitter.com\/search?q=%23TrumpRally","trendMapped":"trump+rally","trendVolume":662650},{"stateName":"KY","trendName":"Cats","placeID":"2442327","placeName":"Louisville","searchUrl":"http:\/\/twitter.com\/search?q=Cats","trendMapped":"cats","trendVolume":101058},{"stateName":"LA","trendName":"#MemeHistory","placeID":"2458833","placeName":"New Orleans","searchUrl":"http:\/\/twitter.com\/search?q=%23MemeHistory","trendMapped":"meme+history","trendVolume":900298},{"stateName":"LA","trendName":"#TrumpRally","placeID":"2458833","placeName":"New Orleans","searchUrl":"http:\/\/twitter.com\/search?q=%23TrumpRally","trendMapped":"trump+rally","trendVolume":656056},{"stateName":"MA","trendName":"#MemeHistory","placeID":"2367105","placeName":"Boston","searchUrl":"http:\/\/twitter.com\/search?q=%23MemeHistory","trendMapped":"meme+history","trendVolume":525770},{"stateName":"MA","trendName":"#SLFLManila","placeID":"2367105","placeName":"Boston","searchUrl":"http:\/\/twitter.com\/search?q=%23SLFLManila","trendMapped":"slfl+manila","trendVolume":312932},{"stateName":"MA","trendName":"#TripleThreat","placeID":"2367105","placeName":"Boston","searchUrl":"http:\/\/twitter.com\/search?q=%23TripleThreat","trendMapped":"triple+threat","trendVolume":1338452},{"stateName":"MA","trendName":"#TrumpRally","placeID":"2367105","placeName":"Boston","searchUrl":"http:\/\/twitter.com\/search?q=%23TrumpRally","trendMapped":"trump+rally","trendVolume":662539},{"stateName":"MA","trendName":"Lukaku","placeID":"2367105","placeName":"Boston","searchUrl":"http:\/\/twitter.com\/search?q=Lukaku","trendMapped":"lukaku","trendVolume":92330},{"stateName":"MD","trendName":"#BestFanArmy","placeID":"2358820","placeName":"Baltimore","searchUrl":"http:\/\/twitter.com\/search?q=%23BestFanArmy","trendMapped":"best+fan+army","trendVolume":2979830},{"stateName":"MD","trendName":"#Harmonizers","placeID":"2358820","placeName":"Baltimore","searchUrl":"http:\/\/twitter.com\/search?q=%23Harmonizers","trendMapped":"harmonizers","trendVolume":1450771},{"stateName":"MD","trendName":"#MemeHistory","placeID":"2358820","placeName":"Baltimore","searchUrl":"http:\/\/twitter.com\/search?q=%23MemeHistory","trendMapped":"meme+history","trendVolume":900298},{"stateName":"MD","trendName":"#TrumpRally","placeID":"2358820","placeName":"Baltimore","searchUrl":"http:\/\/twitter.com\/search?q=%23TrumpRally","trendMapped":"trump+rally","trendVolume":656056},{"stateName":"MI","trendName":"#MemeHistory","placeID":"2391585","placeName":"Detroit","searchUrl":"http:\/\/twitter.com\/search?q=%23MemeHistory","trendMapped":"meme+history","trendVolume":878707},{"stateName":"MI","trendName":"#TrumpRally","placeID":"2391585","placeName":"Detroit","searchUrl":"http:\/\/twitter.com\/search?q=%23TrumpRally","trendMapped":"trump+rally","trendVolume":661803},{"stateName":"MN","trendName":"#PorLaRenunciaDeMaduro","placeID":"2452078","placeName":"Minneapolis","searchUrl":"http:\/\/twitter.com\/search?q=%23PorLaRenunciaDeMaduro","trendMapped":"por+la+renuncia+de+maduro","trendVolume":90864},{"stateName":"MN","trendName":"#SXSW","placeID":"2452078","placeName":"Minneapolis","searchUrl":"http:\/\/twitter.com\/search?q=%23SXSW","trendMapped":"sxsw","trendVolume":89336},{"stateName":"MN","trendName":"#TrumpRally","placeID":"2452078","placeName":"Minneapolis","searchUrl":"http:\/\/twitter.com\/search?q=%23TrumpRally","trendMapped":"trump+rally","trendVolume":608654},{"stateName":"MN","trendName":"#TrumpRallyChi","placeID":"2452078","placeName":"Minneapolis","searchUrl":"http:\/\/twitter.com\/search?q=%23TrumpRallyChi","trendMapped":"trump+rally+chi","trendVolume":93773},{"stateName":"MN","trendName":"Ciara","placeID":"2452078","placeName":"Minneapolis","searchUrl":"http:\/\/twitter.com\/search?q=Ciara","trendMapped":"ciara","trendVolume":200603},{"stateName":"MO","trendName":"#PorLaRenunciaDeMaduro","placeID":"2486982","placeName":"St. Louis","searchUrl":"http:\/\/twitter.com\/search?q=%23PorLaRenunciaDeMaduro","trendMapped":"por+la+renuncia+de+maduro","trendVolume":90294},{"stateName":"MO","trendName":"#TrumpRally","placeID":"2486982","placeName":"St. Louis","searchUrl":"http:\/\/twitter.com\/search?q=%23TrumpRally","trendMapped":"trump+rally","trendVolume":638700},{"stateName":"MO","trendName":"#TrumpRallyChi","placeID":"2486982","placeName":"St. Louis","searchUrl":"http:\/\/twitter.com\/search?q=%23TrumpRallyChi","trendMapped":"trump+rally+chi","trendVolume":100117},{"stateName":"MO","trendName":"Ciara","placeID":"2486982","placeName":"St. Louis","searchUrl":"http:\/\/twitter.com\/search?q=Ciara","trendMapped":"ciara","trendVolume":206844},{"stateName":"MO","trendName":"Getafe","placeID":"2486982","placeName":"St. Louis","searchUrl":"http:\/\/twitter.com\/search?q=Getafe","trendMapped":"getafe","trendVolume":110833},{"stateName":"MO","trendName":"Lukaku","placeID":"2486982","placeName":"St. Louis","searchUrl":"http:\/\/twitter.com\/search?q=Lukaku","trendMapped":"lukaku","trendVolume":88360},{"stateName":"MS","trendName":"#MemeHistory","placeID":"2428184","placeName":"Jackson","searchUrl":"http:\/\/twitter.com\/search?q=%23MemeHistory","trendMapped":"meme+history","trendVolume":895876},{"stateName":"MS","trendName":"#TrumpRally","placeID":"2428184","placeName":"Jackson","searchUrl":"http:\/\/twitter.com\/search?q=%23TrumpRally","trendMapped":"trump+rally","trendVolume":656056},{"stateName":"NC","trendName":"#GOPDebate","placeID":"2378426","placeName":"Charlotte","searchUrl":"http:\/\/twitter.com\/search?q=%23GOPDebate","trendMapped":"gop+debate","trendVolume":880837},{"stateName":"NC","trendName":"#MemeHistory","placeID":"2478307","placeName":"Raleigh","searchUrl":"http:\/\/twitter.com\/search?q=%23MemeHistory","trendMapped":"meme+history","trendVolume":884692},{"stateName":"NC","trendName":"#SLFLManila","placeID":"2378426","placeName":"Charlotte","searchUrl":"http:\/\/twitter.com\/search?q=%23SLFLManila","trendMapped":"slfl+manila","trendVolume":325024},{"stateName":"NC","trendName":"#TrumpRally","placeID":"2478307","placeName":"Raleigh","searchUrl":"http:\/\/twitter.com\/search?q=%23TrumpRally","trendMapped":"trump+rally","trendVolume":667117},{"stateName":"NC","trendName":"Ciara","placeID":"2478307","placeName":"Raleigh","searchUrl":"http:\/\/twitter.com\/search?q=Ciara","trendMapped":"ciara","trendVolume":206844},{"stateName":"NC","trendName":"Getafe","placeID":"2378426","placeName":"Charlotte","searchUrl":"http:\/\/twitter.com\/search?q=Getafe","trendMapped":"getafe","trendVolume":109821},{"stateName":"NC","trendName":"M.O.M","placeID":"2378426","placeName":"Charlotte","searchUrl":"http:\/\/twitter.com\/search?q=M.O.M","trendMapped":"m.o.m","trendVolume":159444},{"stateName":"NE","trendName":"#TrumpRally","placeID":"2465512","placeName":"Omaha","searchUrl":"http:\/\/twitter.com\/search?q=%23TrumpRally","trendMapped":"trump+rally","trendVolume":662650},{"stateName":"NM","trendName":"#MemeHistory","placeID":"2352824","placeName":"Albuquerque","searchUrl":"http:\/\/twitter.com\/search?q=%23MemeHistory","trendMapped":"meme+history","trendVolume":527451},{"stateName":"NM","trendName":"#SLFLManila","placeID":"2352824","placeName":"Albuquerque","searchUrl":"http:\/\/twitter.com\/search?q=%23SLFLManila","trendMapped":"slfl+manila","trendVolume":320867},{"stateName":"NM","trendName":"#TrumpRally","placeID":"2352824","placeName":"Albuquerque","searchUrl":"http:\/\/twitter.com\/search?q=%23TrumpRally","trendMapped":"trump+rally","trendVolume":421894},{"stateName":"NM","trendName":"#TrumpRallyChi","placeID":"2352824","placeName":"Albuquerque","searchUrl":"http:\/\/twitter.com\/search?q=%23TrumpRallyChi","trendMapped":"trump+rally+chi","trendVolume":100117},{"stateName":"NM","trendName":"Ciara","placeID":"2352824","placeName":"Albuquerque","searchUrl":"http:\/\/twitter.com\/search?q=Ciara","trendMapped":"ciara","trendVolume":207316},{"stateName":"NV","trendName":"#BuyDangerousWomanOniTunes","placeID":"2436704","placeName":"Las Vegas","searchUrl":"http:\/\/twitter.com\/search?q=%23BuyDangerousWomanOniTunes","trendMapped":"buy+dangerous+woman+oni+tunes","trendVolume":316005},{"stateName":"NV","trendName":"#MemeHistory","placeID":"2436704","placeName":"Las Vegas","searchUrl":"http:\/\/twitter.com\/search?q=%23MemeHistory","trendMapped":"meme+history","trendVolume":525770},{"stateName":"NV","trendName":"#TrumpRally","placeID":"2436704","placeName":"Las Vegas","searchUrl":"http:\/\/twitter.com\/search?q=%23TrumpRally","trendMapped":"trump+rally","trendVolume":654674},{"stateName":"NY","trendName":"#MemeHistory","placeID":"2459115","placeName":"New York","searchUrl":"http:\/\/twitter.com\/search?q=%23MemeHistory","trendMapped":"meme+history","trendVolume":555865},{"stateName":"NY","trendName":"#PorLaRenunciaDeMaduro","placeID":"2459115","placeName":"New York","searchUrl":"http:\/\/twitter.com\/search?q=%23PorLaRenunciaDeMaduro","trendMapped":"por+la+renuncia+de+maduro","trendVolume":92747},{"stateName":"NY","trendName":"#SLFLManila","placeID":"2459115","placeName":"New York","searchUrl":"http:\/\/twitter.com\/search?q=%23SLFLManila","trendMapped":"slfl+manila","trendVolume":336116},{"stateName":"NY","trendName":"#TrumpRally","placeID":"2459115","placeName":"New York","searchUrl":"http:\/\/twitter.com\/search?q=%23TrumpRally","trendMapped":"trump+rally","trendVolume":419655},{"stateName":"NY","trendName":"#TrumpRallyChi","placeID":"2459115","placeName":"New York","searchUrl":"http:\/\/twitter.com\/search?q=%23TrumpRallyChi","trendMapped":"trump+rally+chi","trendVolume":86592},{"stateName":"NY","trendName":"Ciara","placeID":"2459115","placeName":"New York","searchUrl":"http:\/\/twitter.com\/search?q=Ciara","trendMapped":"ciara","trendVolume":200603},{"stateName":"NY","trendName":"Getafe","placeID":"2459115","placeName":"New York","searchUrl":"http:\/\/twitter.com\/search?q=Getafe","trendMapped":"getafe","trendVolume":113439},{"stateName":"OH","trendName":"#GOPDebate","placeID":"2380358","placeName":"Cincinnati","searchUrl":"http:\/\/twitter.com\/search?q=%23GOPDebate","trendMapped":"gop+debate","trendVolume":874752},{"stateName":"OH","trendName":"#MemeHistory","placeID":"2383660","placeName":"Columbus","searchUrl":"http:\/\/twitter.com\/search?q=%23MemeHistory","trendMapped":"meme+history","trendVolume":895876},{"stateName":"OH","trendName":"#PorLaRenunciaDeMaduro","placeID":"2381475","placeName":"Cleveland","searchUrl":"http:\/\/twitter.com\/search?q=%23PorLaRenunciaDeMaduro","trendMapped":"por+la+renuncia+de+maduro","trendVolume":88845},{"stateName":"OH","trendName":"#SLFLManila","placeID":"2383660","placeName":"Columbus","searchUrl":"http:\/\/twitter.com\/search?q=%23SLFLManila","trendMapped":"slfl+manila","trendVolume":333041},{"stateName":"OH","trendName":"#TrumpRally","placeID":"2383660","placeName":"Columbus","searchUrl":"http:\/\/twitter.com\/search?q=%23TrumpRally","trendMapped":"trump+rally","trendVolume":629298},{"stateName":"OH","trendName":"Ciara","placeID":"2381475","placeName":"Cleveland","searchUrl":"http:\/\/twitter.com\/search?q=Ciara","trendMapped":"ciara","trendVolume":200603},{"stateName":"OH","trendName":"Getafe","placeID":"2383660","placeName":"Columbus","searchUrl":"http:\/\/twitter.com\/search?q=Getafe","trendMapped":"getafe","trendVolume":107701},{"stateName":"OH","trendName":"Lukaku","placeID":"2383660","placeName":"Columbus","searchUrl":"http:\/\/twitter.com\/search?q=Lukaku","trendMapped":"lukaku","trendVolume":93493},{"stateName":"OK","trendName":"#MemeHistory","placeID":"2464592","placeName":"Oklahoma City","searchUrl":"http:\/\/twitter.com\/search?q=%23MemeHistory","trendMapped":"meme+history","trendVolume":897049},{"stateName":"OK","trendName":"#TrumpRally","placeID":"2464592","placeName":"Oklahoma City","searchUrl":"http:\/\/twitter.com\/search?q=%23TrumpRally","trendMapped":"trump+rally","trendVolume":645942},{"stateName":"OR","trendName":"#GOPDebate","placeID":"2475687","placeName":"Portland","searchUrl":"http:\/\/twitter.com\/search?q=%23GOPDebate","trendMapped":"gop+debate","trendVolume":874752},{"stateName":"OR","trendName":"#PorLaRenunciaDeMaduro","placeID":"2475687","placeName":"Portland","searchUrl":"http:\/\/twitter.com\/search?q=%23PorLaRenunciaDeMaduro","trendMapped":"por+la+renuncia+de+maduro","trendVolume":90294},{"stateName":"OR","trendName":"#SLFLManila","placeID":"2475687","placeName":"Portland","searchUrl":"http:\/\/twitter.com\/search?q=%23SLFLManila","trendMapped":"slfl+manila","trendVolume":298516},{"stateName":"OR","trendName":"#TrumpRally","placeID":"2475687","placeName":"Portland","searchUrl":"http:\/\/twitter.com\/search?q=%23TrumpRally","trendMapped":"trump+rally","trendVolume":667117},{"stateName":"OR","trendName":"Ciara","placeID":"2475687","placeName":"Portland","searchUrl":"http:\/\/twitter.com\/search?q=Ciara","trendMapped":"ciara","trendVolume":206844},{"stateName":"OR","trendName":"Getafe","placeID":"2475687","placeName":"Portland","searchUrl":"http:\/\/twitter.com\/search?q=Getafe","trendMapped":"getafe","trendVolume":108835},{"stateName":"PA","trendName":"#GOPDebate","placeID":"2418046","placeName":"Harrisburg","searchUrl":"http:\/\/twitter.com\/search?q=%23GOPDebate","trendMapped":"gop+debate","trendVolume":880837},{"stateName":"PA","trendName":"#MemeHistory","placeID":"2473224","placeName":"Pittsburgh","searchUrl":"http:\/\/twitter.com\/search?q=%23MemeHistory","trendMapped":"meme+history","trendVolume":897049},{"stateName":"PA","trendName":"#SLFLManila","placeID":"2471217","placeName":"Philadelphia","searchUrl":"http:\/\/twitter.com\/search?q=%23SLFLManila","trendMapped":"slfl+manila","trendVolume":333792},{"stateName":"PA","trendName":"#TrumpRally","placeID":"2473224","placeName":"Pittsburgh","searchUrl":"http:\/\/twitter.com\/search?q=%23TrumpRally","trendMapped":"trump+rally","trendVolume":667117},{"stateName":"PA","trendName":"#TrumpRallyChi","placeID":"2471217","placeName":"Philadelphia","searchUrl":"http:\/\/twitter.com\/search?q=%23TrumpRallyChi","trendMapped":"trump+rally+chi","trendVolume":97234},{"stateName":"PA","trendName":"Ciara","placeID":"2471217","placeName":"Philadelphia","searchUrl":"http:\/\/twitter.com\/search?q=Ciara","trendMapped":"ciara","trendVolume":203886},{"stateName":"RI","trendName":"#TrumpRally","placeID":"2477058","placeName":"Providence","searchUrl":"http:\/\/twitter.com\/search?q=%23TrumpRally","trendMapped":"trump+rally","trendVolume":641074},{"stateName":"TN","trendName":"#BuyDangerousWomanOniTunes","placeID":"2449323","placeName":"Memphis","searchUrl":"http:\/\/twitter.com\/search?q=%23BuyDangerousWomanOniTunes","trendMapped":"buy+dangerous+woman+oni+tunes","trendVolume":316483},{"stateName":"TN","trendName":"#MemeHistory","placeID":"2457170","placeName":"Nashville","searchUrl":"http:\/\/twitter.com\/search?q=%23MemeHistory","trendMapped":"meme+history","trendVolume":890835},{"stateName":"TN","trendName":"#SLFLManila","placeID":"2449323","placeName":"Memphis","searchUrl":"http:\/\/twitter.com\/search?q=%23SLFLManila","trendMapped":"slfl+manila","trendVolume":287814},{"stateName":"TN","trendName":"#TrumpRally","placeID":"2457170","placeName":"Nashville","searchUrl":"http:\/\/twitter.com\/search?q=%23TrumpRally","trendMapped":"trump+rally","trendVolume":662539},{"stateName":"TX","trendName":"#MemeHistory","placeID":"2487796","placeName":"San Antonio","searchUrl":"http:\/\/twitter.com\/search?q=%23MemeHistory","trendMapped":"meme+history","trendVolume":895876},{"stateName":"TX","trendName":"#PorLaRenunciaDeMaduro","placeID":"2388929","placeName":"Dallas-Ft. Worth","searchUrl":"http:\/\/twitter.com\/search?q=%23PorLaRenunciaDeMaduro","trendMapped":"por+la+renuncia+de+maduro","trendVolume":94022},{"stateName":"TX","trendName":"#SLFLManila","placeID":"2388929","placeName":"Dallas-Ft. Worth","searchUrl":"http:\/\/twitter.com\/search?q=%23SLFLManila","trendMapped":"slfl+manila","trendVolume":333041},{"stateName":"TX","trendName":"#TrumpRally","placeID":"2487796","placeName":"San Antonio","searchUrl":"http:\/\/twitter.com\/search?q=%23TrumpRally","trendMapped":"trump+rally","trendVolume":664965},{"stateName":"TX","trendName":"#TrumpRallyChi","placeID":"2388929","placeName":"Dallas-Ft. Worth","searchUrl":"http:\/\/twitter.com\/search?q=%23TrumpRallyChi","trendMapped":"trump+rally+chi","trendVolume":101063},{"stateName":"TX","trendName":"CW STOP JASON ROTHENBERG","placeID":"2487796","placeName":"San Antonio","searchUrl":"http:\/\/twitter.com\/search?q=%22CW+STOP+JASON+ROTHENBERG%22","trendMapped":"CW+STOP+JASON+ROTHENBERG","trendVolume":106823},{"stateName":"TX","trendName":"Ciara","placeID":"2388929","placeName":"Dallas-Ft. Worth","searchUrl":"http:\/\/twitter.com\/search?q=Ciara","trendMapped":"ciara","trendVolume":205827},{"stateName":"TX","trendName":"Getafe","placeID":"2388929","placeName":"Dallas-Ft. Worth","searchUrl":"http:\/\/twitter.com\/search?q=Getafe","trendMapped":"getafe","trendVolume":113439},{"stateName":"TX","trendName":"Lukaku","placeID":"2357536","placeName":"Austin","searchUrl":"http:\/\/twitter.com\/search?q=Lukaku","trendMapped":"lukaku","trendVolume":90689},{"stateName":"UT","trendName":"#BuyDangerousWomanOniTunes","placeID":"2487610","placeName":"Salt Lake City","searchUrl":"http:\/\/twitter.com\/search?q=%23BuyDangerousWomanOniTunes","trendMapped":"buy+dangerous+woman+oni+tunes","trendVolume":314517},{"stateName":"UT","trendName":"#GOPDebate","placeID":"2487610","placeName":"Salt Lake City","searchUrl":"http:\/\/twitter.com\/search?q=%23GOPDebate","trendMapped":"gop+debate","trendVolume":874752},{"stateName":"UT","trendName":"#TrumpRally","placeID":"2487610","placeName":"Salt Lake City","searchUrl":"http:\/\/twitter.com\/search?q=%23TrumpRally","trendMapped":"trump+rally","trendVolume":663459},{"stateName":"VA","trendName":"#MemeHistory","placeID":"2512636","placeName":"Virginia Beach","searchUrl":"http:\/\/twitter.com\/search?q=%23MemeHistory","trendMapped":"meme+history","trendVolume":900298},{"stateName":"VA","trendName":"#SLFLManila","placeID":"2460389","placeName":"Norfolk","searchUrl":"http:\/\/twitter.com\/search?q=%23SLFLManila","trendMapped":"slfl+manila","trendVolume":330002},{"stateName":"VA","trendName":"#TrumpRally","placeID":"2512636","placeName":"Virginia Beach","searchUrl":"http:\/\/twitter.com\/search?q=%23TrumpRally","trendMapped":"trump+rally","trendVolume":667117},{"stateName":"VA","trendName":"Ciara","placeID":"2512636","placeName":"Virginia Beach","searchUrl":"http:\/\/twitter.com\/search?q=Ciara","trendMapped":"ciara","trendVolume":208420},{"stateName":"VA","trendName":"Lukaku","placeID":"2512636","placeName":"Virginia Beach","searchUrl":"http:\/\/twitter.com\/search?q=Lukaku","trendMapped":"lukaku","trendVolume":90689},{"stateName":"WA","trendName":"#MemeHistory","placeID":"2490383","placeName":"Seattle","searchUrl":"http:\/\/twitter.com\/search?q=%23MemeHistory","trendMapped":"meme+history","trendVolume":382554},{"stateName":"WA","trendName":"#TrumpRally","placeID":"2490383","placeName":"Seattle","searchUrl":"http:\/\/twitter.com\/search?q=%23TrumpRally","trendMapped":"trump+rally","trendVolume":554200},{"stateName":"WA","trendName":"#TrumpRallyChi","placeID":"2490383","placeName":"Seattle","searchUrl":"http:\/\/twitter.com\/search?q=%23TrumpRallyChi","trendMapped":"trump+rally+chi","trendVolume":101063},{"stateName":"WA","trendName":"Ciara","placeID":"2490383","placeName":"Seattle","searchUrl":"http:\/\/twitter.com\/search?q=Ciara","trendMapped":"ciara","trendVolume":200603},{"stateName":"WI","trendName":"#MemeHistory","placeID":"2451822","placeName":"Milwaukee","searchUrl":"http:\/\/twitter.com\/search?q=%23MemeHistory","trendMapped":"meme+history","trendVolume":891026},{"stateName":"WI","trendName":"#TrumpRally","placeID":"2451822","placeName":"Milwaukee","searchUrl":"http:\/\/twitter.com\/search?q=%23TrumpRally","trendMapped":"trump+rally","trendVolume":667117},{"stateName":"XX","trendName":"#SLFLManila","placeID":"23424977","placeName":"United States","searchUrl":"http:\/\/twitter.com\/search?q=%23SLFLManila","trendMapped":"slfl+manila","trendVolume":320867},{"stateName":"XX","trendName":"#TrumpRally","placeID":"23424977","placeName":"United States","searchUrl":"http:\/\/twitter.com\/search?q=%23TrumpRally","trendMapped":"trump+rally","trendVolume":385197},{"stateName":"XX","trendName":"#TrumpRallyChi","placeID":"23424977","placeName":"United States","searchUrl":"http:\/\/twitter.com\/search?q=%23TrumpRallyChi","trendMapped":"trump+rally+chi","trendVolume":93773},{"stateName":"XX","trendName":"Ciara","placeID":"23424977","placeName":"United States","searchUrl":"http:\/\/twitter.com\/search?q=Ciara","trendMapped":"ciara","trendVolume":194624}]