[{"stateName":"AL","trendName":"Easter","placeID":"2364559","placeName":"Birmingham","searchUrl":"http:\/\/twitter.com\/search?q=Easter","trendMapped":"easter","trendVolume":1569167},{"stateName":"AL","trendName":"Happy Easter","placeID":"2364559","placeName":"Birmingham","searchUrl":"http:\/\/twitter.com\/search?q=%22Happy+Easter%22","trendMapped":"Happy+Easter","trendVolume":3172491},{"stateName":"AZ","trendName":"#HIcaucus","placeID":"2508428","placeName":"Tucson","searchUrl":"http:\/\/twitter.com\/search?q=%23HIcaucus","trendMapped":"h+icaucus","trendVolume":92417},{"stateName":"AZ","trendName":"Buddy Hield","placeID":"2508428","placeName":"Tucson","searchUrl":"http:\/\/twitter.com\/search?q=%22Buddy+Hield%22","trendMapped":"Buddy+Hield","trendVolume":85893},{"stateName":"AZ","trendName":"Easter","placeID":"2471390","placeName":"Phoenix","searchUrl":"http:\/\/twitter.com\/search?q=Easter","trendMapped":"easter","trendVolume":1518476},{"stateName":"AZ","trendName":"England","placeID":"2508428","placeName":"Tucson","searchUrl":"http:\/\/twitter.com\/search?q=England","trendMapped":"england","trendVolume":485997},{"stateName":"AZ","trendName":"Happy Easter","placeID":"2508428","placeName":"Tucson","searchUrl":"http:\/\/twitter.com\/search?q=%22Happy+Easter%22","trendMapped":"Happy+Easter","trendVolume":3345425},{"stateName":"AZ","trendName":"WE CAN HARMOS","placeID":"2449808","placeName":"Mesa","searchUrl":"http:\/\/twitter.com\/search?q=%22WE+CAN+HARMOS%22","trendMapped":"WE+CAN+HARMOS","trendVolume":1019571},{"stateName":"CA","trendName":"#HIcaucus","placeID":"2487956","placeName":"San Francisco","searchUrl":"http:\/\/twitter.com\/search?q=%23HIcaucus","trendMapped":"h+icaucus","trendVolume":92417},{"stateName":"CA","trendName":"#Pakistan","placeID":"2487956","placeName":"San Francisco","searchUrl":"http:\/\/twitter.com\/search?q=%23Pakistan","trendMapped":"pakistan","trendVolume":259476},{"stateName":"CA","trendName":"#PrayForPakistan","placeID":"2488042","placeName":"San Jose","searchUrl":"http:\/\/twitter.com\/search?q=%23PrayForPakistan","trendMapped":"pray+for+pakistan","trendVolume":146309},{"stateName":"CA","trendName":"Buddy Hield","placeID":"2487956","placeName":"San Francisco","searchUrl":"http:\/\/twitter.com\/search?q=%22Buddy+Hield%22","trendMapped":"Buddy+Hield","trendVolume":85893},{"stateName":"CA","trendName":"Easter","placeID":"2487889","placeName":"San Diego","searchUrl":"http:\/\/twitter.com\/search?q=Easter","trendMapped":"easter","trendVolume":1805214},{"stateName":"CA","trendName":"England","placeID":"2488042","placeName":"San Jose","searchUrl":"http:\/\/twitter.com\/search?q=England","trendMapped":"england","trendVolume":486531},{"stateName":"CA","trendName":"Happy Easter","placeID":"2488042","placeName":"San Jose","searchUrl":"http:\/\/twitter.com\/search?q=%22Happy+Easter%22","trendMapped":"Happy+Easter","trendVolume":3469301},{"stateName":"CA","trendName":"Lahore","placeID":"2488042","placeName":"San Jose","searchUrl":"http:\/\/twitter.com\/search?q=Lahore","trendMapped":"lahore","trendVolume":414430},{"stateName":"CA","trendName":"WE CAN HARMOS","placeID":"2488042","placeName":"San Jose","searchUrl":"http:\/\/twitter.com\/search?q=%22WE+CAN+HARMOS%22","trendMapped":"WE+CAN+HARMOS","trendVolume":1036929},{"stateName":"CO","trendName":"#HIcaucus","placeID":"2383489","placeName":"Colorado Springs","searchUrl":"http:\/\/twitter.com\/search?q=%23HIcaucus","trendMapped":"h+icaucus","trendVolume":92417},{"stateName":"CO","trendName":"Buddy Hield","placeID":"2391279","placeName":"Denver","searchUrl":"http:\/\/twitter.com\/search?q=%22Buddy+Hield%22","trendMapped":"Buddy+Hield","trendVolume":80121},{"stateName":"CO","trendName":"Easter","placeID":"2391279","placeName":"Denver","searchUrl":"http:\/\/twitter.com\/search?q=Easter","trendMapped":"easter","trendVolume":1643836},{"stateName":"CO","trendName":"England","placeID":"2391279","placeName":"Denver","searchUrl":"http:\/\/twitter.com\/search?q=England","trendMapped":"england","trendVolume":486155},{"stateName":"CO","trendName":"Happy Easter","placeID":"2391279","placeName":"Denver","searchUrl":"http:\/\/twitter.com\/search?q=%22Happy+Easter%22","trendMapped":"Happy+Easter","trendVolume":3308988},{"stateName":"CO","trendName":"WE CAN HARMOS","placeID":"2383489","placeName":"Colorado Springs","searchUrl":"http:\/\/twitter.com\/search?q=%22WE+CAN+HARMOS%22","trendMapped":"WE+CAN+HARMOS","trendVolume":1066751},{"stateName":"CT","trendName":"Easter","placeID":"2458410","placeName":"New Haven","searchUrl":"http:\/\/twitter.com\/search?q=Easter","trendMapped":"easter","trendVolume":1313911},{"stateName":"CT","trendName":"England","placeID":"2458410","placeName":"New Haven","searchUrl":"http:\/\/twitter.com\/search?q=England","trendMapped":"england","trendVolume":478745},{"stateName":"CT","trendName":"Happy Easter","placeID":"2458410","placeName":"New Haven","searchUrl":"http:\/\/twitter.com\/search?q=%22Happy+Easter%22","trendMapped":"Happy+Easter","trendVolume":3377761},{"stateName":"DC","trendName":"#HIcaucus","placeID":"2514815","placeName":"Washington","searchUrl":"http:\/\/twitter.com\/search?q=%23HIcaucus","trendMapped":"h+icaucus","trendVolume":92417},{"stateName":"DC","trendName":"Buddy Hield","placeID":"2514815","placeName":"Washington","searchUrl":"http:\/\/twitter.com\/search?q=%22Buddy+Hield%22","trendMapped":"Buddy+Hield","trendVolume":85893},{"stateName":"DC","trendName":"Easter","placeID":"2514815","placeName":"Washington","searchUrl":"http:\/\/twitter.com\/search?q=Easter","trendMapped":"easter","trendVolume":4655541},{"stateName":"DC","trendName":"England","placeID":"2514815","placeName":"Washington","searchUrl":"http:\/\/twitter.com\/search?q=England","trendMapped":"england","trendVolume":486531},{"stateName":"DC","trendName":"Happy Easter","placeID":"2514815","placeName":"Washington","searchUrl":"http:\/\/twitter.com\/search?q=%22Happy+Easter%22","trendMapped":"Happy+Easter","trendVolume":2535764},{"stateName":"DC","trendName":"Pakistan","placeID":"2514815","placeName":"Washington","searchUrl":"http:\/\/twitter.com\/search?q=Pakistan","trendMapped":"pakistan","trendVolume":905536},{"stateName":"DC","trendName":"WE CAN HARMOS","placeID":"2514815","placeName":"Washington","searchUrl":"http:\/\/twitter.com\/search?q=%22WE+CAN+HARMOS%22","trendMapped":"WE+CAN+HARMOS","trendVolume":952553},{"stateName":"FL","trendName":"#BatmanvSuperman","placeID":"2503863","placeName":"Tampa","searchUrl":"http:\/\/twitter.com\/search?q=%23BatmanvSuperman","trendMapped":"batmanv+superman","trendVolume":159494},{"stateName":"FL","trendName":"#HistoriaTristeEn3Palabras","placeID":"2466256","placeName":"Orlando","searchUrl":"http:\/\/twitter.com\/search?q=%23HistoriaTristeEn3Palabras","trendMapped":"historia+triste+en3+palabras","trendVolume":77330},{"stateName":"FL","trendName":"Buddy Hield","placeID":"2503863","placeName":"Tampa","searchUrl":"http:\/\/twitter.com\/search?q=%22Buddy+Hield%22","trendMapped":"Buddy+Hield","trendVolume":84155},{"stateName":"FL","trendName":"Easter","placeID":"2503713","placeName":"Tallahassee","searchUrl":"http:\/\/twitter.com\/search?q=Easter","trendMapped":"easter","trendVolume":4702139},{"stateName":"FL","trendName":"England","placeID":"2503863","placeName":"Tampa","searchUrl":"http:\/\/twitter.com\/search?q=England","trendMapped":"england","trendVolume":486531},{"stateName":"FL","trendName":"Happy Easter","placeID":"2503863","placeName":"Tampa","searchUrl":"http:\/\/twitter.com\/search?q=%22Happy+Easter%22","trendMapped":"Happy+Easter","trendVolume":3469301},{"stateName":"GA","trendName":"Buddy Hield","placeID":"2357024","placeName":"Atlanta","searchUrl":"http:\/\/twitter.com\/search?q=%22Buddy+Hield%22","trendMapped":"Buddy+Hield","trendVolume":82692},{"stateName":"GA","trendName":"Easter","placeID":"2357024","placeName":"Atlanta","searchUrl":"http:\/\/twitter.com\/search?q=Easter","trendMapped":"easter","trendVolume":1067370},{"stateName":"GA","trendName":"England","placeID":"2357024","placeName":"Atlanta","searchUrl":"http:\/\/twitter.com\/search?q=England","trendMapped":"england","trendVolume":479935},{"stateName":"GA","trendName":"Happy Easter","placeID":"2357024","placeName":"Atlanta","searchUrl":"http:\/\/twitter.com\/search?q=%22Happy+Easter%22","trendMapped":"Happy+Easter","trendVolume":3033335},{"stateName":"HI","trendName":"Easter","placeID":"2423945","placeName":"Honolulu","searchUrl":"http:\/\/twitter.com\/search?q=Easter","trendMapped":"easter","trendVolume":1510260},{"stateName":"HI","trendName":"Happy Easter","placeID":"2423945","placeName":"Honolulu","searchUrl":"http:\/\/twitter.com\/search?q=%22Happy+Easter%22","trendMapped":"Happy+Easter","trendVolume":3281395},{"stateName":"IL","trendName":"#BatmanvSuperman","placeID":"2379574","placeName":"Chicago","searchUrl":"http:\/\/twitter.com\/search?q=%23BatmanvSuperman","trendMapped":"batmanv+superman","trendVolume":161807},{"stateName":"IL","trendName":"#HIcaucus","placeID":"2379574","placeName":"Chicago","searchUrl":"http:\/\/twitter.com\/search?q=%23HIcaucus","trendMapped":"h+icaucus","trendVolume":88591},{"stateName":"IL","trendName":"Buddy Hield","placeID":"2379574","placeName":"Chicago","searchUrl":"http:\/\/twitter.com\/search?q=%22Buddy+Hield%22","trendMapped":"Buddy+Hield","trendVolume":79320},{"stateName":"IL","trendName":"England","placeID":"2379574","placeName":"Chicago","searchUrl":"http:\/\/twitter.com\/search?q=England","trendMapped":"england","trendVolume":486155},{"stateName":"IL","trendName":"Happy Easter","placeID":"2379574","placeName":"Chicago","searchUrl":"http:\/\/twitter.com\/search?q=%22Happy+Easter%22","trendMapped":"Happy+Easter","trendVolume":3216956},{"stateName":"IN","trendName":"#BatmanvSuperman","placeID":"2427032","placeName":"Indianapolis","searchUrl":"http:\/\/twitter.com\/search?q=%23BatmanvSuperman","trendMapped":"batmanv+superman","trendVolume":169134},{"stateName":"IN","trendName":"#HIcaucus","placeID":"2427032","placeName":"Indianapolis","searchUrl":"http:\/\/twitter.com\/search?q=%23HIcaucus","trendMapped":"h+icaucus","trendVolume":86710},{"stateName":"IN","trendName":"Easter","placeID":"2427032","placeName":"Indianapolis","searchUrl":"http:\/\/twitter.com\/search?q=Easter","trendMapped":"easter","trendVolume":1584885},{"stateName":"IN","trendName":"England","placeID":"2427032","placeName":"Indianapolis","searchUrl":"http:\/\/twitter.com\/search?q=England","trendMapped":"england","trendVolume":486155},{"stateName":"IN","trendName":"Happy Easter","placeID":"2427032","placeName":"Indianapolis","searchUrl":"http:\/\/twitter.com\/search?q=%22Happy+Easter%22","trendMapped":"Happy+Easter","trendVolume":3408641},{"stateName":"IN","trendName":"WE CAN HARMOS","placeID":"2427032","placeName":"Indianapolis","searchUrl":"http:\/\/twitter.com\/search?q=%22WE+CAN+HARMOS%22","trendMapped":"WE+CAN+HARMOS","trendVolume":1045803},{"stateName":"KY","trendName":"Buddy Hield","placeID":"2442327","placeName":"Louisville","searchUrl":"http:\/\/twitter.com\/search?q=%22Buddy+Hield%22","trendMapped":"Buddy+Hield","trendVolume":85893},{"stateName":"KY","trendName":"Easter","placeID":"2442327","placeName":"Louisville","searchUrl":"http:\/\/twitter.com\/search?q=Easter","trendMapped":"easter","trendVolume":1667969},{"stateName":"KY","trendName":"Happy Easter","placeID":"2442327","placeName":"Louisville","searchUrl":"http:\/\/twitter.com\/search?q=%22Happy+Easter%22","trendMapped":"Happy+Easter","trendVolume":3437509},{"stateName":"LA","trendName":"#HappyEaster","placeID":"2458833","placeName":"New Orleans","searchUrl":"http:\/\/twitter.com\/search?q=%23HappyEaster","trendMapped":"happy+easter","trendVolume":223361},{"stateName":"LA","trendName":"Easter","placeID":"2458833","placeName":"New Orleans","searchUrl":"http:\/\/twitter.com\/search?q=Easter","trendMapped":"easter","trendVolume":1990671},{"stateName":"LA","trendName":"Happy Easter","placeID":"2458833","placeName":"New Orleans","searchUrl":"http:\/\/twitter.com\/search?q=%22Happy+Easter%22","trendMapped":"Happy+Easter","trendVolume":3230588},{"stateName":"MA","trendName":"#BestFanArmy","placeID":"2367105","placeName":"Boston","searchUrl":"http:\/\/twitter.com\/search?q=%23BestFanArmy","trendMapped":"best+fan+army","trendVolume":9371148},{"stateName":"MA","trendName":"Buddy Hield","placeID":"2367105","placeName":"Boston","searchUrl":"http:\/\/twitter.com\/search?q=%22Buddy+Hield%22","trendMapped":"Buddy+Hield","trendVolume":85011},{"stateName":"MA","trendName":"England","placeID":"2367105","placeName":"Boston","searchUrl":"http:\/\/twitter.com\/search?q=England","trendMapped":"england","trendVolume":478179},{"stateName":"MA","trendName":"Happy Easter","placeID":"2367105","placeName":"Boston","searchUrl":"http:\/\/twitter.com\/search?q=%22Happy+Easter%22","trendMapped":"Happy+Easter","trendVolume":3377761},{"stateName":"MA","trendName":"WE CAN HARMOS","placeID":"2367105","placeName":"Boston","searchUrl":"http:\/\/twitter.com\/search?q=%22WE+CAN+HARMOS%22","trendMapped":"WE+CAN+HARMOS","trendVolume":939016},{"stateName":"MD","trendName":"#CruzSexScandal","placeID":"2358820","placeName":"Baltimore","searchUrl":"http:\/\/twitter.com\/search?q=%23CruzSexScandal","trendMapped":"cruz+sex+scandal","trendVolume":223683},{"stateName":"MD","trendName":"Easter","placeID":"2358820","placeName":"Baltimore","searchUrl":"http:\/\/twitter.com\/search?q=Easter","trendMapped":"easter","trendVolume":5785989},{"stateName":"MD","trendName":"Happy Easter","placeID":"2358820","placeName":"Baltimore","searchUrl":"http:\/\/twitter.com\/search?q=%22Happy+Easter%22","trendMapped":"Happy+Easter","trendVolume":3216956},{"stateName":"MI","trendName":"Buddy Hield","placeID":"2391585","placeName":"Detroit","searchUrl":"http:\/\/twitter.com\/search?q=%22Buddy+Hield%22","trendMapped":"Buddy+Hield","trendVolume":81751},{"stateName":"MI","trendName":"Easter","placeID":"2391585","placeName":"Detroit","searchUrl":"http:\/\/twitter.com\/search?q=Easter","trendMapped":"easter","trendVolume":1123701},{"stateName":"MI","trendName":"Happy Easter","placeID":"2391585","placeName":"Detroit","searchUrl":"http:\/\/twitter.com\/search?q=%22Happy+Easter%22","trendMapped":"Happy+Easter","trendVolume":3256280},{"stateName":"MI","trendName":"WE CAN HARMOS","placeID":"2391585","placeName":"Detroit","searchUrl":"http:\/\/twitter.com\/search?q=%22WE+CAN+HARMOS%22","trendMapped":"WE+CAN+HARMOS","trendVolume":1032634},{"stateName":"MN","trendName":"#HIcaucus","placeID":"2452078","placeName":"Minneapolis","searchUrl":"http:\/\/twitter.com\/search?q=%23HIcaucus","trendMapped":"h+icaucus","trendVolume":102332},{"stateName":"MN","trendName":"Easter","placeID":"2452078","placeName":"Minneapolis","searchUrl":"http:\/\/twitter.com\/search?q=Easter","trendMapped":"easter","trendVolume":1757349},{"stateName":"MN","trendName":"England","placeID":"2452078","placeName":"Minneapolis","searchUrl":"http:\/\/twitter.com\/search?q=England","trendMapped":"england","trendVolume":478179},{"stateName":"MN","trendName":"Happy Easter","placeID":"2452078","placeName":"Minneapolis","searchUrl":"http:\/\/twitter.com\/search?q=%22Happy+Easter%22","trendMapped":"Happy+Easter","trendVolume":3408641},{"stateName":"MN","trendName":"WAKE UP HARMOS","placeID":"2452078","placeName":"Minneapolis","searchUrl":"http:\/\/twitter.com\/search?q=%22WAKE+UP+HARMOS%22","trendMapped":"WAKE+UP+HARMOS","trendVolume":162075},{"stateName":"MO","trendName":"Buddy Hield","placeID":"2430683","placeName":"Kansas City","searchUrl":"http:\/\/twitter.com\/search?q=%22Buddy+Hield%22","trendMapped":"Buddy+Hield","trendVolume":83286},{"stateName":"MO","trendName":"Easter","placeID":"2486982","placeName":"St. Louis","searchUrl":"http:\/\/twitter.com\/search?q=Easter","trendMapped":"easter","trendVolume":5045110},{"stateName":"MO","trendName":"England","placeID":"2430683","placeName":"Kansas City","searchUrl":"http:\/\/twitter.com\/search?q=England","trendMapped":"england","trendVolume":486155},{"stateName":"MO","trendName":"Happy Easter","placeID":"2486982","placeName":"St. Louis","searchUrl":"http:\/\/twitter.com\/search?q=%22Happy+Easter%22","trendMapped":"Happy+Easter","trendVolume":3308988},{"stateName":"MS","trendName":"Easter","placeID":"2428184","placeName":"Jackson","searchUrl":"http:\/\/twitter.com\/search?q=Easter","trendMapped":"easter","trendVolume":1976266},{"stateName":"MS","trendName":"Happy Easter","placeID":"2428184","placeName":"Jackson","searchUrl":"http:\/\/twitter.com\/search?q=%22Happy+Easter%22","trendMapped":"Happy+Easter","trendVolume":3469301},{"stateName":"NC","trendName":"#HIcaucus","placeID":"2378426","placeName":"Charlotte","searchUrl":"http:\/\/twitter.com\/search?q=%23HIcaucus","trendMapped":"h+icaucus","trendVolume":86710},{"stateName":"NC","trendName":"Buddy Hield","placeID":"2378426","placeName":"Charlotte","searchUrl":"http:\/\/twitter.com\/search?q=%22Buddy+Hield%22","trendMapped":"Buddy+Hield","trendVolume":85893},{"stateName":"NC","trendName":"Easter","placeID":"2478307","placeName":"Raleigh","searchUrl":"http:\/\/twitter.com\/search?q=Easter","trendMapped":"easter","trendVolume":1769291},{"stateName":"NC","trendName":"England","placeID":"2378426","placeName":"Charlotte","searchUrl":"http:\/\/twitter.com\/search?q=England","trendMapped":"england","trendVolume":486531},{"stateName":"NC","trendName":"Happy Easter","placeID":"2478307","placeName":"Raleigh","searchUrl":"http:\/\/twitter.com\/search?q=%22Happy+Easter%22","trendMapped":"Happy+Easter","trendVolume":3412243},{"stateName":"NE","trendName":"#BatmanvSuperman","placeID":"2465512","placeName":"Omaha","searchUrl":"http:\/\/twitter.com\/search?q=%23BatmanvSuperman","trendMapped":"batmanv+superman","trendVolume":160093},{"stateName":"NE","trendName":"#MaiChardForMagnoliaIceCream","placeID":"2465512","placeName":"Omaha","searchUrl":"http:\/\/twitter.com\/search?q=%23MaiChardForMagnoliaIceCream","trendMapped":"mai+chard+for+magnolia+ice+cream","trendVolume":236231},{"stateName":"NE","trendName":"Clinton","placeID":"2465512","placeName":"Omaha","searchUrl":"http:\/\/twitter.com\/search?q=Clinton","trendMapped":"clinton","trendVolume":187750},{"stateName":"NE","trendName":"Easter","placeID":"2465512","placeName":"Omaha","searchUrl":"http:\/\/twitter.com\/search?q=Easter","trendMapped":"easter","trendVolume":1233459},{"stateName":"NE","trendName":"Happy Easter","placeID":"2465512","placeName":"Omaha","searchUrl":"http:\/\/twitter.com\/search?q=%22Happy+Easter%22","trendMapped":"Happy+Easter","trendVolume":3412243},{"stateName":"NM","trendName":"#HIcaucus","placeID":"2352824","placeName":"Albuquerque","searchUrl":"http:\/\/twitter.com\/search?q=%23HIcaucus","trendMapped":"h+icaucus","trendVolume":86710},{"stateName":"NM","trendName":"#PrayForPakistan","placeID":"2352824","placeName":"Albuquerque","searchUrl":"http:\/\/twitter.com\/search?q=%23PrayForPakistan","trendMapped":"pray+for+pakistan","trendVolume":144098},{"stateName":"NM","trendName":"Buddy Hield","placeID":"2352824","placeName":"Albuquerque","searchUrl":"http:\/\/twitter.com\/search?q=%22Buddy+Hield%22","trendMapped":"Buddy+Hield","trendVolume":79964},{"stateName":"NM","trendName":"England","placeID":"2352824","placeName":"Albuquerque","searchUrl":"http:\/\/twitter.com\/search?q=England","trendMapped":"england","trendVolume":482453},{"stateName":"NM","trendName":"Happy Easter","placeID":"2352824","placeName":"Albuquerque","searchUrl":"http:\/\/twitter.com\/search?q=%22Happy+Easter%22","trendMapped":"Happy+Easter","trendVolume":3269004},{"stateName":"NV","trendName":"#HIcaucus","placeID":"2436704","placeName":"Las Vegas","searchUrl":"http:\/\/twitter.com\/search?q=%23HIcaucus","trendMapped":"h+icaucus","trendVolume":88591},{"stateName":"NV","trendName":"Easter","placeID":"2436704","placeName":"Las Vegas","searchUrl":"http:\/\/twitter.com\/search?q=Easter","trendMapped":"easter","trendVolume":1475097},{"stateName":"NV","trendName":"England","placeID":"2436704","placeName":"Las Vegas","searchUrl":"http:\/\/twitter.com\/search?q=England","trendMapped":"england","trendVolume":485997},{"stateName":"NV","trendName":"Happy Easter","placeID":"2436704","placeName":"Las Vegas","searchUrl":"http:\/\/twitter.com\/search?q=%22Happy+Easter%22","trendMapped":"Happy+Easter","trendVolume":2356965},{"stateName":"NY","trendName":"Buddy Hield","placeID":"2459115","placeName":"New York","searchUrl":"http:\/\/twitter.com\/search?q=%22Buddy+Hield%22","trendMapped":"Buddy+Hield","trendVolume":84348},{"stateName":"NY","trendName":"England","placeID":"2459115","placeName":"New York","searchUrl":"http:\/\/twitter.com\/search?q=England","trendMapped":"england","trendVolume":486155},{"stateName":"NY","trendName":"Happy Easter","placeID":"2459115","placeName":"New York","searchUrl":"http:\/\/twitter.com\/search?q=%22Happy+Easter%22","trendMapped":"Happy+Easter","trendVolume":3013083},{"stateName":"OH","trendName":"Easter","placeID":"2383660","placeName":"Columbus","searchUrl":"http:\/\/twitter.com\/search?q=Easter","trendMapped":"easter","trendVolume":1267845},{"stateName":"OH","trendName":"Happy Easter","placeID":"2383660","placeName":"Columbus","searchUrl":"http:\/\/twitter.com\/search?q=%22Happy+Easter%22","trendMapped":"Happy+Easter","trendVolume":3216956},{"stateName":"OH","trendName":"Pakistan","placeID":"2381475","placeName":"Cleveland","searchUrl":"http:\/\/twitter.com\/search?q=Pakistan","trendMapped":"pakistan","trendVolume":901174},{"stateName":"OH","trendName":"WE CAN HARMOS","placeID":"2381475","placeName":"Cleveland","searchUrl":"http:\/\/twitter.com\/search?q=%22WE+CAN+HARMOS%22","trendMapped":"WE+CAN+HARMOS","trendVolume":1052026},{"stateName":"OK","trendName":"Buddy","placeID":"2464592","placeName":"Oklahoma City","searchUrl":"http:\/\/twitter.com\/search?q=Buddy","trendMapped":"buddy","trendVolume":174608},{"stateName":"OK","trendName":"England","placeID":"2464592","placeName":"Oklahoma City","searchUrl":"http:\/\/twitter.com\/search?q=England","trendMapped":"england","trendVolume":482453},{"stateName":"OK","trendName":"Happy Easter","placeID":"2464592","placeName":"Oklahoma City","searchUrl":"http:\/\/twitter.com\/search?q=%22Happy+Easter%22","trendMapped":"Happy+Easter","trendVolume":3408641},{"stateName":"OR","trendName":"Easter","placeID":"2475687","placeName":"Portland","searchUrl":"http:\/\/twitter.com\/search?q=Easter","trendMapped":"easter","trendVolume":1368994},{"stateName":"OR","trendName":"Happy Easter","placeID":"2475687","placeName":"Portland","searchUrl":"http:\/\/twitter.com\/search?q=%22Happy+Easter%22","trendMapped":"Happy+Easter","trendVolume":3428047},{"stateName":"PA","trendName":"Buddy Hield","placeID":"2471217","placeName":"Philadelphia","searchUrl":"http:\/\/twitter.com\/search?q=%22Buddy+Hield%22","trendMapped":"Buddy+Hield","trendVolume":85893},{"stateName":"PA","trendName":"Easter","placeID":"2473224","placeName":"Pittsburgh","searchUrl":"http:\/\/twitter.com\/search?q=Easter","trendMapped":"easter","trendVolume":1646534},{"stateName":"PA","trendName":"England","placeID":"2471217","placeName":"Philadelphia","searchUrl":"http:\/\/twitter.com\/search?q=England","trendMapped":"england","trendVolume":484725},{"stateName":"PA","trendName":"Happy Easter","placeID":"2473224","placeName":"Pittsburgh","searchUrl":"http:\/\/twitter.com\/search?q=%22Happy+Easter%22","trendMapped":"Happy+Easter","trendVolume":3469301},{"stateName":"RI","trendName":"Easter","placeID":"2477058","placeName":"Providence","searchUrl":"http:\/\/twitter.com\/search?q=Easter","trendMapped":"easter","trendVolume":5807889},{"stateName":"RI","trendName":"Happy Easter","placeID":"2477058","placeName":"Providence","searchUrl":"http:\/\/twitter.com\/search?q=%22Happy+Easter%22","trendMapped":"Happy+Easter","trendVolume":2696071},{"stateName":"TN","trendName":"#BestFanArmy","placeID":"2449323","placeName":"Memphis","searchUrl":"http:\/\/twitter.com\/search?q=%23BestFanArmy","trendMapped":"best+fan+army","trendVolume":9375914},{"stateName":"TN","trendName":"Buddy Hield","placeID":"2457170","placeName":"Nashville","searchUrl":"http:\/\/twitter.com\/search?q=%22Buddy+Hield%22","trendMapped":"Buddy+Hield","trendVolume":81751},{"stateName":"TN","trendName":"Easter","placeID":"2457170","placeName":"Nashville","searchUrl":"http:\/\/twitter.com\/search?q=Easter","trendMapped":"easter","trendVolume":5791238},{"stateName":"TN","trendName":"Happy Easter","placeID":"2457170","placeName":"Nashville","searchUrl":"http:\/\/twitter.com\/search?q=%22Happy+Easter%22","trendMapped":"Happy+Easter","trendVolume":3437509},{"stateName":"TX","trendName":"#HistoriaTristeEn3Palabras","placeID":"2388929","placeName":"Dallas-Ft. Worth","searchUrl":"http:\/\/twitter.com\/search?q=%23HistoriaTristeEn3Palabras","trendMapped":"historia+triste+en3+palabras","trendVolume":77330},{"stateName":"TX","trendName":"#MostRequestedLive","placeID":"2388929","placeName":"Dallas-Ft. Worth","searchUrl":"http:\/\/twitter.com\/search?q=%23MostRequestedLive","trendMapped":"most+requested+live","trendVolume":68012},{"stateName":"TX","trendName":"Buddy Hield","placeID":"2388929","placeName":"Dallas-Ft. Worth","searchUrl":"http:\/\/twitter.com\/search?q=%22Buddy+Hield%22","trendMapped":"Buddy+Hield","trendVolume":83286},{"stateName":"TX","trendName":"Easter","placeID":"2487796","placeName":"San Antonio","searchUrl":"http:\/\/twitter.com\/search?q=Easter","trendMapped":"easter","trendVolume":5508127},{"stateName":"TX","trendName":"England","placeID":"2388929","placeName":"Dallas-Ft. Worth","searchUrl":"http:\/\/twitter.com\/search?q=England","trendMapped":"england","trendVolume":481639},{"stateName":"TX","trendName":"Happy Easter","placeID":"2487796","placeName":"San Antonio","searchUrl":"http:\/\/twitter.com\/search?q=%22Happy+Easter%22","trendMapped":"Happy+Easter","trendVolume":3469301},{"stateName":"TX","trendName":"Pakistan","placeID":"2424766","placeName":"Houston","searchUrl":"http:\/\/twitter.com\/search?q=Pakistan","trendMapped":"pakistan","trendVolume":901174},{"stateName":"UT","trendName":"#CruzSexScandal","placeID":"2487610","placeName":"Salt Lake City","searchUrl":"http:\/\/twitter.com\/search?q=%23CruzSexScandal","trendMapped":"cruz+sex+scandal","trendVolume":226998},{"stateName":"UT","trendName":"#HIcaucus","placeID":"2487610","placeName":"Salt Lake City","searchUrl":"http:\/\/twitter.com\/search?q=%23HIcaucus","trendMapped":"h+icaucus","trendVolume":88591},{"stateName":"UT","trendName":"Buddy Hield","placeID":"2487610","placeName":"Salt Lake City","searchUrl":"http:\/\/twitter.com\/search?q=%22Buddy+Hield%22","trendMapped":"Buddy+Hield","trendVolume":85011},{"stateName":"UT","trendName":"Easter","placeID":"2487610","placeName":"Salt Lake City","searchUrl":"http:\/\/twitter.com\/search?q=Easter","trendMapped":"easter","trendVolume":1805214},{"stateName":"UT","trendName":"England","placeID":"2487610","placeName":"Salt Lake City","searchUrl":"http:\/\/twitter.com\/search?q=England","trendMapped":"england","trendVolume":485997},{"stateName":"UT","trendName":"Happy Easter","placeID":"2487610","placeName":"Salt Lake City","searchUrl":"http:\/\/twitter.com\/search?q=%22Happy+Easter%22","trendMapped":"Happy+Easter","trendVolume":2653588},{"stateName":"VA","trendName":"Buddy Hield","placeID":"2512636","placeName":"Virginia Beach","searchUrl":"http:\/\/twitter.com\/search?q=%22Buddy+Hield%22","trendMapped":"Buddy+Hield","trendVolume":85322},{"stateName":"VA","trendName":"Easter","placeID":"2480894","placeName":"Richmond","searchUrl":"http:\/\/twitter.com\/search?q=Easter","trendMapped":"easter","trendVolume":5831785},{"stateName":"VA","trendName":"England","placeID":"2512636","placeName":"Virginia Beach","searchUrl":"http:\/\/twitter.com\/search?q=England","trendMapped":"england","trendVolume":475688},{"stateName":"VA","trendName":"Happy Easter","placeID":"2512636","placeName":"Virginia Beach","searchUrl":"http:\/\/twitter.com\/search?q=%22Happy+Easter%22","trendMapped":"Happy+Easter","trendVolume":3013083},{"stateName":"VA","trendName":"WE CAN HARMOS","placeID":"2512636","placeName":"Virginia Beach","searchUrl":"http:\/\/twitter.com\/search?q=%22WE+CAN+HARMOS%22","trendMapped":"WE+CAN+HARMOS","trendVolume":1036929},{"stateName":"WA","trendName":"#HIcaucus","placeID":"2490383","placeName":"Seattle","searchUrl":"http:\/\/twitter.com\/search?q=%23HIcaucus","trendMapped":"h+icaucus","trendVolume":86710},{"stateName":"WA","trendName":"#HappyEaster","placeID":"2490383","placeName":"Seattle","searchUrl":"http:\/\/twitter.com\/search?q=%23HappyEaster","trendMapped":"happy+easter","trendVolume":169439},{"stateName":"WA","trendName":"Buddy Hield","placeID":"2490383","placeName":"Seattle","searchUrl":"http:\/\/twitter.com\/search?q=%22Buddy+Hield%22","trendMapped":"Buddy+Hield","trendVolume":81751},{"stateName":"WA","trendName":"England","placeID":"2490383","placeName":"Seattle","searchUrl":"http:\/\/twitter.com\/search?q=England","trendMapped":"england","trendVolume":486531},{"stateName":"WA","trendName":"Happy Easter","placeID":"2490383","placeName":"Seattle","searchUrl":"http:\/\/twitter.com\/search?q=%22Happy+Easter%22","trendMapped":"Happy+Easter","trendVolume":3216956},{"stateName":"WI","trendName":"Bernie","placeID":"2451822","placeName":"Milwaukee","searchUrl":"http:\/\/twitter.com\/search?q=Bernie","trendMapped":"bernie","trendVolume":407629},{"stateName":"WI","trendName":"Happy Easter","placeID":"2451822","placeName":"Milwaukee","searchUrl":"http:\/\/twitter.com\/search?q=%22Happy+Easter%22","trendMapped":"Happy+Easter","trendVolume":3345425},{"stateName":"XX","trendName":"#HIcaucus","placeID":"23424977","placeName":"United States","searchUrl":"http:\/\/twitter.com\/search?q=%23HIcaucus","trendMapped":"h+icaucus","trendVolume":91386},{"stateName":"XX","trendName":"#PrayForPakistan","placeID":"23424977","placeName":"United States","searchUrl":"http:\/\/twitter.com\/search?q=%23PrayForPakistan","trendMapped":"pray+for+pakistan","trendVolume":144098},{"stateName":"XX","trendName":"Buddy Hield","placeID":"23424977","placeName":"United States","searchUrl":"http:\/\/twitter.com\/search?q=%22Buddy+Hield%22","trendMapped":"Buddy+Hield","trendVolume":85322},{"stateName":"XX","trendName":"England","placeID":"23424977","placeName":"United States","searchUrl":"http:\/\/twitter.com\/search?q=England","trendMapped":"england","trendVolume":479935},{"stateName":"XX","trendName":"Happy Easter","placeID":"23424977","placeName":"United States","searchUrl":"http:\/\/twitter.com\/search?q=%22Happy+Easter%22","trendMapped":"Happy+Easter","trendVolume":3216956},{"stateName":"XX","trendName":"Lahore","placeID":"23424977","placeName":"United States","searchUrl":"http:\/\/twitter.com\/search?q=Lahore","trendMapped":"lahore","trendVolume":412926}]