[{"stateName":"AL","trendName":"#AprilFools","placeID":"2364559","placeName":"Birmingham","searchUrl":"http:\/\/twitter.com\/search?q=%23AprilFools","trendMapped":"april+fools","trendVolume":720641},{"stateName":"AL","trendName":"#LoveLiveforever","placeID":"2364559","placeName":"Birmingham","searchUrl":"http:\/\/twitter.com\/search?q=%23LoveLiveforever","trendMapped":"love+liveforever","trendVolume":622369},{"stateName":"AL","trendName":"April Fools","placeID":"2364559","placeName":"Birmingham","searchUrl":"http:\/\/twitter.com\/search?q=%22April+Fools%22","trendMapped":"April+Fools","trendVolume":1911200},{"stateName":"AL","trendName":"GO 5SOSFAM","placeID":"2364559","placeName":"Birmingham","searchUrl":"http:\/\/twitter.com\/search?q=%22GO+5SOSFAM%22","trendMapped":"GO+5SOSFAM","trendVolume":1423131},{"stateName":"AZ","trendName":"#AprilFools","placeID":"2508428","placeName":"Tucson","searchUrl":"http:\/\/twitter.com\/search?q=%23AprilFools","trendMapped":"april+fools","trendVolume":740239},{"stateName":"AZ","trendName":"#FLY3RDWIN","placeID":"2449808","placeName":"Mesa","searchUrl":"http:\/\/twitter.com\/search?q=%23FLY3RDWIN","trendMapped":"fly3+rdwin","trendVolume":566328},{"stateName":"AZ","trendName":"#JFCShawnMendes","placeID":"2508428","placeName":"Tucson","searchUrl":"http:\/\/twitter.com\/search?q=%23JFCShawnMendes","trendMapped":"jfc+shawn+mendes","trendVolume":96094},{"stateName":"AZ","trendName":"#LoveLiveforever","placeID":"2508428","placeName":"Tucson","searchUrl":"http:\/\/twitter.com\/search?q=%23LoveLiveforever","trendMapped":"love+liveforever","trendVolume":574956},{"stateName":"AZ","trendName":"5H DAY","placeID":"2471390","placeName":"Phoenix","searchUrl":"http:\/\/twitter.com\/search?q=%225H+DAY%22","trendMapped":"5H+DAY","trendVolume":2717078},{"stateName":"AZ","trendName":"April Fools","placeID":"2508428","placeName":"Tucson","searchUrl":"http:\/\/twitter.com\/search?q=%22April+Fools%22","trendMapped":"April+Fools","trendVolume":1166782},{"stateName":"AZ","trendName":"GO 5SOSFAM","placeID":"2508428","placeName":"Tucson","searchUrl":"http:\/\/twitter.com\/search?q=%22GO+5SOSFAM%22","trendMapped":"GO+5SOSFAM","trendVolume":1372479},{"stateName":"AZ","trendName":"april fools","placeID":"2508428","placeName":"Tucson","searchUrl":"http:\/\/twitter.com\/search?q=%22april+fools%22","trendMapped":"april+fools","trendVolume":643421},{"stateName":"CA","trendName":"#AprilFools","placeID":"2488042","placeName":"San Jose","searchUrl":"http:\/\/twitter.com\/search?q=%23AprilFools","trendMapped":"april+fools","trendVolume":741612},{"stateName":"CA","trendName":"#FLY3RDWIN","placeID":"2487956","placeName":"San Francisco","searchUrl":"http:\/\/twitter.com\/search?q=%23FLY3RDWIN","trendMapped":"fly3+rdwin","trendVolume":566328},{"stateName":"CA","trendName":"#JFCShawnMendes","placeID":"2488042","placeName":"San Jose","searchUrl":"http:\/\/twitter.com\/search?q=%23JFCShawnMendes","trendMapped":"jfc+shawn+mendes","trendVolume":96094},{"stateName":"CA","trendName":"#LoveLiveforever","placeID":"2488042","placeName":"San Jose","searchUrl":"http:\/\/twitter.com\/search?q=%23LoveLiveforever","trendMapped":"love+liveforever","trendVolume":622369},{"stateName":"CA","trendName":"April Fool's Day","placeID":"2487889","placeName":"San Diego","searchUrl":"http:\/\/twitter.com\/search?q=%22April+Fool%27s+Day%22","trendMapped":"April+Fool's+Day","trendVolume":164201},{"stateName":"CA","trendName":"April Fools","placeID":"2488042","placeName":"San Jose","searchUrl":"http:\/\/twitter.com\/search?q=%22April+Fools%22","trendMapped":"April+Fools","trendVolume":1318012},{"stateName":"CA","trendName":"GO 5SOSFAM","placeID":"2488042","placeName":"San Jose","searchUrl":"http:\/\/twitter.com\/search?q=%22GO+5SOSFAM%22","trendMapped":"GO+5SOSFAM","trendVolume":1389379},{"stateName":"CA","trendName":"Krystal","placeID":"2487956","placeName":"San Francisco","searchUrl":"http:\/\/twitter.com\/search?q=Krystal","trendMapped":"krystal","trendVolume":309595},{"stateName":"CO","trendName":"#AprilFools","placeID":"2391279","placeName":"Denver","searchUrl":"http:\/\/twitter.com\/search?q=%23AprilFools","trendMapped":"april+fools","trendVolume":714416},{"stateName":"CO","trendName":"#IndvsWI","placeID":"2391279","placeName":"Denver","searchUrl":"http:\/\/twitter.com\/search?q=%23IndvsWI","trendMapped":"indvs+wi","trendVolume":538691},{"stateName":"CO","trendName":"#JFCShawnMendes","placeID":"2383489","placeName":"Colorado Springs","searchUrl":"http:\/\/twitter.com\/search?q=%23JFCShawnMendes","trendMapped":"jfc+shawn+mendes","trendVolume":94563},{"stateName":"CO","trendName":"#LoveLiveforever","placeID":"2391279","placeName":"Denver","searchUrl":"http:\/\/twitter.com\/search?q=%23LoveLiveforever","trendMapped":"love+liveforever","trendVolume":622369},{"stateName":"CO","trendName":"April Fools","placeID":"2391279","placeName":"Denver","searchUrl":"http:\/\/twitter.com\/search?q=%22April+Fools%22","trendMapped":"April+Fools","trendVolume":1197596},{"stateName":"CO","trendName":"GO 5SOSFAM","placeID":"2391279","placeName":"Denver","searchUrl":"http:\/\/twitter.com\/search?q=%22GO+5SOSFAM%22","trendMapped":"GO+5SOSFAM","trendVolume":1199403},{"stateName":"CO","trendName":"april fools","placeID":"2391279","placeName":"Denver","searchUrl":"http:\/\/twitter.com\/search?q=%22april+fools%22","trendMapped":"april+fools","trendVolume":643421},{"stateName":"CT","trendName":"#AprilFools","placeID":"2458410","placeName":"New Haven","searchUrl":"http:\/\/twitter.com\/search?q=%23AprilFools","trendMapped":"april+fools","trendVolume":740239},{"stateName":"CT","trendName":"#IndvsWI","placeID":"2458410","placeName":"New Haven","searchUrl":"http:\/\/twitter.com\/search?q=%23IndvsWI","trendMapped":"indvs+wi","trendVolume":537396},{"stateName":"CT","trendName":"#LoveLiveforever","placeID":"2458410","placeName":"New Haven","searchUrl":"http:\/\/twitter.com\/search?q=%23LoveLiveforever","trendMapped":"love+liveforever","trendVolume":590975},{"stateName":"CT","trendName":"April Fools","placeID":"2458410","placeName":"New Haven","searchUrl":"http:\/\/twitter.com\/search?q=%22April+Fools%22","trendMapped":"April+Fools","trendVolume":2317262},{"stateName":"DC","trendName":"#AprilFools","placeID":"2514815","placeName":"Washington","searchUrl":"http:\/\/twitter.com\/search?q=%23AprilFools","trendMapped":"april+fools","trendVolume":602920},{"stateName":"DC","trendName":"#JFCShawnMendes","placeID":"2514815","placeName":"Washington","searchUrl":"http:\/\/twitter.com\/search?q=%23JFCShawnMendes","trendMapped":"jfc+shawn+mendes","trendVolume":94563},{"stateName":"DC","trendName":"#LoveLiveforever","placeID":"2514815","placeName":"Washington","searchUrl":"http:\/\/twitter.com\/search?q=%23LoveLiveforever","trendMapped":"love+liveforever","trendVolume":558643},{"stateName":"DC","trendName":"#loveliveforever","placeID":"2514815","placeName":"Washington","searchUrl":"http:\/\/twitter.com\/search?q=%23loveliveforever","trendMapped":"loveliveforever","trendVolume":480143},{"stateName":"DC","trendName":"GO 5SOSFAM","placeID":"2514815","placeName":"Washington","searchUrl":"http:\/\/twitter.com\/search?q=%22GO+5SOSFAM%22","trendMapped":"GO+5SOSFAM","trendVolume":1501595},{"stateName":"FL","trendName":"#AprilFools","placeID":"2503863","placeName":"Tampa","searchUrl":"http:\/\/twitter.com\/search?q=%23AprilFools","trendMapped":"april+fools","trendVolume":743431},{"stateName":"FL","trendName":"#LoveLiveforever","placeID":"2450022","placeName":"Miami","searchUrl":"http:\/\/twitter.com\/search?q=%23LoveLiveforever","trendMapped":"love+liveforever","trendVolume":574956},{"stateName":"FL","trendName":"#aprilfools","placeID":"2450022","placeName":"Miami","searchUrl":"http:\/\/twitter.com\/search?q=%23aprilfools","trendMapped":"aprilfools","trendVolume":445887},{"stateName":"FL","trendName":"April Fools","placeID":"2503863","placeName":"Tampa","searchUrl":"http:\/\/twitter.com\/search?q=%22April+Fools%22","trendMapped":"April+Fools","trendVolume":2437795},{"stateName":"FL","trendName":"Empire","placeID":"2428344","placeName":"Jacksonville","searchUrl":"http:\/\/twitter.com\/search?q=Empire","trendMapped":"empire","trendVolume":569712},{"stateName":"FL","trendName":"GO 5SOSFAM","placeID":"2503863","placeName":"Tampa","searchUrl":"http:\/\/twitter.com\/search?q=%22GO+5SOSFAM%22","trendMapped":"GO+5SOSFAM","trendVolume":1423131},{"stateName":"GA","trendName":"#AprilFools","placeID":"2357024","placeName":"Atlanta","searchUrl":"http:\/\/twitter.com\/search?q=%23AprilFools","trendMapped":"april+fools","trendVolume":720641},{"stateName":"GA","trendName":"#LoveLiveforever","placeID":"2357024","placeName":"Atlanta","searchUrl":"http:\/\/twitter.com\/search?q=%23LoveLiveforever","trendMapped":"love+liveforever","trendVolume":590975},{"stateName":"GA","trendName":"#aprilfools","placeID":"2357024","placeName":"Atlanta","searchUrl":"http:\/\/twitter.com\/search?q=%23aprilfools","trendMapped":"aprilfools","trendVolume":445887},{"stateName":"GA","trendName":"April Fools","placeID":"2357024","placeName":"Atlanta","searchUrl":"http:\/\/twitter.com\/search?q=%22April+Fools%22","trendMapped":"April+Fools","trendVolume":1166782},{"stateName":"GA","trendName":"GO 5SOSFAM","placeID":"2357024","placeName":"Atlanta","searchUrl":"http:\/\/twitter.com\/search?q=%22GO+5SOSFAM%22","trendMapped":"GO+5SOSFAM","trendVolume":1037712},{"stateName":"HI","trendName":"#BestFanArmy","placeID":"2423945","placeName":"Honolulu","searchUrl":"http:\/\/twitter.com\/search?q=%23BestFanArmy","trendMapped":"best+fan+army","trendVolume":9336236},{"stateName":"IL","trendName":"#AprilFools","placeID":"2379574","placeName":"Chicago","searchUrl":"http:\/\/twitter.com\/search?q=%23AprilFools","trendMapped":"april+fools","trendVolume":580435},{"stateName":"IL","trendName":"#Empire","placeID":"2379574","placeName":"Chicago","searchUrl":"http:\/\/twitter.com\/search?q=%23Empire","trendMapped":"empire","trendVolume":417041},{"stateName":"IL","trendName":"#FLY3RDWIN","placeID":"2379574","placeName":"Chicago","searchUrl":"http:\/\/twitter.com\/search?q=%23FLY3RDWIN","trendMapped":"fly3+rdwin","trendVolume":548333},{"stateName":"IL","trendName":"#JFCShawnMendes","placeID":"2379574","placeName":"Chicago","searchUrl":"http:\/\/twitter.com\/search?q=%23JFCShawnMendes","trendMapped":"jfc+shawn+mendes","trendVolume":92605},{"stateName":"IL","trendName":"#LoveLiveforever","placeID":"2379574","placeName":"Chicago","searchUrl":"http:\/\/twitter.com\/search?q=%23LoveLiveforever","trendMapped":"love+liveforever","trendVolume":622369},{"stateName":"IL","trendName":"April Fools","placeID":"2379574","placeName":"Chicago","searchUrl":"http:\/\/twitter.com\/search?q=%22April+Fools%22","trendMapped":"April+Fools","trendVolume":1149202},{"stateName":"IL","trendName":"GO 5SOSFAM","placeID":"2379574","placeName":"Chicago","searchUrl":"http:\/\/twitter.com\/search?q=%22GO+5SOSFAM%22","trendMapped":"GO+5SOSFAM","trendVolume":1343520},{"stateName":"IN","trendName":"#AprilFools","placeID":"2427032","placeName":"Indianapolis","searchUrl":"http:\/\/twitter.com\/search?q=%23AprilFools","trendMapped":"april+fools","trendVolume":730782},{"stateName":"IN","trendName":"#Empire","placeID":"2427032","placeName":"Indianapolis","searchUrl":"http:\/\/twitter.com\/search?q=%23Empire","trendMapped":"empire","trendVolume":407236},{"stateName":"IN","trendName":"#LoveLiveforever","placeID":"2427032","placeName":"Indianapolis","searchUrl":"http:\/\/twitter.com\/search?q=%23LoveLiveforever","trendMapped":"love+liveforever","trendVolume":622369},{"stateName":"IN","trendName":"April Fools","placeID":"2427032","placeName":"Indianapolis","searchUrl":"http:\/\/twitter.com\/search?q=%22April+Fools%22","trendMapped":"April+Fools","trendVolume":1179433},{"stateName":"IN","trendName":"GO 5SOSFAM","placeID":"2427032","placeName":"Indianapolis","searchUrl":"http:\/\/twitter.com\/search?q=%22GO+5SOSFAM%22","trendMapped":"GO+5SOSFAM","trendVolume":1246247},{"stateName":"KY","trendName":"#AprilFools","placeID":"2442327","placeName":"Louisville","searchUrl":"http:\/\/twitter.com\/search?q=%23AprilFools","trendMapped":"april+fools","trendVolume":605871},{"stateName":"KY","trendName":"#LoveLiveforever","placeID":"2442327","placeName":"Louisville","searchUrl":"http:\/\/twitter.com\/search?q=%23LoveLiveforever","trendMapped":"love+liveforever","trendVolume":540853},{"stateName":"KY","trendName":"#loveliveforever","placeID":"2442327","placeName":"Louisville","searchUrl":"http:\/\/twitter.com\/search?q=%23loveliveforever","trendMapped":"loveliveforever","trendVolume":480143},{"stateName":"KY","trendName":"April Fools","placeID":"2442327","placeName":"Louisville","searchUrl":"http:\/\/twitter.com\/search?q=%22April+Fools%22","trendMapped":"April+Fools","trendVolume":2404808},{"stateName":"KY","trendName":"GO 5SOSFAM","placeID":"2442327","placeName":"Louisville","searchUrl":"http:\/\/twitter.com\/search?q=%22GO+5SOSFAM%22","trendMapped":"GO+5SOSFAM","trendVolume":872228},{"stateName":"LA","trendName":"#AprilFools","placeID":"2458833","placeName":"New Orleans","searchUrl":"http:\/\/twitter.com\/search?q=%23AprilFools","trendMapped":"april+fools","trendVolume":741612},{"stateName":"LA","trendName":"#LoveLiveforever","placeID":"2458833","placeName":"New Orleans","searchUrl":"http:\/\/twitter.com\/search?q=%23LoveLiveforever","trendMapped":"love+liveforever","trendVolume":606818},{"stateName":"LA","trendName":"April Fools","placeID":"2458833","placeName":"New Orleans","searchUrl":"http:\/\/twitter.com\/search?q=%22April+Fools%22","trendMapped":"April+Fools","trendVolume":2313816},{"stateName":"LA","trendName":"Black","placeID":"2359991","placeName":"Baton Rouge","searchUrl":"http:\/\/twitter.com\/search?q=Black","trendMapped":"black","trendVolume":862701},{"stateName":"MA","trendName":"#AprilFools","placeID":"2367105","placeName":"Boston","searchUrl":"http:\/\/twitter.com\/search?q=%23AprilFools","trendMapped":"april+fools","trendVolume":605871},{"stateName":"MA","trendName":"#LoveLiveforever","placeID":"2367105","placeName":"Boston","searchUrl":"http:\/\/twitter.com\/search?q=%23LoveLiveforever","trendMapped":"love+liveforever","trendVolume":558643},{"stateName":"MA","trendName":"April Fools","placeID":"2367105","placeName":"Boston","searchUrl":"http:\/\/twitter.com\/search?q=%22April+Fools%22","trendMapped":"April+Fools","trendVolume":1179433},{"stateName":"MA","trendName":"GO 5SOSFAM","placeID":"2367105","placeName":"Boston","searchUrl":"http:\/\/twitter.com\/search?q=%22GO+5SOSFAM%22","trendMapped":"GO+5SOSFAM","trendVolume":1103215},{"stateName":"MA","trendName":"VOTE HARD FOR 5H","placeID":"2367105","placeName":"Boston","searchUrl":"http:\/\/twitter.com\/search?q=%22VOTE+HARD+FOR+5H%22","trendMapped":"VOTE+HARD+FOR+5H","trendVolume":1169052},{"stateName":"MD","trendName":"#AprilFools","placeID":"2358820","placeName":"Baltimore","searchUrl":"http:\/\/twitter.com\/search?q=%23AprilFools","trendMapped":"april+fools","trendVolume":735449},{"stateName":"MD","trendName":"#Empire","placeID":"2358820","placeName":"Baltimore","searchUrl":"http:\/\/twitter.com\/search?q=%23Empire","trendMapped":"empire","trendVolume":417041},{"stateName":"MD","trendName":"#LoveLiveforever","placeID":"2358820","placeName":"Baltimore","searchUrl":"http:\/\/twitter.com\/search?q=%23LoveLiveforever","trendMapped":"love+liveforever","trendVolume":622369},{"stateName":"MD","trendName":"April Fools","placeID":"2358820","placeName":"Baltimore","searchUrl":"http:\/\/twitter.com\/search?q=%22April+Fools%22","trendMapped":"April+Fools","trendVolume":2381394},{"stateName":"MD","trendName":"GO 5SOSFAM","placeID":"2358820","placeName":"Baltimore","searchUrl":"http:\/\/twitter.com\/search?q=%22GO+5SOSFAM%22","trendMapped":"GO+5SOSFAM","trendVolume":1389379},{"stateName":"MI","trendName":"#AprilFools","placeID":"2391585","placeName":"Detroit","searchUrl":"http:\/\/twitter.com\/search?q=%23AprilFools","trendMapped":"april+fools","trendVolume":580435},{"stateName":"MI","trendName":"5H DAY","placeID":"2391585","placeName":"Detroit","searchUrl":"http:\/\/twitter.com\/search?q=%225H+DAY%22","trendMapped":"5H+DAY","trendVolume":2732214},{"stateName":"MI","trendName":"April Fools","placeID":"2391585","placeName":"Detroit","searchUrl":"http:\/\/twitter.com\/search?q=%22April+Fools%22","trendMapped":"April+Fools","trendVolume":1066472},{"stateName":"MI","trendName":"GO 5SOSFAM","placeID":"2391585","placeName":"Detroit","searchUrl":"http:\/\/twitter.com\/search?q=%22GO+5SOSFAM%22","trendMapped":"GO+5SOSFAM","trendVolume":1423131},{"stateName":"MN","trendName":"#AprilFools","placeID":"2452078","placeName":"Minneapolis","searchUrl":"http:\/\/twitter.com\/search?q=%23AprilFools","trendMapped":"april+fools","trendVolume":732847},{"stateName":"MN","trendName":"#LoveLiveforever","placeID":"2452078","placeName":"Minneapolis","searchUrl":"http:\/\/twitter.com\/search?q=%23LoveLiveforever","trendMapped":"love+liveforever","trendVolume":636703},{"stateName":"MN","trendName":"#loveliveforever","placeID":"2452078","placeName":"Minneapolis","searchUrl":"http:\/\/twitter.com\/search?q=%23loveliveforever","trendMapped":"loveliveforever","trendVolume":480143},{"stateName":"MN","trendName":"April Fools","placeID":"2452078","placeName":"Minneapolis","searchUrl":"http:\/\/twitter.com\/search?q=%22April+Fools%22","trendMapped":"April+Fools","trendVolume":1149202},{"stateName":"MN","trendName":"GO 5SOSFAM","placeID":"2452078","placeName":"Minneapolis","searchUrl":"http:\/\/twitter.com\/search?q=%22GO+5SOSFAM%22","trendMapped":"GO+5SOSFAM","trendVolume":1461616},{"stateName":"MN","trendName":"Krystal","placeID":"2452078","placeName":"Minneapolis","searchUrl":"http:\/\/twitter.com\/search?q=Krystal","trendMapped":"krystal","trendVolume":243942},{"stateName":"MO","trendName":"#AprilFools","placeID":"2486982","placeName":"St. Louis","searchUrl":"http:\/\/twitter.com\/search?q=%23AprilFools","trendMapped":"april+fools","trendVolume":743431},{"stateName":"MO","trendName":"#GOT7","placeID":"2430683","placeName":"Kansas City","searchUrl":"http:\/\/twitter.com\/search?q=%23GOT7","trendMapped":"got7","trendVolume":825314},{"stateName":"MO","trendName":"#LoveLiveforever","placeID":"2486982","placeName":"St. Louis","searchUrl":"http:\/\/twitter.com\/search?q=%23LoveLiveforever","trendMapped":"love+liveforever","trendVolume":590975},{"stateName":"MO","trendName":"April Fools","placeID":"2486982","placeName":"St. Louis","searchUrl":"http:\/\/twitter.com\/search?q=%22April+Fools%22","trendMapped":"April+Fools","trendVolume":1341831},{"stateName":"MO","trendName":"GO 5SOSFAM","placeID":"2486982","placeName":"St. Louis","searchUrl":"http:\/\/twitter.com\/search?q=%22GO+5SOSFAM%22","trendMapped":"GO+5SOSFAM","trendVolume":956489},{"stateName":"MS","trendName":"#AprilFools","placeID":"2428184","placeName":"Jackson","searchUrl":"http:\/\/twitter.com\/search?q=%23AprilFools","trendMapped":"april+fools","trendVolume":396457},{"stateName":"MS","trendName":"April Fools","placeID":"2428184","placeName":"Jackson","searchUrl":"http:\/\/twitter.com\/search?q=%22April+Fools%22","trendMapped":"April+Fools","trendVolume":2433645},{"stateName":"NC","trendName":"#5SOSFam","placeID":"2414469","placeName":"Greensboro","searchUrl":"http:\/\/twitter.com\/search?q=%235SOSFam","trendMapped":"5+sos+fam","trendVolume":3276557},{"stateName":"NC","trendName":"#AprilFools","placeID":"2478307","placeName":"Raleigh","searchUrl":"http:\/\/twitter.com\/search?q=%23AprilFools","trendMapped":"april+fools","trendVolume":736215},{"stateName":"NC","trendName":"#LoveLiveforever","placeID":"2478307","placeName":"Raleigh","searchUrl":"http:\/\/twitter.com\/search?q=%23LoveLiveforever","trendMapped":"love+liveforever","trendVolume":558643},{"stateName":"NC","trendName":"April Fools","placeID":"2478307","placeName":"Raleigh","searchUrl":"http:\/\/twitter.com\/search?q=%22April+Fools%22","trendMapped":"April+Fools","trendVolume":1269768},{"stateName":"NC","trendName":"GO 5SOSFAM","placeID":"2478307","placeName":"Raleigh","searchUrl":"http:\/\/twitter.com\/search?q=%22GO+5SOSFAM%22","trendMapped":"GO+5SOSFAM","trendVolume":1423131},{"stateName":"NC","trendName":"Krystal","placeID":"2414469","placeName":"Greensboro","searchUrl":"http:\/\/twitter.com\/search?q=Krystal","trendMapped":"krystal","trendVolume":171691},{"stateName":"NE","trendName":"#AprilFools","placeID":"2465512","placeName":"Omaha","searchUrl":"http:\/\/twitter.com\/search?q=%23AprilFools","trendMapped":"april+fools","trendVolume":726680},{"stateName":"NE","trendName":"April Fools","placeID":"2465512","placeName":"Omaha","searchUrl":"http:\/\/twitter.com\/search?q=%22April+Fools%22","trendMapped":"April+Fools","trendVolume":1131660},{"stateName":"NE","trendName":"GO 5SOSFAM","placeID":"2465512","placeName":"Omaha","searchUrl":"http:\/\/twitter.com\/search?q=%22GO+5SOSFAM%22","trendMapped":"GO+5SOSFAM","trendVolume":1343520},{"stateName":"NE","trendName":"april fools","placeID":"2465512","placeName":"Omaha","searchUrl":"http:\/\/twitter.com\/search?q=%22april+fools%22","trendMapped":"april+fools","trendVolume":643421},{"stateName":"NM","trendName":"#AprilFools","placeID":"2352824","placeName":"Albuquerque","searchUrl":"http:\/\/twitter.com\/search?q=%23AprilFools","trendMapped":"april+fools","trendVolume":708380},{"stateName":"NM","trendName":"April Fools","placeID":"2352824","placeName":"Albuquerque","searchUrl":"http:\/\/twitter.com\/search?q=%22April+Fools%22","trendMapped":"April+Fools","trendVolume":1105928},{"stateName":"NM","trendName":"GO 5SOSFAM","placeID":"2352824","placeName":"Albuquerque","searchUrl":"http:\/\/twitter.com\/search?q=%22GO+5SOSFAM%22","trendMapped":"GO+5SOSFAM","trendVolume":1343520},{"stateName":"NV","trendName":"#AprilFools","placeID":"2436704","placeName":"Las Vegas","searchUrl":"http:\/\/twitter.com\/search?q=%23AprilFools","trendMapped":"april+fools","trendVolume":732847},{"stateName":"NV","trendName":"#LoveLiveforever","placeID":"2436704","placeName":"Las Vegas","searchUrl":"http:\/\/twitter.com\/search?q=%23LoveLiveforever","trendMapped":"love+liveforever","trendVolume":606818},{"stateName":"NV","trendName":"April Fools","placeID":"2436704","placeName":"Las Vegas","searchUrl":"http:\/\/twitter.com\/search?q=%22April+Fools%22","trendMapped":"April+Fools","trendVolume":1297037},{"stateName":"NV","trendName":"GO 5SOSFAM","placeID":"2436704","placeName":"Las Vegas","searchUrl":"http:\/\/twitter.com\/search?q=%22GO+5SOSFAM%22","trendMapped":"GO+5SOSFAM","trendVolume":1292086},{"stateName":"NY","trendName":"#AprilFools","placeID":"2459115","placeName":"New York","searchUrl":"http:\/\/twitter.com\/search?q=%23AprilFools","trendMapped":"april+fools","trendVolume":590688},{"stateName":"NY","trendName":"#JFCShawnMendes","placeID":"2459115","placeName":"New York","searchUrl":"http:\/\/twitter.com\/search?q=%23JFCShawnMendes","trendMapped":"jfc+shawn+mendes","trendVolume":91493},{"stateName":"NY","trendName":"#aprilfools","placeID":"2459115","placeName":"New York","searchUrl":"http:\/\/twitter.com\/search?q=%23aprilfools","trendMapped":"aprilfools","trendVolume":445887},{"stateName":"NY","trendName":"April Fools","placeID":"2459115","placeName":"New York","searchUrl":"http:\/\/twitter.com\/search?q=%22April+Fools%22","trendMapped":"April+Fools","trendVolume":1105928},{"stateName":"NY","trendName":"GO 5SOSFAM","placeID":"2459115","placeName":"New York","searchUrl":"http:\/\/twitter.com\/search?q=%22GO+5SOSFAM%22","trendMapped":"GO+5SOSFAM","trendVolume":939727},{"stateName":"OH","trendName":"#AprilFools","placeID":"2383660","placeName":"Columbus","searchUrl":"http:\/\/twitter.com\/search?q=%23AprilFools","trendMapped":"april+fools","trendVolume":736215},{"stateName":"OH","trendName":"#Empire","placeID":"2381475","placeName":"Cleveland","searchUrl":"http:\/\/twitter.com\/search?q=%23Empire","trendMapped":"empire","trendVolume":417041},{"stateName":"OH","trendName":"#LoveLiveforever","placeID":"2383660","placeName":"Columbus","searchUrl":"http:\/\/twitter.com\/search?q=%23LoveLiveforever","trendMapped":"love+liveforever","trendVolume":521821},{"stateName":"OH","trendName":"April Fools","placeID":"2383660","placeName":"Columbus","searchUrl":"http:\/\/twitter.com\/search?q=%22April+Fools%22","trendMapped":"April+Fools","trendVolume":2433645},{"stateName":"OH","trendName":"GO 5SOSFAM","placeID":"2383660","placeName":"Columbus","searchUrl":"http:\/\/twitter.com\/search?q=%22GO+5SOSFAM%22","trendMapped":"GO+5SOSFAM","trendVolume":1343443},{"stateName":"OK","trendName":"#5SOSFam","placeID":"2464592","placeName":"Oklahoma City","searchUrl":"http:\/\/twitter.com\/search?q=%235SOSFam","trendMapped":"5+sos+fam","trendVolume":3395099},{"stateName":"OK","trendName":"#AprilFools","placeID":"2464592","placeName":"Oklahoma City","searchUrl":"http:\/\/twitter.com\/search?q=%23AprilFools","trendMapped":"april+fools","trendVolume":741612},{"stateName":"OK","trendName":"#LoveLiveforever","placeID":"2464592","placeName":"Oklahoma City","searchUrl":"http:\/\/twitter.com\/search?q=%23LoveLiveforever","trendMapped":"love+liveforever","trendVolume":622369},{"stateName":"OK","trendName":"April Fools","placeID":"2464592","placeName":"Oklahoma City","searchUrl":"http:\/\/twitter.com\/search?q=%22April+Fools%22","trendMapped":"April+Fools","trendVolume":1297037},{"stateName":"OK","trendName":"GO 5SOSFAM","placeID":"2464592","placeName":"Oklahoma City","searchUrl":"http:\/\/twitter.com\/search?q=%22GO+5SOSFAM%22","trendMapped":"GO+5SOSFAM","trendVolume":1103215},{"stateName":"OR","trendName":"#AprilFools","placeID":"2475687","placeName":"Portland","searchUrl":"http:\/\/twitter.com\/search?q=%23AprilFools","trendMapped":"april+fools","trendVolume":733835},{"stateName":"OR","trendName":"#LoveLiveforever","placeID":"2475687","placeName":"Portland","searchUrl":"http:\/\/twitter.com\/search?q=%23LoveLiveforever","trendMapped":"love+liveforever","trendVolume":501392},{"stateName":"OR","trendName":"April Fools","placeID":"2475687","placeName":"Portland","searchUrl":"http:\/\/twitter.com\/search?q=%22April+Fools%22","trendMapped":"April+Fools","trendVolume":1297037},{"stateName":"OR","trendName":"GO 5SOSFAM","placeID":"2475687","placeName":"Portland","searchUrl":"http:\/\/twitter.com\/search?q=%22GO+5SOSFAM%22","trendMapped":"GO+5SOSFAM","trendVolume":1037712},{"stateName":"PA","trendName":"#AprilFools","placeID":"2473224","placeName":"Pittsburgh","searchUrl":"http:\/\/twitter.com\/search?q=%23AprilFools","trendMapped":"april+fools","trendVolume":738707},{"stateName":"PA","trendName":"#Empire","placeID":"2473224","placeName":"Pittsburgh","searchUrl":"http:\/\/twitter.com\/search?q=%23Empire","trendMapped":"empire","trendVolume":417041},{"stateName":"PA","trendName":"#LoveLiveforever","placeID":"2471217","placeName":"Philadelphia","searchUrl":"http:\/\/twitter.com\/search?q=%23LoveLiveforever","trendMapped":"love+liveforever","trendVolume":590975},{"stateName":"PA","trendName":"April Fools","placeID":"2473224","placeName":"Pittsburgh","searchUrl":"http:\/\/twitter.com\/search?q=%22April+Fools%22","trendMapped":"April+Fools","trendVolume":1235376},{"stateName":"PA","trendName":"GO 5SOSFAM","placeID":"2473224","placeName":"Pittsburgh","searchUrl":"http:\/\/twitter.com\/search?q=%22GO+5SOSFAM%22","trendMapped":"GO+5SOSFAM","trendVolume":1461616},{"stateName":"RI","trendName":"#AprilFools","placeID":"2477058","placeName":"Providence","searchUrl":"http:\/\/twitter.com\/search?q=%23AprilFools","trendMapped":"april+fools","trendVolume":591026},{"stateName":"RI","trendName":"April Fools","placeID":"2477058","placeName":"Providence","searchUrl":"http:\/\/twitter.com\/search?q=%22April+Fools%22","trendMapped":"April+Fools","trendVolume":2437795},{"stateName":"TN","trendName":"#AprilFools","placeID":"2457170","placeName":"Nashville","searchUrl":"http:\/\/twitter.com\/search?q=%23AprilFools","trendMapped":"april+fools","trendVolume":733835},{"stateName":"TN","trendName":"#LoveLiveforever","placeID":"2457170","placeName":"Nashville","searchUrl":"http:\/\/twitter.com\/search?q=%23LoveLiveforever","trendMapped":"love+liveforever","trendVolume":558643},{"stateName":"TN","trendName":"April Fools","placeID":"2457170","placeName":"Nashville","searchUrl":"http:\/\/twitter.com\/search?q=%22April+Fools%22","trendMapped":"April+Fools","trendVolume":1166782},{"stateName":"TN","trendName":"Black","placeID":"2449323","placeName":"Memphis","searchUrl":"http:\/\/twitter.com\/search?q=Black","trendMapped":"black","trendVolume":834449},{"stateName":"TN","trendName":"GO 5SOSFAM","placeID":"2457170","placeName":"Nashville","searchUrl":"http:\/\/twitter.com\/search?q=%22GO+5SOSFAM%22","trendMapped":"GO+5SOSFAM","trendVolume":906623},{"stateName":"TX","trendName":"#AprilFools","placeID":"2487796","placeName":"San Antonio","searchUrl":"http:\/\/twitter.com\/search?q=%23AprilFools","trendMapped":"april+fools","trendVolume":736215},{"stateName":"TX","trendName":"#JFCShawnMendes","placeID":"2424766","placeName":"Houston","searchUrl":"http:\/\/twitter.com\/search?q=%23JFCShawnMendes","trendMapped":"jfc+shawn+mendes","trendVolume":84909},{"stateName":"TX","trendName":"#LoveLiveforever","placeID":"2424766","placeName":"Houston","searchUrl":"http:\/\/twitter.com\/search?q=%23LoveLiveforever","trendMapped":"love+liveforever","trendVolume":636703},{"stateName":"TX","trendName":"April Fools","placeID":"2487796","placeName":"San Antonio","searchUrl":"http:\/\/twitter.com\/search?q=%22April+Fools%22","trendMapped":"April+Fools","trendVolume":2437795},{"stateName":"TX","trendName":"GO 5SOSFAM","placeID":"2487796","placeName":"San Antonio","searchUrl":"http:\/\/twitter.com\/search?q=%22GO+5SOSFAM%22","trendMapped":"GO+5SOSFAM","trendVolume":1461616},{"stateName":"TX","trendName":"Krystal","placeID":"2357536","placeName":"Austin","searchUrl":"http:\/\/twitter.com\/search?q=Krystal","trendMapped":"krystal","trendVolume":285285},{"stateName":"TX","trendName":"Trump","placeID":"2397816","placeName":"El Paso","searchUrl":"http:\/\/twitter.com\/search?q=Trump","trendMapped":"trump","trendVolume":1191856},{"stateName":"UT","trendName":"#AprilFools","placeID":"2487610","placeName":"Salt Lake City","searchUrl":"http:\/\/twitter.com\/search?q=%23AprilFools","trendMapped":"april+fools","trendVolume":743431},{"stateName":"UT","trendName":"April Fools","placeID":"2487610","placeName":"Salt Lake City","searchUrl":"http:\/\/twitter.com\/search?q=%22April+Fools%22","trendMapped":"April+Fools","trendVolume":1044472},{"stateName":"UT","trendName":"GO 5SOSFAM","placeID":"2487610","placeName":"Salt Lake City","searchUrl":"http:\/\/twitter.com\/search?q=%22GO+5SOSFAM%22","trendMapped":"GO+5SOSFAM","trendVolume":1461616},{"stateName":"UT","trendName":"Krystal","placeID":"2487610","placeName":"Salt Lake City","searchUrl":"http:\/\/twitter.com\/search?q=Krystal","trendMapped":"krystal","trendVolume":259686},{"stateName":"VA","trendName":"#AprilFools","placeID":"2480894","placeName":"Richmond","searchUrl":"http:\/\/twitter.com\/search?q=%23AprilFools","trendMapped":"april+fools","trendVolume":730782},{"stateName":"VA","trendName":"#JFCShawnMendes","placeID":"2512636","placeName":"Virginia Beach","searchUrl":"http:\/\/twitter.com\/search?q=%23JFCShawnMendes","trendMapped":"jfc+shawn+mendes","trendVolume":95746},{"stateName":"VA","trendName":"#LoveLiveforever","placeID":"2480894","placeName":"Richmond","searchUrl":"http:\/\/twitter.com\/search?q=%23LoveLiveforever","trendMapped":"love+liveforever","trendVolume":521821},{"stateName":"VA","trendName":"#Miitomo","placeID":"2460389","placeName":"Norfolk","searchUrl":"http:\/\/twitter.com\/search?q=%23Miitomo","trendMapped":"miitomo","trendVolume":127911},{"stateName":"VA","trendName":"#loveliveforever","placeID":"2480894","placeName":"Richmond","searchUrl":"http:\/\/twitter.com\/search?q=%23loveliveforever","trendMapped":"loveliveforever","trendVolume":480143},{"stateName":"VA","trendName":"April Fools","placeID":"2512636","placeName":"Virginia Beach","searchUrl":"http:\/\/twitter.com\/search?q=%22April+Fools%22","trendMapped":"April+Fools","trendVolume":2437795},{"stateName":"VA","trendName":"GO 5SOSFAM","placeID":"2512636","placeName":"Virginia Beach","searchUrl":"http:\/\/twitter.com\/search?q=%22GO+5SOSFAM%22","trendMapped":"GO+5SOSFAM","trendVolume":1292086},{"stateName":"WA","trendName":"#AprilFools","placeID":"2490383","placeName":"Seattle","searchUrl":"http:\/\/twitter.com\/search?q=%23AprilFools","trendMapped":"april+fools","trendVolume":741612},{"stateName":"WA","trendName":"April Fools","placeID":"2490383","placeName":"Seattle","searchUrl":"http:\/\/twitter.com\/search?q=%22April+Fools%22","trendMapped":"April+Fools","trendVolume":1297037},{"stateName":"WA","trendName":"GO 5SOSFAM","placeID":"2490383","placeName":"Seattle","searchUrl":"http:\/\/twitter.com\/search?q=%22GO+5SOSFAM%22","trendMapped":"GO+5SOSFAM","trendVolume":799666},{"stateName":"WI","trendName":"#AprilFools","placeID":"2451822","placeName":"Milwaukee","searchUrl":"http:\/\/twitter.com\/search?q=%23AprilFools","trendMapped":"april+fools","trendVolume":739915},{"stateName":"WI","trendName":"#Empire","placeID":"2451822","placeName":"Milwaukee","searchUrl":"http:\/\/twitter.com\/search?q=%23Empire","trendMapped":"empire","trendVolume":407106},{"stateName":"WI","trendName":"April Fools","placeID":"2451822","placeName":"Milwaukee","searchUrl":"http:\/\/twitter.com\/search?q=%22April+Fools%22","trendMapped":"April+Fools","trendVolume":1211868},{"stateName":"WI","trendName":"GO 5SOSFAM","placeID":"2451822","placeName":"Milwaukee","searchUrl":"http:\/\/twitter.com\/search?q=%22GO+5SOSFAM%22","trendMapped":"GO+5SOSFAM","trendVolume":1387306},{"stateName":"WI","trendName":"Trump","placeID":"2451822","placeName":"Milwaukee","searchUrl":"http:\/\/twitter.com\/search?q=Trump","trendMapped":"trump","trendVolume":1126886},{"stateName":"XX","trendName":"#AprilFools","placeID":"23424977","placeName":"United States","searchUrl":"http:\/\/twitter.com\/search?q=%23AprilFools","trendMapped":"april+fools","trendVolume":396457},{"stateName":"XX","trendName":"#JFCShawnMendes","placeID":"23424977","placeName":"United States","searchUrl":"http:\/\/twitter.com\/search?q=%23JFCShawnMendes","trendMapped":"jfc+shawn+mendes","trendVolume":96787},{"stateName":"XX","trendName":"#LoveLiveforever","placeID":"23424977","placeName":"United States","searchUrl":"http:\/\/twitter.com\/search?q=%23LoveLiveforever","trendMapped":"love+liveforever","trendVolume":622369},{"stateName":"XX","trendName":"April Fools","placeID":"23424977","placeName":"United States","searchUrl":"http:\/\/twitter.com\/search?q=%22April+Fools%22","trendMapped":"April+Fools","trendVolume":1160222},{"stateName":"XX","trendName":"GO 5SOSFAM","placeID":"23424977","placeName":"United States","searchUrl":"http:\/\/twitter.com\/search?q=%22GO+5SOSFAM%22","trendMapped":"GO+5SOSFAM","trendVolume":1423131}]