[{"stateName":"AL","trendName":"#TheWalkingDead","placeID":"2364559","placeName":"Birmingham","searchUrl":"http:\/\/twitter.com\/search?q=%23TheWalkingDead","trendMapped":"the+walking+dead","trendVolume":211660},{"stateName":"AL","trendName":"Easter","placeID":"2364559","placeName":"Birmingham","searchUrl":"http:\/\/twitter.com\/search?q=Easter","trendMapped":"easter","trendVolume":6307264},{"stateName":"AL","trendName":"Happy Easter","placeID":"2364559","placeName":"Birmingham","searchUrl":"http:\/\/twitter.com\/search?q=%22Happy+Easter%22","trendMapped":"Happy+Easter","trendVolume":2913556},{"stateName":"AZ","trendName":"#LahoreBlast","placeID":"2508428","placeName":"Tucson","searchUrl":"http:\/\/twitter.com\/search?q=%23LahoreBlast","trendMapped":"lahore+blast","trendVolume":221769},{"stateName":"AZ","trendName":"#PrayForPakistan","placeID":"2508428","placeName":"Tucson","searchUrl":"http:\/\/twitter.com\/search?q=%23PrayForPakistan","trendMapped":"pray+for+pakistan","trendVolume":190644},{"stateName":"AZ","trendName":"#TheWalkingDead","placeID":"2508428","placeName":"Tucson","searchUrl":"http:\/\/twitter.com\/search?q=%23TheWalkingDead","trendMapped":"the+walking+dead","trendVolume":208585},{"stateName":"AZ","trendName":"CHICKENS ATTACK","placeID":"2508428","placeName":"Tucson","searchUrl":"http:\/\/twitter.com\/search?q=%22CHICKENS+ATTACK%22","trendMapped":"CHICKENS+ATTACK","trendVolume":516869},{"stateName":"AZ","trendName":"Happy Easter","placeID":"2508428","placeName":"Tucson","searchUrl":"http:\/\/twitter.com\/search?q=%22Happy+Easter%22","trendMapped":"Happy+Easter","trendVolume":3624364},{"stateName":"AZ","trendName":"House","placeID":"2471390","placeName":"Phoenix","searchUrl":"http:\/\/twitter.com\/search?q=House","trendMapped":"house","trendVolume":516047},{"stateName":"AZ","trendName":"Kyrie","placeID":"2508428","placeName":"Tucson","searchUrl":"http:\/\/twitter.com\/search?q=Kyrie","trendMapped":"kyrie","trendVolume":662586},{"stateName":"AZ","trendName":"LETS WIN FAM","placeID":"2508428","placeName":"Tucson","searchUrl":"http:\/\/twitter.com\/search?q=%22LETS+WIN+FAM%22","trendMapped":"LETS+WIN+FAM","trendVolume":1003786},{"stateName":"AZ","trendName":"Pakistan","placeID":"2449808","placeName":"Mesa","searchUrl":"http:\/\/twitter.com\/search?q=Pakistan","trendMapped":"pakistan","trendVolume":1198693},{"stateName":"AZ","trendName":"Syracuse","placeID":"2449808","placeName":"Mesa","searchUrl":"http:\/\/twitter.com\/search?q=Syracuse","trendMapped":"syracuse","trendVolume":194332},{"stateName":"CA","trendName":"#LahoreBlast","placeID":"2488042","placeName":"San Jose","searchUrl":"http:\/\/twitter.com\/search?q=%23LahoreBlast","trendMapped":"lahore+blast","trendVolume":222843},{"stateName":"CA","trendName":"#PrayForPakistan","placeID":"2488042","placeName":"San Jose","searchUrl":"http:\/\/twitter.com\/search?q=%23PrayForPakistan","trendMapped":"pray+for+pakistan","trendVolume":190644},{"stateName":"CA","trendName":"#TheWalkingDead","placeID":"2488042","placeName":"San Jose","searchUrl":"http:\/\/twitter.com\/search?q=%23TheWalkingDead","trendMapped":"the+walking+dead","trendVolume":249678},{"stateName":"CA","trendName":"#mondaymotivation","placeID":"2488042","placeName":"San Jose","searchUrl":"http:\/\/twitter.com\/search?q=%23mondaymotivation","trendMapped":"mondaymotivation","trendVolume":93466},{"stateName":"CA","trendName":"CHICKENS ATTACK","placeID":"2488042","placeName":"San Jose","searchUrl":"http:\/\/twitter.com\/search?q=%22CHICKENS+ATTACK%22","trendMapped":"CHICKENS+ATTACK","trendVolume":516869},{"stateName":"CA","trendName":"Easter","placeID":"2487956","placeName":"San Francisco","searchUrl":"http:\/\/twitter.com\/search?q=Easter","trendMapped":"easter","trendVolume":6151511},{"stateName":"CA","trendName":"Girls","placeID":"2487956","placeName":"San Francisco","searchUrl":"http:\/\/twitter.com\/search?q=Girls","trendMapped":"girls","trendVolume":807910},{"stateName":"CA","trendName":"Happy Easter","placeID":"2488042","placeName":"San Jose","searchUrl":"http:\/\/twitter.com\/search?q=%22Happy+Easter%22","trendMapped":"Happy+Easter","trendVolume":3623304},{"stateName":"CA","trendName":"Kehlani","placeID":"2488042","placeName":"San Jose","searchUrl":"http:\/\/twitter.com\/search?q=Kehlani","trendMapped":"kehlani","trendVolume":547623},{"stateName":"CA","trendName":"Kyrie","placeID":"2488042","placeName":"San Jose","searchUrl":"http:\/\/twitter.com\/search?q=Kyrie","trendMapped":"kyrie","trendVolume":568421},{"stateName":"CA","trendName":"LETS WIN FAM","placeID":"2488042","placeName":"San Jose","searchUrl":"http:\/\/twitter.com\/search?q=%22LETS+WIN+FAM%22","trendMapped":"LETS+WIN+FAM","trendVolume":1003786},{"stateName":"CA","trendName":"Pakistan","placeID":"2486340","placeName":"Sacramento","searchUrl":"http:\/\/twitter.com\/search?q=Pakistan","trendMapped":"pakistan","trendVolume":945964},{"stateName":"CA","trendName":"Syracuse","placeID":"2487889","placeName":"San Diego","searchUrl":"http:\/\/twitter.com\/search?q=Syracuse","trendMapped":"syracuse","trendVolume":197452},{"stateName":"CO","trendName":"#LahoreBlast","placeID":"2391279","placeName":"Denver","searchUrl":"http:\/\/twitter.com\/search?q=%23LahoreBlast","trendMapped":"lahore+blast","trendVolume":221210},{"stateName":"CO","trendName":"#PrayForPakistan","placeID":"2391279","placeName":"Denver","searchUrl":"http:\/\/twitter.com\/search?q=%23PrayForPakistan","trendMapped":"pray+for+pakistan","trendVolume":168697},{"stateName":"CO","trendName":"#TheWalkingDead","placeID":"2383489","placeName":"Colorado Springs","searchUrl":"http:\/\/twitter.com\/search?q=%23TheWalkingDead","trendMapped":"the+walking+dead","trendVolume":204853},{"stateName":"CO","trendName":"Easter","placeID":"2391279","placeName":"Denver","searchUrl":"http:\/\/twitter.com\/search?q=Easter","trendMapped":"easter","trendVolume":4953458},{"stateName":"CO","trendName":"Happy Easter","placeID":"2391279","placeName":"Denver","searchUrl":"http:\/\/twitter.com\/search?q=%22Happy+Easter%22","trendMapped":"Happy+Easter","trendVolume":3617608},{"stateName":"CO","trendName":"Kehlani","placeID":"2383489","placeName":"Colorado Springs","searchUrl":"http:\/\/twitter.com\/search?q=Kehlani","trendMapped":"kehlani","trendVolume":495239},{"stateName":"CO","trendName":"Kyrie","placeID":"2391279","placeName":"Denver","searchUrl":"http:\/\/twitter.com\/search?q=Kyrie","trendMapped":"kyrie","trendVolume":589845},{"stateName":"CO","trendName":"LETS WIN FAM","placeID":"2383489","placeName":"Colorado Springs","searchUrl":"http:\/\/twitter.com\/search?q=%22LETS+WIN+FAM%22","trendMapped":"LETS+WIN+FAM","trendVolume":718210},{"stateName":"CO","trendName":"Syracuse","placeID":"2391279","placeName":"Denver","searchUrl":"http:\/\/twitter.com\/search?q=Syracuse","trendMapped":"syracuse","trendVolume":200061},{"stateName":"CT","trendName":"#TheWalkingDead","placeID":"2458410","placeName":"New Haven","searchUrl":"http:\/\/twitter.com\/search?q=%23TheWalkingDead","trendMapped":"the+walking+dead","trendVolume":249319},{"stateName":"CT","trendName":"Happy Easter","placeID":"2458410","placeName":"New Haven","searchUrl":"http:\/\/twitter.com\/search?q=%22Happy+Easter%22","trendMapped":"Happy+Easter","trendVolume":2604502},{"stateName":"CT","trendName":"Pakistan","placeID":"2458410","placeName":"New Haven","searchUrl":"http:\/\/twitter.com\/search?q=Pakistan","trendMapped":"pakistan","trendVolume":1195640},{"stateName":"CT","trendName":"Syracuse","placeID":"2458410","placeName":"New Haven","searchUrl":"http:\/\/twitter.com\/search?q=Syracuse","trendMapped":"syracuse","trendVolume":204006},{"stateName":"DC","trendName":"#LahoreBlast","placeID":"2514815","placeName":"Washington","searchUrl":"http:\/\/twitter.com\/search?q=%23LahoreBlast","trendMapped":"lahore+blast","trendVolume":222326},{"stateName":"DC","trendName":"#PrayForPakistan","placeID":"2514815","placeName":"Washington","searchUrl":"http:\/\/twitter.com\/search?q=%23PrayForPakistan","trendMapped":"pray+for+pakistan","trendVolume":165284},{"stateName":"DC","trendName":"#TheWalkingDead","placeID":"2514815","placeName":"Washington","searchUrl":"http:\/\/twitter.com\/search?q=%23TheWalkingDead","trendMapped":"the+walking+dead","trendVolume":251867},{"stateName":"DC","trendName":"CHICKENS ATTACK","placeID":"2514815","placeName":"Washington","searchUrl":"http:\/\/twitter.com\/search?q=%22CHICKENS+ATTACK%22","trendMapped":"CHICKENS+ATTACK","trendVolume":511080},{"stateName":"DC","trendName":"Easter","placeID":"2514815","placeName":"Washington","searchUrl":"http:\/\/twitter.com\/search?q=Easter","trendMapped":"easter","trendVolume":6056237},{"stateName":"DC","trendName":"Kehlani","placeID":"2514815","placeName":"Washington","searchUrl":"http:\/\/twitter.com\/search?q=Kehlani","trendMapped":"kehlani","trendVolume":399128},{"stateName":"DC","trendName":"Kyrie","placeID":"2514815","placeName":"Washington","searchUrl":"http:\/\/twitter.com\/search?q=Kyrie","trendMapped":"kyrie","trendVolume":167204},{"stateName":"DC","trendName":"LETS WIN FAM","placeID":"2514815","placeName":"Washington","searchUrl":"http:\/\/twitter.com\/search?q=%22LETS+WIN+FAM%22","trendMapped":"LETS+WIN+FAM","trendVolume":797092},{"stateName":"FL","trendName":"#PrayForPakistan","placeID":"2466256","placeName":"Orlando","searchUrl":"http:\/\/twitter.com\/search?q=%23PrayForPakistan","trendMapped":"pray+for+pakistan","trendVolume":183078},{"stateName":"FL","trendName":"#TheWalkingDead","placeID":"2503863","placeName":"Tampa","searchUrl":"http:\/\/twitter.com\/search?q=%23TheWalkingDead","trendMapped":"the+walking+dead","trendVolume":213538},{"stateName":"FL","trendName":"Easter","placeID":"2503863","placeName":"Tampa","searchUrl":"http:\/\/twitter.com\/search?q=Easter","trendMapped":"easter","trendVolume":6226983},{"stateName":"FL","trendName":"Happy Easter","placeID":"2503863","placeName":"Tampa","searchUrl":"http:\/\/twitter.com\/search?q=%22Happy+Easter%22","trendMapped":"Happy+Easter","trendVolume":3601966},{"stateName":"FL","trendName":"Kyrie","placeID":"2450022","placeName":"Miami","searchUrl":"http:\/\/twitter.com\/search?q=Kyrie","trendMapped":"kyrie","trendVolume":718285},{"stateName":"FL","trendName":"Syracuse","placeID":"2503863","placeName":"Tampa","searchUrl":"http:\/\/twitter.com\/search?q=Syracuse","trendMapped":"syracuse","trendVolume":215087},{"stateName":"GA","trendName":"Happy Easter","placeID":"2357024","placeName":"Atlanta","searchUrl":"http:\/\/twitter.com\/search?q=%22Happy+Easter%22","trendMapped":"Happy+Easter","trendVolume":3548647},{"stateName":"GA","trendName":"Kyrie","placeID":"2357024","placeName":"Atlanta","searchUrl":"http:\/\/twitter.com\/search?q=Kyrie","trendMapped":"kyrie","trendVolume":616544},{"stateName":"GA","trendName":"LETS WIN FAM","placeID":"2357024","placeName":"Atlanta","searchUrl":"http:\/\/twitter.com\/search?q=%22LETS+WIN+FAM%22","trendMapped":"LETS+WIN+FAM","trendVolume":863387},{"stateName":"GA","trendName":"Party","placeID":"2357024","placeName":"Atlanta","searchUrl":"http:\/\/twitter.com\/search?q=Party","trendMapped":"party","trendVolume":384956},{"stateName":"GA","trendName":"Syracuse","placeID":"2357024","placeName":"Atlanta","searchUrl":"http:\/\/twitter.com\/search?q=Syracuse","trendMapped":"syracuse","trendVolume":191853},{"stateName":"HI","trendName":"#HappyEaster","placeID":"2423945","placeName":"Honolulu","searchUrl":"http:\/\/twitter.com\/search?q=%23HappyEaster","trendMapped":"happy+easter","trendVolume":550590},{"stateName":"HI","trendName":"Easter","placeID":"2423945","placeName":"Honolulu","searchUrl":"http:\/\/twitter.com\/search?q=Easter","trendMapped":"easter","trendVolume":1741042},{"stateName":"HI","trendName":"Happy Easter","placeID":"2423945","placeName":"Honolulu","searchUrl":"http:\/\/twitter.com\/search?q=%22Happy+Easter%22","trendMapped":"Happy+Easter","trendVolume":3494990},{"stateName":"IL","trendName":"#PrayForPakistan","placeID":"2379574","placeName":"Chicago","searchUrl":"http:\/\/twitter.com\/search?q=%23PrayForPakistan","trendMapped":"pray+for+pakistan","trendVolume":188714},{"stateName":"IL","trendName":"#TheWalkingDead","placeID":"2379574","placeName":"Chicago","searchUrl":"http:\/\/twitter.com\/search?q=%23TheWalkingDead","trendMapped":"the+walking+dead","trendVolume":197345},{"stateName":"IL","trendName":"CHICKENS ATTACK","placeID":"2379574","placeName":"Chicago","searchUrl":"http:\/\/twitter.com\/search?q=%22CHICKENS+ATTACK%22","trendMapped":"CHICKENS+ATTACK","trendVolume":487442},{"stateName":"IL","trendName":"Happy Easter","placeID":"2379574","placeName":"Chicago","searchUrl":"http:\/\/twitter.com\/search?q=%22Happy+Easter%22","trendMapped":"Happy+Easter","trendVolume":3584768},{"stateName":"IL","trendName":"Kyrie","placeID":"2379574","placeName":"Chicago","searchUrl":"http:\/\/twitter.com\/search?q=Kyrie","trendMapped":"kyrie","trendVolume":706049},{"stateName":"IL","trendName":"LETS WIN FAM","placeID":"2379574","placeName":"Chicago","searchUrl":"http:\/\/twitter.com\/search?q=%22LETS+WIN+FAM%22","trendMapped":"LETS+WIN+FAM","trendVolume":718210},{"stateName":"IN","trendName":"#LahoreBlast","placeID":"2427032","placeName":"Indianapolis","searchUrl":"http:\/\/twitter.com\/search?q=%23LahoreBlast","trendMapped":"lahore+blast","trendVolume":222843},{"stateName":"IN","trendName":"Happy Easter","placeID":"2427032","placeName":"Indianapolis","searchUrl":"http:\/\/twitter.com\/search?q=%22Happy+Easter%22","trendMapped":"Happy+Easter","trendVolume":3622141},{"stateName":"KY","trendName":"Easter","placeID":"2442327","placeName":"Louisville","searchUrl":"http:\/\/twitter.com\/search?q=Easter","trendMapped":"easter","trendVolume":4502273},{"stateName":"KY","trendName":"Happy Easter","placeID":"2442327","placeName":"Louisville","searchUrl":"http:\/\/twitter.com\/search?q=%22Happy+Easter%22","trendMapped":"Happy+Easter","trendVolume":3614168},{"stateName":"LA","trendName":"Black","placeID":"2359991","placeName":"Baton Rouge","searchUrl":"http:\/\/twitter.com\/search?q=Black","trendMapped":"black","trendVolume":799429},{"stateName":"LA","trendName":"Easter","placeID":"2458833","placeName":"New Orleans","searchUrl":"http:\/\/twitter.com\/search?q=Easter","trendMapped":"easter","trendVolume":3610323},{"stateName":"LA","trendName":"Happy Easter","placeID":"2458833","placeName":"New Orleans","searchUrl":"http:\/\/twitter.com\/search?q=%22Happy+Easter%22","trendMapped":"Happy+Easter","trendVolume":3601966},{"stateName":"MA","trendName":"#BestFanArmy","placeID":"2367105","placeName":"Boston","searchUrl":"http:\/\/twitter.com\/search?q=%23BestFanArmy","trendMapped":"best+fan+army","trendVolume":8166074},{"stateName":"MA","trendName":"#Harmonizers","placeID":"2367105","placeName":"Boston","searchUrl":"http:\/\/twitter.com\/search?q=%23Harmonizers","trendMapped":"harmonizers","trendVolume":4025182},{"stateName":"MA","trendName":"#PrayForPakistan","placeID":"2367105","placeName":"Boston","searchUrl":"http:\/\/twitter.com\/search?q=%23PrayForPakistan","trendMapped":"pray+for+pakistan","trendVolume":163979},{"stateName":"MA","trendName":"#mondaymotivation","placeID":"2367105","placeName":"Boston","searchUrl":"http:\/\/twitter.com\/search?q=%23mondaymotivation","trendMapped":"mondaymotivation","trendVolume":91776},{"stateName":"MA","trendName":"CHICKENS ATTACK","placeID":"2367105","placeName":"Boston","searchUrl":"http:\/\/twitter.com\/search?q=%22CHICKENS+ATTACK%22","trendMapped":"CHICKENS+ATTACK","trendVolume":340960},{"stateName":"MA","trendName":"Happy Easter","placeID":"2367105","placeName":"Boston","searchUrl":"http:\/\/twitter.com\/search?q=%22Happy+Easter%22","trendMapped":"Happy+Easter","trendVolume":3606886},{"stateName":"MA","trendName":"Kyrie","placeID":"2367105","placeName":"Boston","searchUrl":"http:\/\/twitter.com\/search?q=Kyrie","trendMapped":"kyrie","trendVolume":681183},{"stateName":"MA","trendName":"LETS WIN FAM","placeID":"2367105","placeName":"Boston","searchUrl":"http:\/\/twitter.com\/search?q=%22LETS+WIN+FAM%22","trendMapped":"LETS+WIN+FAM","trendVolume":955021},{"stateName":"MD","trendName":"#PrayForPakistan","placeID":"2358820","placeName":"Baltimore","searchUrl":"http:\/\/twitter.com\/search?q=%23PrayForPakistan","trendMapped":"pray+for+pakistan","trendVolume":190644},{"stateName":"MD","trendName":"#mondaymotivation","placeID":"2358820","placeName":"Baltimore","searchUrl":"http:\/\/twitter.com\/search?q=%23mondaymotivation","trendMapped":"mondaymotivation","trendVolume":87745},{"stateName":"MD","trendName":"Easter","placeID":"2358820","placeName":"Baltimore","searchUrl":"http:\/\/twitter.com\/search?q=Easter","trendMapped":"easter","trendVolume":6240275},{"stateName":"MD","trendName":"Happy Easter","placeID":"2358820","placeName":"Baltimore","searchUrl":"http:\/\/twitter.com\/search?q=%22Happy+Easter%22","trendMapped":"Happy+Easter","trendVolume":3575597},{"stateName":"MD","trendName":"Kyrie","placeID":"2358820","placeName":"Baltimore","searchUrl":"http:\/\/twitter.com\/search?q=Kyrie","trendMapped":"kyrie","trendVolume":616544},{"stateName":"MD","trendName":"LETS WIN FAM","placeID":"2358820","placeName":"Baltimore","searchUrl":"http:\/\/twitter.com\/search?q=%22LETS+WIN+FAM%22","trendMapped":"LETS+WIN+FAM","trendVolume":955021},{"stateName":"MD","trendName":"Syracuse","placeID":"2358820","placeName":"Baltimore","searchUrl":"http:\/\/twitter.com\/search?q=Syracuse","trendMapped":"syracuse","trendVolume":196575},{"stateName":"MI","trendName":"Happy Easter","placeID":"2391585","placeName":"Detroit","searchUrl":"http:\/\/twitter.com\/search?q=%22Happy+Easter%22","trendMapped":"Happy+Easter","trendVolume":3602622},{"stateName":"MI","trendName":"Syracuse","placeID":"2391585","placeName":"Detroit","searchUrl":"http:\/\/twitter.com\/search?q=Syracuse","trendMapped":"syracuse","trendVolume":194332},{"stateName":"MN","trendName":"Happy Easter","placeID":"2452078","placeName":"Minneapolis","searchUrl":"http:\/\/twitter.com\/search?q=%22Happy+Easter%22","trendMapped":"Happy+Easter","trendVolume":3582269},{"stateName":"MO","trendName":"#LahoreBlast","placeID":"2486982","placeName":"St. Louis","searchUrl":"http:\/\/twitter.com\/search?q=%23LahoreBlast","trendMapped":"lahore+blast","trendVolume":222326},{"stateName":"MO","trendName":"Easter","placeID":"2486982","placeName":"St. Louis","searchUrl":"http:\/\/twitter.com\/search?q=Easter","trendMapped":"easter","trendVolume":3597931},{"stateName":"MO","trendName":"Happy Easter","placeID":"2486982","placeName":"St. Louis","searchUrl":"http:\/\/twitter.com\/search?q=%22Happy+Easter%22","trendMapped":"Happy+Easter","trendVolume":3636622},{"stateName":"MO","trendName":"Kyrie","placeID":"2430683","placeName":"Kansas City","searchUrl":"http:\/\/twitter.com\/search?q=Kyrie","trendMapped":"kyrie","trendVolume":681183},{"stateName":"MO","trendName":"Syracuse","placeID":"2486982","placeName":"St. Louis","searchUrl":"http:\/\/twitter.com\/search?q=Syracuse","trendMapped":"syracuse","trendVolume":194332},{"stateName":"MS","trendName":"#TheWalkingDead","placeID":"2428184","placeName":"Jackson","searchUrl":"http:\/\/twitter.com\/search?q=%23TheWalkingDead","trendMapped":"the+walking+dead","trendVolume":201898},{"stateName":"MS","trendName":"Easter","placeID":"2428184","placeName":"Jackson","searchUrl":"http:\/\/twitter.com\/search?q=Easter","trendMapped":"easter","trendVolume":6282831},{"stateName":"MS","trendName":"Happy Easter","placeID":"2428184","placeName":"Jackson","searchUrl":"http:\/\/twitter.com\/search?q=%22Happy+Easter%22","trendMapped":"Happy+Easter","trendVolume":3540905},{"stateName":"NC","trendName":"#PrayForPakistan","placeID":"2478307","placeName":"Raleigh","searchUrl":"http:\/\/twitter.com\/search?q=%23PrayForPakistan","trendMapped":"pray+for+pakistan","trendVolume":190644},{"stateName":"NC","trendName":"#TheWalkingDead","placeID":"2478307","placeName":"Raleigh","searchUrl":"http:\/\/twitter.com\/search?q=%23TheWalkingDead","trendMapped":"the+walking+dead","trendVolume":251867},{"stateName":"NC","trendName":"CHICKENS ATTACK","placeID":"2478307","placeName":"Raleigh","searchUrl":"http:\/\/twitter.com\/search?q=%22CHICKENS+ATTACK%22","trendMapped":"CHICKENS+ATTACK","trendVolume":503999},{"stateName":"NC","trendName":"Easter","placeID":"2478307","placeName":"Raleigh","searchUrl":"http:\/\/twitter.com\/search?q=Easter","trendMapped":"easter","trendVolume":4074433},{"stateName":"NC","trendName":"Easter Sunday","placeID":"2414469","placeName":"Greensboro","searchUrl":"http:\/\/twitter.com\/search?q=%22Easter+Sunday%22","trendMapped":"Easter+Sunday","trendVolume":254642},{"stateName":"NC","trendName":"Happy Easter","placeID":"2478307","placeName":"Raleigh","searchUrl":"http:\/\/twitter.com\/search?q=%22Happy+Easter%22","trendMapped":"Happy+Easter","trendVolume":3581523},{"stateName":"NC","trendName":"Kyrie","placeID":"2378426","placeName":"Charlotte","searchUrl":"http:\/\/twitter.com\/search?q=Kyrie","trendMapped":"kyrie","trendVolume":706049},{"stateName":"NC","trendName":"Pakistan","placeID":"2378426","placeName":"Charlotte","searchUrl":"http:\/\/twitter.com\/search?q=Pakistan","trendMapped":"pakistan","trendVolume":1195640},{"stateName":"NC","trendName":"Syracuse","placeID":"2478307","placeName":"Raleigh","searchUrl":"http:\/\/twitter.com\/search?q=Syracuse","trendMapped":"syracuse","trendVolume":200061},{"stateName":"NE","trendName":"Easter","placeID":"2465512","placeName":"Omaha","searchUrl":"http:\/\/twitter.com\/search?q=Easter","trendMapped":"easter","trendVolume":4106161},{"stateName":"NE","trendName":"Happy Easter","placeID":"2465512","placeName":"Omaha","searchUrl":"http:\/\/twitter.com\/search?q=%22Happy+Easter%22","trendMapped":"Happy+Easter","trendVolume":3636622},{"stateName":"NM","trendName":"#PrayForPakistan","placeID":"2352824","placeName":"Albuquerque","searchUrl":"http:\/\/twitter.com\/search?q=%23PrayForPakistan","trendMapped":"pray+for+pakistan","trendVolume":190644},{"stateName":"NM","trendName":"#TheWalkingDead","placeID":"2352824","placeName":"Albuquerque","searchUrl":"http:\/\/twitter.com\/search?q=%23TheWalkingDead","trendMapped":"the+walking+dead","trendVolume":248006},{"stateName":"NM","trendName":"CHICKENS ATTACK","placeID":"2352824","placeName":"Albuquerque","searchUrl":"http:\/\/twitter.com\/search?q=%22CHICKENS+ATTACK%22","trendMapped":"CHICKENS+ATTACK","trendVolume":474587},{"stateName":"NM","trendName":"Happy Easter","placeID":"2352824","placeName":"Albuquerque","searchUrl":"http:\/\/twitter.com\/search?q=%22Happy+Easter%22","trendMapped":"Happy+Easter","trendVolume":3485583},{"stateName":"NM","trendName":"Kehlani","placeID":"2352824","placeName":"Albuquerque","searchUrl":"http:\/\/twitter.com\/search?q=Kehlani","trendMapped":"kehlani","trendVolume":547623},{"stateName":"NM","trendName":"Kyrie","placeID":"2352824","placeName":"Albuquerque","searchUrl":"http:\/\/twitter.com\/search?q=Kyrie","trendMapped":"kyrie","trendVolume":421337},{"stateName":"NM","trendName":"LETS WIN FAM","placeID":"2352824","placeName":"Albuquerque","searchUrl":"http:\/\/twitter.com\/search?q=%22LETS+WIN+FAM%22","trendMapped":"LETS+WIN+FAM","trendVolume":762347},{"stateName":"NM","trendName":"Pakistan","placeID":"2352824","placeName":"Albuquerque","searchUrl":"http:\/\/twitter.com\/search?q=Pakistan","trendMapped":"pakistan","trendVolume":1198693},{"stateName":"NM","trendName":"Syracuse","placeID":"2352824","placeName":"Albuquerque","searchUrl":"http:\/\/twitter.com\/search?q=Syracuse","trendMapped":"syracuse","trendVolume":190489},{"stateName":"NV","trendName":"#LahoreBlast","placeID":"2436704","placeName":"Las Vegas","searchUrl":"http:\/\/twitter.com\/search?q=%23LahoreBlast","trendMapped":"lahore+blast","trendVolume":221769},{"stateName":"NV","trendName":"Easter","placeID":"2436704","placeName":"Las Vegas","searchUrl":"http:\/\/twitter.com\/search?q=Easter","trendMapped":"easter","trendVolume":5328540},{"stateName":"NV","trendName":"Happy Easter","placeID":"2436704","placeName":"Las Vegas","searchUrl":"http:\/\/twitter.com\/search?q=%22Happy+Easter%22","trendMapped":"Happy+Easter","trendVolume":3625817},{"stateName":"NY","trendName":"#PrayForPakistan","placeID":"2459115","placeName":"New York","searchUrl":"http:\/\/twitter.com\/search?q=%23PrayForPakistan","trendMapped":"pray+for+pakistan","trendVolume":190644},{"stateName":"NY","trendName":"#TheWalkingDead","placeID":"2459115","placeName":"New York","searchUrl":"http:\/\/twitter.com\/search?q=%23TheWalkingDead","trendMapped":"the+walking+dead","trendVolume":194862},{"stateName":"NY","trendName":"Happy Easter","placeID":"2459115","placeName":"New York","searchUrl":"http:\/\/twitter.com\/search?q=%22Happy+Easter%22","trendMapped":"Happy+Easter","trendVolume":3485583},{"stateName":"NY","trendName":"Kehlani","placeID":"2459115","placeName":"New York","searchUrl":"http:\/\/twitter.com\/search?q=Kehlani","trendMapped":"kehlani","trendVolume":529236},{"stateName":"NY","trendName":"LETS WIN FAM","placeID":"2459115","placeName":"New York","searchUrl":"http:\/\/twitter.com\/search?q=%22LETS+WIN+FAM%22","trendMapped":"LETS+WIN+FAM","trendVolume":820933},{"stateName":"OH","trendName":"Easter","placeID":"2383660","placeName":"Columbus","searchUrl":"http:\/\/twitter.com\/search?q=Easter","trendMapped":"easter","trendVolume":6274615},{"stateName":"OH","trendName":"Happy Easter","placeID":"2381475","placeName":"Cleveland","searchUrl":"http:\/\/twitter.com\/search?q=%22Happy+Easter%22","trendMapped":"Happy+Easter","trendVolume":3625817},{"stateName":"OH","trendName":"Syracuse","placeID":"2383660","placeName":"Columbus","searchUrl":"http:\/\/twitter.com\/search?q=Syracuse","trendMapped":"syracuse","trendVolume":218678},{"stateName":"OK","trendName":"Easter","placeID":"2464592","placeName":"Oklahoma City","searchUrl":"http:\/\/twitter.com\/search?q=Easter","trendMapped":"easter","trendVolume":2500171},{"stateName":"OK","trendName":"Happy Easter","placeID":"2464592","placeName":"Oklahoma City","searchUrl":"http:\/\/twitter.com\/search?q=%22Happy+Easter%22","trendMapped":"Happy+Easter","trendVolume":3623304},{"stateName":"OR","trendName":"Easter","placeID":"2475687","placeName":"Portland","searchUrl":"http:\/\/twitter.com\/search?q=Easter","trendMapped":"easter","trendVolume":2493646},{"stateName":"OR","trendName":"Happy Easter","placeID":"2475687","placeName":"Portland","searchUrl":"http:\/\/twitter.com\/search?q=%22Happy+Easter%22","trendMapped":"Happy+Easter","trendVolume":3602622},{"stateName":"PA","trendName":"#PrayForPakistan","placeID":"2471217","placeName":"Philadelphia","searchUrl":"http:\/\/twitter.com\/search?q=%23PrayForPakistan","trendMapped":"pray+for+pakistan","trendVolume":168697},{"stateName":"PA","trendName":"#TheWalkingDead","placeID":"2473224","placeName":"Pittsburgh","searchUrl":"http:\/\/twitter.com\/search?q=%23TheWalkingDead","trendMapped":"the+walking+dead","trendVolume":248698},{"stateName":"PA","trendName":"#mondaymotivation","placeID":"2471217","placeName":"Philadelphia","searchUrl":"http:\/\/twitter.com\/search?q=%23mondaymotivation","trendMapped":"mondaymotivation","trendVolume":92936},{"stateName":"PA","trendName":"Easter","placeID":"2471217","placeName":"Philadelphia","searchUrl":"http:\/\/twitter.com\/search?q=Easter","trendMapped":"easter","trendVolume":5782647},{"stateName":"PA","trendName":"Happy Easter","placeID":"2473224","placeName":"Pittsburgh","searchUrl":"http:\/\/twitter.com\/search?q=%22Happy+Easter%22","trendMapped":"Happy+Easter","trendVolume":3606886},{"stateName":"PA","trendName":"Kehlani","placeID":"2471217","placeName":"Philadelphia","searchUrl":"http:\/\/twitter.com\/search?q=Kehlani","trendMapped":"kehlani","trendVolume":547623},{"stateName":"PA","trendName":"Kyrie","placeID":"2471217","placeName":"Philadelphia","searchUrl":"http:\/\/twitter.com\/search?q=Kyrie","trendMapped":"kyrie","trendVolume":641173},{"stateName":"PA","trendName":"LETS WIN FAM","placeID":"2471217","placeName":"Philadelphia","searchUrl":"http:\/\/twitter.com\/search?q=%22LETS+WIN+FAM%22","trendMapped":"LETS+WIN+FAM","trendVolume":989582},{"stateName":"PA","trendName":"Syracuse","placeID":"2473224","placeName":"Pittsburgh","searchUrl":"http:\/\/twitter.com\/search?q=Syracuse","trendMapped":"syracuse","trendVolume":219902},{"stateName":"RI","trendName":"Easter","placeID":"2477058","placeName":"Providence","searchUrl":"http:\/\/twitter.com\/search?q=Easter","trendMapped":"easter","trendVolume":4528731},{"stateName":"RI","trendName":"Happy Easter","placeID":"2477058","placeName":"Providence","searchUrl":"http:\/\/twitter.com\/search?q=%22Happy+Easter%22","trendMapped":"Happy+Easter","trendVolume":3627814},{"stateName":"TN","trendName":"#PrayForPakistan","placeID":"2449323","placeName":"Memphis","searchUrl":"http:\/\/twitter.com\/search?q=%23PrayForPakistan","trendMapped":"pray+for+pakistan","trendVolume":186577},{"stateName":"TN","trendName":"#TheWalkingDead","placeID":"2449323","placeName":"Memphis","searchUrl":"http:\/\/twitter.com\/search?q=%23TheWalkingDead","trendMapped":"the+walking+dead","trendVolume":207248},{"stateName":"TN","trendName":"Easter","placeID":"2449323","placeName":"Memphis","searchUrl":"http:\/\/twitter.com\/search?q=Easter","trendMapped":"easter","trendVolume":6302569},{"stateName":"TN","trendName":"Happy Easter","placeID":"2457170","placeName":"Nashville","searchUrl":"http:\/\/twitter.com\/search?q=%22Happy+Easter%22","trendMapped":"Happy+Easter","trendVolume":3589497},{"stateName":"TX","trendName":"#LahoreBlast","placeID":"2388929","placeName":"Dallas-Ft. Worth","searchUrl":"http:\/\/twitter.com\/search?q=%23LahoreBlast","trendMapped":"lahore+blast","trendVolume":220084},{"stateName":"TX","trendName":"#PrayForPakistan","placeID":"2388929","placeName":"Dallas-Ft. Worth","searchUrl":"http:\/\/twitter.com\/search?q=%23PrayForPakistan","trendMapped":"pray+for+pakistan","trendVolume":161074},{"stateName":"TX","trendName":"#TheWalkingDead","placeID":"2424766","placeName":"Houston","searchUrl":"http:\/\/twitter.com\/search?q=%23TheWalkingDead","trendMapped":"the+walking+dead","trendVolume":285575},{"stateName":"TX","trendName":"Easter","placeID":"2487796","placeName":"San Antonio","searchUrl":"http:\/\/twitter.com\/search?q=Easter","trendMapped":"easter","trendVolume":6282831},{"stateName":"TX","trendName":"Happy Easter","placeID":"2487796","placeName":"San Antonio","searchUrl":"http:\/\/twitter.com\/search?q=%22Happy+Easter%22","trendMapped":"Happy+Easter","trendVolume":3625817},{"stateName":"TX","trendName":"Kyrie","placeID":"2424766","placeName":"Houston","searchUrl":"http:\/\/twitter.com\/search?q=Kyrie","trendMapped":"kyrie","trendVolume":648574},{"stateName":"TX","trendName":"Syracuse","placeID":"2424766","placeName":"Houston","searchUrl":"http:\/\/twitter.com\/search?q=Syracuse","trendMapped":"syracuse","trendVolume":194332},{"stateName":"UT","trendName":"Easter","placeID":"2487610","placeName":"Salt Lake City","searchUrl":"http:\/\/twitter.com\/search?q=Easter","trendMapped":"easter","trendVolume":1933305},{"stateName":"UT","trendName":"Happy Easter","placeID":"2487610","placeName":"Salt Lake City","searchUrl":"http:\/\/twitter.com\/search?q=%22Happy+Easter%22","trendMapped":"Happy+Easter","trendVolume":3617608},{"stateName":"VA","trendName":"#TheWalkingDead","placeID":"2512636","placeName":"Virginia Beach","searchUrl":"http:\/\/twitter.com\/search?q=%23TheWalkingDead","trendMapped":"the+walking+dead","trendVolume":211660},{"stateName":"VA","trendName":"CHICKENS ATTACK","placeID":"2512636","placeName":"Virginia Beach","searchUrl":"http:\/\/twitter.com\/search?q=%22CHICKENS+ATTACK%22","trendMapped":"CHICKENS+ATTACK","trendVolume":511080},{"stateName":"VA","trendName":"Easter","placeID":"2480894","placeName":"Richmond","searchUrl":"http:\/\/twitter.com\/search?q=Easter","trendMapped":"easter","trendVolume":6282831},{"stateName":"VA","trendName":"Happy Easter","placeID":"2512636","placeName":"Virginia Beach","searchUrl":"http:\/\/twitter.com\/search?q=%22Happy+Easter%22","trendMapped":"Happy+Easter","trendVolume":3591501},{"stateName":"VA","trendName":"Kehlani","placeID":"2512636","placeName":"Virginia Beach","searchUrl":"http:\/\/twitter.com\/search?q=Kehlani","trendMapped":"kehlani","trendVolume":547623},{"stateName":"VA","trendName":"Kyrie","placeID":"2512636","placeName":"Virginia Beach","searchUrl":"http:\/\/twitter.com\/search?q=Kyrie","trendMapped":"kyrie","trendVolume":367269},{"stateName":"VA","trendName":"LETS WIN FAM","placeID":"2512636","placeName":"Virginia Beach","searchUrl":"http:\/\/twitter.com\/search?q=%22LETS+WIN+FAM%22","trendMapped":"LETS+WIN+FAM","trendVolume":955021},{"stateName":"WA","trendName":"Happy Easter","placeID":"2490383","placeName":"Seattle","searchUrl":"http:\/\/twitter.com\/search?q=%22Happy+Easter%22","trendMapped":"Happy+Easter","trendVolume":3613420},{"stateName":"WI","trendName":"Happy Easter","placeID":"2451822","placeName":"Milwaukee","searchUrl":"http:\/\/twitter.com\/search?q=%22Happy+Easter%22","trendMapped":"Happy+Easter","trendVolume":3576806},{"stateName":"XX","trendName":"#HappyBirthdayLadyGaga","placeID":"23424977","placeName":"United States","searchUrl":"http:\/\/twitter.com\/search?q=%23HappyBirthdayLadyGaga","trendMapped":"happy+birthday+lady+gaga","trendVolume":136225},{"stateName":"XX","trendName":"#LahoreBlast","placeID":"23424977","placeName":"United States","searchUrl":"http:\/\/twitter.com\/search?q=%23LahoreBlast","trendMapped":"lahore+blast","trendVolume":220084},{"stateName":"XX","trendName":"#TheWalkingDead","placeID":"23424977","placeName":"United States","searchUrl":"http:\/\/twitter.com\/search?q=%23TheWalkingDead","trendMapped":"the+walking+dead","trendVolume":248698},{"stateName":"XX","trendName":"Kyrie","placeID":"23424977","placeName":"United States","searchUrl":"http:\/\/twitter.com\/search?q=Kyrie","trendMapped":"kyrie","trendVolume":511166},{"stateName":"XX","trendName":"LETS WIN FAM","placeID":"23424977","placeName":"United States","searchUrl":"http:\/\/twitter.com\/search?q=%22LETS+WIN+FAM%22","trendMapped":"LETS+WIN+FAM","trendVolume":626008}]