[{"stateName":"AL","trendName":"#Brussels","placeID":"2364559","placeName":"Birmingham","searchUrl":"http:\/\/twitter.com\/search?q=%23Brussels","trendMapped":"brussels","trendVolume":1880514},{"stateName":"AL","trendName":"#LoveTwitter","placeID":"2364559","placeName":"Birmingham","searchUrl":"http:\/\/twitter.com\/search?q=%23LoveTwitter","trendMapped":"love+twitter","trendVolume":1199118},{"stateName":"AL","trendName":"Apple","placeID":"2364559","placeName":"Birmingham","searchUrl":"http:\/\/twitter.com\/search?q=Apple","trendMapped":"apple","trendVolume":1495540},{"stateName":"AZ","trendName":"#AIPAC2016","placeID":"2471390","placeName":"Phoenix","searchUrl":"http:\/\/twitter.com\/search?q=%23AIPAC2016","trendMapped":"aipac2016","trendVolume":137327},{"stateName":"AZ","trendName":"#Brussels","placeID":"2508428","placeName":"Tucson","searchUrl":"http:\/\/twitter.com\/search?q=%23Brussels","trendMapped":"brussels","trendVolume":1645675},{"stateName":"AZ","trendName":"#BrusselsAttacks","placeID":"2508428","placeName":"Tucson","searchUrl":"http:\/\/twitter.com\/search?q=%23BrusselsAttacks","trendMapped":"brussels+attacks","trendVolume":187967},{"stateName":"AZ","trendName":"#DWTS","placeID":"2508428","placeName":"Tucson","searchUrl":"http:\/\/twitter.com\/search?q=%23DWTS","trendMapped":"dwts","trendVolume":60774},{"stateName":"AZ","trendName":"#EBHolyTuesday","placeID":"2508428","placeName":"Tucson","searchUrl":"http:\/\/twitter.com\/search?q=%23EBHolyTuesday","trendMapped":"eb+holy+tuesday","trendVolume":950216},{"stateName":"AZ","trendName":"#LHHReunion","placeID":"2508428","placeName":"Tucson","searchUrl":"http:\/\/twitter.com\/search?q=%23LHHReunion","trendMapped":"lhh+reunion","trendVolume":57820},{"stateName":"AZ","trendName":"#MeRapoPorMarioBau","placeID":"2508428","placeName":"Tucson","searchUrl":"http:\/\/twitter.com\/search?q=%23MeRapoPorMarioBau","trendMapped":"me+rapo+por+mario+bau","trendVolume":92169},{"stateName":"AZ","trendName":"#PrayForTheWorld","placeID":"2508428","placeName":"Tucson","searchUrl":"http:\/\/twitter.com\/search?q=%23PrayForTheWorld","trendMapped":"pray+for+the+world","trendVolume":201191},{"stateName":"AZ","trendName":"B\u00e9lgica","placeID":"2508428","placeName":"Tucson","searchUrl":"http:\/\/twitter.com\/search?q=B%C3%A9lgica","trendMapped":"b\u00e9lgica","trendVolume":295046},{"stateName":"AZ","trendName":"Cuba","placeID":"2471390","placeName":"Phoenix","searchUrl":"http:\/\/twitter.com\/search?q=Cuba","trendMapped":"cuba","trendVolume":766564},{"stateName":"AZ","trendName":"iPhone SE","placeID":"2508428","placeName":"Tucson","searchUrl":"http:\/\/twitter.com\/search?q=%22iPhone+SE%22","trendMapped":"iPhone+SE","trendVolume":438074},{"stateName":"CA","trendName":"#AIPAC2016","placeID":"2487889","placeName":"San Diego","searchUrl":"http:\/\/twitter.com\/search?q=%23AIPAC2016","trendMapped":"aipac2016","trendVolume":136949},{"stateName":"CA","trendName":"#AppleEvent","placeID":"2487889","placeName":"San Diego","searchUrl":"http:\/\/twitter.com\/search?q=%23AppleEvent","trendMapped":"apple+event","trendVolume":196189},{"stateName":"CA","trendName":"#Brussels","placeID":"2488042","placeName":"San Jose","searchUrl":"http:\/\/twitter.com\/search?q=%23Brussels","trendMapped":"brussels","trendVolume":1812260},{"stateName":"CA","trendName":"#BrusselsAttacks","placeID":"2442047","placeName":"Los Angeles","searchUrl":"http:\/\/twitter.com\/search?q=%23BrusselsAttacks","trendMapped":"brussels+attacks","trendVolume":185820},{"stateName":"CA","trendName":"#DWTS","placeID":"2487956","placeName":"San Francisco","searchUrl":"http:\/\/twitter.com\/search?q=%23DWTS","trendMapped":"dwts","trendVolume":60774},{"stateName":"CA","trendName":"#EBHolyTuesday","placeID":"2488042","placeName":"San Jose","searchUrl":"http:\/\/twitter.com\/search?q=%23EBHolyTuesday","trendMapped":"eb+holy+tuesday","trendVolume":950216},{"stateName":"CA","trendName":"#LHHReunion","placeID":"2487956","placeName":"San Francisco","searchUrl":"http:\/\/twitter.com\/search?q=%23LHHReunion","trendMapped":"lhh+reunion","trendVolume":57820},{"stateName":"CA","trendName":"#LoveTwitter","placeID":"2487956","placeName":"San Francisco","searchUrl":"http:\/\/twitter.com\/search?q=%23LoveTwitter","trendMapped":"love+twitter","trendVolume":1267021},{"stateName":"CA","trendName":"#MeRapoPorMarioBau","placeID":"2488042","placeName":"San Jose","searchUrl":"http:\/\/twitter.com\/search?q=%23MeRapoPorMarioBau","trendMapped":"me+rapo+por+mario+bau","trendVolume":92169},{"stateName":"CA","trendName":"#PrayForTheWorld","placeID":"2488042","placeName":"San Jose","searchUrl":"http:\/\/twitter.com\/search?q=%23PrayForTheWorld","trendMapped":"pray+for+the+world","trendVolume":199284},{"stateName":"CA","trendName":"Brussels","placeID":"2486340","placeName":"Sacramento","searchUrl":"http:\/\/twitter.com\/search?q=Brussels","trendMapped":"brussels","trendVolume":2289479},{"stateName":"CA","trendName":"B\u00e9lgica","placeID":"2488042","placeName":"San Jose","searchUrl":"http:\/\/twitter.com\/search?q=B%C3%A9lgica","trendMapped":"b\u00e9lgica","trendVolume":288566},{"stateName":"CA","trendName":"Cuba","placeID":"2486340","placeName":"Sacramento","searchUrl":"http:\/\/twitter.com\/search?q=Cuba","trendMapped":"cuba","trendVolume":769964},{"stateName":"CA","trendName":"iPhone SE","placeID":"2488042","placeName":"San Jose","searchUrl":"http:\/\/twitter.com\/search?q=%22iPhone+SE%22","trendMapped":"iPhone+SE","trendVolume":449224},{"stateName":"CO","trendName":"#AppleEvent","placeID":"2391279","placeName":"Denver","searchUrl":"http:\/\/twitter.com\/search?q=%23AppleEvent","trendMapped":"apple+event","trendVolume":202722},{"stateName":"CO","trendName":"#Brussels","placeID":"2391279","placeName":"Denver","searchUrl":"http:\/\/twitter.com\/search?q=%23Brussels","trendMapped":"brussels","trendVolume":1707937},{"stateName":"CO","trendName":"#BrusselsAttacks","placeID":"2383489","placeName":"Colorado Springs","searchUrl":"http:\/\/twitter.com\/search?q=%23BrusselsAttacks","trendMapped":"brussels+attacks","trendVolume":185820},{"stateName":"CO","trendName":"#EBHolyTuesday","placeID":"2391279","placeName":"Denver","searchUrl":"http:\/\/twitter.com\/search?q=%23EBHolyTuesday","trendMapped":"eb+holy+tuesday","trendVolume":934273},{"stateName":"CO","trendName":"#LHHReunion","placeID":"2383489","placeName":"Colorado Springs","searchUrl":"http:\/\/twitter.com\/search?q=%23LHHReunion","trendMapped":"lhh+reunion","trendVolume":55594},{"stateName":"CO","trendName":"#LoveTwitter","placeID":"2391279","placeName":"Denver","searchUrl":"http:\/\/twitter.com\/search?q=%23LoveTwitter","trendMapped":"love+twitter","trendVolume":1240387},{"stateName":"CO","trendName":"#MeRapoPorMarioBau","placeID":"2383489","placeName":"Colorado Springs","searchUrl":"http:\/\/twitter.com\/search?q=%23MeRapoPorMarioBau","trendMapped":"me+rapo+por+mario+bau","trendVolume":61450},{"stateName":"CO","trendName":"#PrayForTheWorld","placeID":"2383489","placeName":"Colorado Springs","searchUrl":"http:\/\/twitter.com\/search?q=%23PrayForTheWorld","trendMapped":"pray+for+the+world","trendVolume":199284},{"stateName":"CO","trendName":"Brussels","placeID":"2391279","placeName":"Denver","searchUrl":"http:\/\/twitter.com\/search?q=Brussels","trendMapped":"brussels","trendVolume":1904935},{"stateName":"CO","trendName":"B\u00e9lgica","placeID":"2391279","placeName":"Denver","searchUrl":"http:\/\/twitter.com\/search?q=B%C3%A9lgica","trendMapped":"b\u00e9lgica","trendVolume":296176},{"stateName":"CO","trendName":"iPhone SE","placeID":"2383489","placeName":"Colorado Springs","searchUrl":"http:\/\/twitter.com\/search?q=%22iPhone+SE%22","trendMapped":"iPhone+SE","trendVolume":435408},{"stateName":"CT","trendName":"#Brussels","placeID":"2458410","placeName":"New Haven","searchUrl":"http:\/\/twitter.com\/search?q=%23Brussels","trendMapped":"brussels","trendVolume":1836368},{"stateName":"CT","trendName":"#LoveTwitter","placeID":"2458410","placeName":"New Haven","searchUrl":"http:\/\/twitter.com\/search?q=%23LoveTwitter","trendMapped":"love+twitter","trendVolume":1244042},{"stateName":"CT","trendName":"Apple","placeID":"2458410","placeName":"New Haven","searchUrl":"http:\/\/twitter.com\/search?q=Apple","trendMapped":"apple","trendVolume":1494926},{"stateName":"CT","trendName":"Brussels","placeID":"2458410","placeName":"New Haven","searchUrl":"http:\/\/twitter.com\/search?q=Brussels","trendMapped":"brussels","trendVolume":3703239},{"stateName":"DC","trendName":"#Brussels","placeID":"2514815","placeName":"Washington","searchUrl":"http:\/\/twitter.com\/search?q=%23Brussels","trendMapped":"brussels","trendVolume":1667298},{"stateName":"DC","trendName":"#PrayForTheWorld","placeID":"2514815","placeName":"Washington","searchUrl":"http:\/\/twitter.com\/search?q=%23PrayForTheWorld","trendMapped":"pray+for+the+world","trendVolume":191214},{"stateName":"DC","trendName":"Tara","placeID":"2514815","placeName":"Washington","searchUrl":"http:\/\/twitter.com\/search?q=Tara","trendMapped":"tara","trendVolume":75271},{"stateName":"FL","trendName":"#AIPAC2016","placeID":"2503863","placeName":"Tampa","searchUrl":"http:\/\/twitter.com\/search?q=%23AIPAC2016","trendMapped":"aipac2016","trendVolume":125739},{"stateName":"FL","trendName":"#AppleEvent","placeID":"2503863","placeName":"Tampa","searchUrl":"http:\/\/twitter.com\/search?q=%23AppleEvent","trendMapped":"apple+event","trendVolume":193951},{"stateName":"FL","trendName":"#Brussels","placeID":"2503863","placeName":"Tampa","searchUrl":"http:\/\/twitter.com\/search?q=%23Brussels","trendMapped":"brussels","trendVolume":1687943},{"stateName":"FL","trendName":"#EBHolyTuesday","placeID":"2503863","placeName":"Tampa","searchUrl":"http:\/\/twitter.com\/search?q=%23EBHolyTuesday","trendMapped":"eb+holy+tuesday","trendVolume":888174},{"stateName":"FL","trendName":"#LoveTwitter","placeID":"2503863","placeName":"Tampa","searchUrl":"http:\/\/twitter.com\/search?q=%23LoveTwitter","trendMapped":"love+twitter","trendVolume":1259060},{"stateName":"FL","trendName":"#PrayForTheWorld","placeID":"2503863","placeName":"Tampa","searchUrl":"http:\/\/twitter.com\/search?q=%23PrayForTheWorld","trendMapped":"pray+for+the+world","trendVolume":191214},{"stateName":"FL","trendName":"Brussels","placeID":"2503863","placeName":"Tampa","searchUrl":"http:\/\/twitter.com\/search?q=Brussels","trendMapped":"brussels","trendVolume":3754258},{"stateName":"FL","trendName":"B\u00e9lgica","placeID":"2503863","placeName":"Tampa","searchUrl":"http:\/\/twitter.com\/search?q=B%C3%A9lgica","trendMapped":"b\u00e9lgica","trendVolume":288566},{"stateName":"FL","trendName":"Cuba","placeID":"2503713","placeName":"Tallahassee","searchUrl":"http:\/\/twitter.com\/search?q=Cuba","trendMapped":"cuba","trendVolume":772903},{"stateName":"FL","trendName":"Muslims","placeID":"2428344","placeName":"Jacksonville","searchUrl":"http:\/\/twitter.com\/search?q=Muslims","trendMapped":"muslims","trendVolume":296524},{"stateName":"FL","trendName":"Tara","placeID":"2450022","placeName":"Miami","searchUrl":"http:\/\/twitter.com\/search?q=Tara","trendMapped":"tara","trendVolume":70791},{"stateName":"FL","trendName":"Wrestlemania","placeID":"2450022","placeName":"Miami","searchUrl":"http:\/\/twitter.com\/search?q=Wrestlemania","trendMapped":"wrestlemania","trendVolume":76893},{"stateName":"FL","trendName":"iPhone SE","placeID":"2503863","placeName":"Tampa","searchUrl":"http:\/\/twitter.com\/search?q=%22iPhone+SE%22","trendMapped":"iPhone+SE","trendVolume":418168},{"stateName":"GA","trendName":"#Brussels","placeID":"2357024","placeName":"Atlanta","searchUrl":"http:\/\/twitter.com\/search?q=%23Brussels","trendMapped":"brussels","trendVolume":1667298},{"stateName":"GA","trendName":"#LHHReunion","placeID":"2357024","placeName":"Atlanta","searchUrl":"http:\/\/twitter.com\/search?q=%23LHHReunion","trendMapped":"lhh+reunion","trendVolume":50002},{"stateName":"GA","trendName":"#LoveTwitter","placeID":"2357024","placeName":"Atlanta","searchUrl":"http:\/\/twitter.com\/search?q=%23LoveTwitter","trendMapped":"love+twitter","trendVolume":1017147},{"stateName":"GA","trendName":"#PrayForTheWorld","placeID":"2357024","placeName":"Atlanta","searchUrl":"http:\/\/twitter.com\/search?q=%23PrayForTheWorld","trendMapped":"pray+for+the+world","trendVolume":205840},{"stateName":"GA","trendName":"#StopIslam","placeID":"2357024","placeName":"Atlanta","searchUrl":"http:\/\/twitter.com\/search?q=%23StopIslam","trendMapped":"stop+islam","trendVolume":385640},{"stateName":"GA","trendName":"iPhone SE","placeID":"2357024","placeName":"Atlanta","searchUrl":"http:\/\/twitter.com\/search?q=%22iPhone+SE%22","trendMapped":"iPhone+SE","trendVolume":449224},{"stateName":"HI","trendName":"#LoveTwitter","placeID":"2423945","placeName":"Honolulu","searchUrl":"http:\/\/twitter.com\/search?q=%23LoveTwitter","trendMapped":"love+twitter","trendVolume":1275225},{"stateName":"HI","trendName":"#brusselsattack","placeID":"2423945","placeName":"Honolulu","searchUrl":"http:\/\/twitter.com\/search?q=%23brusselsattack","trendMapped":"brusselsattack","trendVolume":242261},{"stateName":"HI","trendName":"Apple","placeID":"2423945","placeName":"Honolulu","searchUrl":"http:\/\/twitter.com\/search?q=Apple","trendMapped":"apple","trendVolume":1507428},{"stateName":"IL","trendName":"#Brussels","placeID":"2379574","placeName":"Chicago","searchUrl":"http:\/\/twitter.com\/search?q=%23Brussels","trendMapped":"brussels","trendVolume":1645675},{"stateName":"IL","trendName":"#BrusselsAttacks","placeID":"2379574","placeName":"Chicago","searchUrl":"http:\/\/twitter.com\/search?q=%23BrusselsAttacks","trendMapped":"brussels+attacks","trendVolume":177785},{"stateName":"IL","trendName":"#LHHReunion","placeID":"2379574","placeName":"Chicago","searchUrl":"http:\/\/twitter.com\/search?q=%23LHHReunion","trendMapped":"lhh+reunion","trendVolume":50605},{"stateName":"IL","trendName":"#LoveTwitter","placeID":"2379574","placeName":"Chicago","searchUrl":"http:\/\/twitter.com\/search?q=%23LoveTwitter","trendMapped":"love+twitter","trendVolume":942997},{"stateName":"IL","trendName":"#PrayForTheWorld","placeID":"2379574","placeName":"Chicago","searchUrl":"http:\/\/twitter.com\/search?q=%23PrayForTheWorld","trendMapped":"pray+for+the+world","trendVolume":191214},{"stateName":"IL","trendName":"#WorldPoetryDay","placeID":"2379574","placeName":"Chicago","searchUrl":"http:\/\/twitter.com\/search?q=%23WorldPoetryDay","trendMapped":"world+poetry+day","trendVolume":178221},{"stateName":"IL","trendName":"Wrestlemania","placeID":"2379574","placeName":"Chicago","searchUrl":"http:\/\/twitter.com\/search?q=Wrestlemania","trendMapped":"wrestlemania","trendVolume":79384},{"stateName":"IL","trendName":"iPhone SE","placeID":"2379574","placeName":"Chicago","searchUrl":"http:\/\/twitter.com\/search?q=%22iPhone+SE%22","trendMapped":"iPhone+SE","trendVolume":443772},{"stateName":"IN","trendName":"#Brussels","placeID":"2427032","placeName":"Indianapolis","searchUrl":"http:\/\/twitter.com\/search?q=%23Brussels","trendMapped":"brussels","trendVolume":933929},{"stateName":"IN","trendName":"#LoveTwitter","placeID":"2427032","placeName":"Indianapolis","searchUrl":"http:\/\/twitter.com\/search?q=%23LoveTwitter","trendMapped":"love+twitter","trendVolume":1233767},{"stateName":"IN","trendName":"Brussels","placeID":"2427032","placeName":"Indianapolis","searchUrl":"http:\/\/twitter.com\/search?q=Brussels","trendMapped":"brussels","trendVolume":3589792},{"stateName":"KY","trendName":"#Brussels","placeID":"2442327","placeName":"Louisville","searchUrl":"http:\/\/twitter.com\/search?q=%23Brussels","trendMapped":"brussels","trendVolume":1795070},{"stateName":"KY","trendName":"#EBHolyTuesday","placeID":"2442327","placeName":"Louisville","searchUrl":"http:\/\/twitter.com\/search?q=%23EBHolyTuesday","trendMapped":"eb+holy+tuesday","trendVolume":898057},{"stateName":"KY","trendName":"#LoveTwitter","placeID":"2442327","placeName":"Louisville","searchUrl":"http:\/\/twitter.com\/search?q=%23LoveTwitter","trendMapped":"love+twitter","trendVolume":1275225},{"stateName":"KY","trendName":"iPhone SE","placeID":"2442327","placeName":"Louisville","searchUrl":"http:\/\/twitter.com\/search?q=%22iPhone+SE%22","trendMapped":"iPhone+SE","trendVolume":598353},{"stateName":"LA","trendName":"#Brussels","placeID":"2458833","placeName":"New Orleans","searchUrl":"http:\/\/twitter.com\/search?q=%23Brussels","trendMapped":"brussels","trendVolume":1645675},{"stateName":"LA","trendName":"#LoveTwitter","placeID":"2458833","placeName":"New Orleans","searchUrl":"http:\/\/twitter.com\/search?q=%23LoveTwitter","trendMapped":"love+twitter","trendVolume":1223314},{"stateName":"LA","trendName":"Apple","placeID":"2359991","placeName":"Baton Rouge","searchUrl":"http:\/\/twitter.com\/search?q=Apple","trendMapped":"apple","trendVolume":1477405},{"stateName":"LA","trendName":"Brussels","placeID":"2458833","placeName":"New Orleans","searchUrl":"http:\/\/twitter.com\/search?q=Brussels","trendMapped":"brussels","trendVolume":4034262},{"stateName":"LA","trendName":"Cuba","placeID":"2458833","placeName":"New Orleans","searchUrl":"http:\/\/twitter.com\/search?q=Cuba","trendMapped":"cuba","trendVolume":619064},{"stateName":"MA","trendName":"#AIPAC2016","placeID":"2367105","placeName":"Boston","searchUrl":"http:\/\/twitter.com\/search?q=%23AIPAC2016","trendMapped":"aipac2016","trendVolume":118116},{"stateName":"MA","trendName":"#BatmanvSuperman","placeID":"2367105","placeName":"Boston","searchUrl":"http:\/\/twitter.com\/search?q=%23BatmanvSuperman","trendMapped":"batmanv+superman","trendVolume":65996},{"stateName":"MA","trendName":"#Brussels","placeID":"2367105","placeName":"Boston","searchUrl":"http:\/\/twitter.com\/search?q=%23Brussels","trendMapped":"brussels","trendVolume":1895395},{"stateName":"MA","trendName":"#LHHReunion","placeID":"2367105","placeName":"Boston","searchUrl":"http:\/\/twitter.com\/search?q=%23LHHReunion","trendMapped":"lhh+reunion","trendVolume":52971},{"stateName":"MA","trendName":"#LoveTwitter","placeID":"2367105","placeName":"Boston","searchUrl":"http:\/\/twitter.com\/search?q=%23LoveTwitter","trendMapped":"love+twitter","trendVolume":943825},{"stateName":"MA","trendName":"#StopIslam","placeID":"2367105","placeName":"Boston","searchUrl":"http:\/\/twitter.com\/search?q=%23StopIslam","trendMapped":"stop+islam","trendVolume":415443},{"stateName":"MA","trendName":"iPhone SE","placeID":"2367105","placeName":"Boston","searchUrl":"http:\/\/twitter.com\/search?q=%22iPhone+SE%22","trendMapped":"iPhone+SE","trendVolume":452027},{"stateName":"MD","trendName":"#Brussels","placeID":"2358820","placeName":"Baltimore","searchUrl":"http:\/\/twitter.com\/search?q=%23Brussels","trendMapped":"brussels","trendVolume":1824579},{"stateName":"MD","trendName":"#LoveTwitter","placeID":"2358820","placeName":"Baltimore","searchUrl":"http:\/\/twitter.com\/search?q=%23LoveTwitter","trendMapped":"love+twitter","trendVolume":1172291},{"stateName":"MI","trendName":"#Brussels","placeID":"2391585","placeName":"Detroit","searchUrl":"http:\/\/twitter.com\/search?q=%23Brussels","trendMapped":"brussels","trendVolume":1454959},{"stateName":"MI","trendName":"#DWTS","placeID":"2391585","placeName":"Detroit","searchUrl":"http:\/\/twitter.com\/search?q=%23DWTS","trendMapped":"dwts","trendVolume":52238},{"stateName":"MI","trendName":"#LoveTwitter","placeID":"2391585","placeName":"Detroit","searchUrl":"http:\/\/twitter.com\/search?q=%23LoveTwitter","trendMapped":"love+twitter","trendVolume":985297},{"stateName":"MI","trendName":"#PrayForTheWorld","placeID":"2391585","placeName":"Detroit","searchUrl":"http:\/\/twitter.com\/search?q=%23PrayForTheWorld","trendMapped":"pray+for+the+world","trendVolume":188092},{"stateName":"MI","trendName":"#WorldPoetryDay","placeID":"2391585","placeName":"Detroit","searchUrl":"http:\/\/twitter.com\/search?q=%23WorldPoetryDay","trendMapped":"world+poetry+day","trendVolume":176349},{"stateName":"MI","trendName":"Apple","placeID":"2391585","placeName":"Detroit","searchUrl":"http:\/\/twitter.com\/search?q=Apple","trendMapped":"apple","trendVolume":1479334},{"stateName":"MI","trendName":"iPhone SE","placeID":"2391585","placeName":"Detroit","searchUrl":"http:\/\/twitter.com\/search?q=%22iPhone+SE%22","trendMapped":"iPhone+SE","trendVolume":458894},{"stateName":"MN","trendName":"#EBHolyTuesday","placeID":"2452078","placeName":"Minneapolis","searchUrl":"http:\/\/twitter.com\/search?q=%23EBHolyTuesday","trendMapped":"eb+holy+tuesday","trendVolume":831827},{"stateName":"MN","trendName":"#LHHReunion","placeID":"2452078","placeName":"Minneapolis","searchUrl":"http:\/\/twitter.com\/search?q=%23LHHReunion","trendMapped":"lhh+reunion","trendVolume":49143},{"stateName":"MN","trendName":"#LoveTwitter","placeID":"2452078","placeName":"Minneapolis","searchUrl":"http:\/\/twitter.com\/search?q=%23LoveTwitter","trendMapped":"love+twitter","trendVolume":984122},{"stateName":"MN","trendName":"#PrayForTheWorld","placeID":"2452078","placeName":"Minneapolis","searchUrl":"http:\/\/twitter.com\/search?q=%23PrayForTheWorld","trendMapped":"pray+for+the+world","trendVolume":197586},{"stateName":"MN","trendName":"Brussels","placeID":"2452078","placeName":"Minneapolis","searchUrl":"http:\/\/twitter.com\/search?q=Brussels","trendMapped":"brussels","trendVolume":3402220},{"stateName":"MN","trendName":"Cuba","placeID":"2452078","placeName":"Minneapolis","searchUrl":"http:\/\/twitter.com\/search?q=Cuba","trendMapped":"cuba","trendVolume":766564},{"stateName":"MN","trendName":"Warriors","placeID":"2452078","placeName":"Minneapolis","searchUrl":"http:\/\/twitter.com\/search?q=Warriors","trendMapped":"warriors","trendVolume":61501},{"stateName":"MO","trendName":"#Brussels","placeID":"2486982","placeName":"St. Louis","searchUrl":"http:\/\/twitter.com\/search?q=%23Brussels","trendMapped":"brussels","trendVolume":1597813},{"stateName":"MO","trendName":"#EBHolyTuesday","placeID":"2486982","placeName":"St. Louis","searchUrl":"http:\/\/twitter.com\/search?q=%23EBHolyTuesday","trendMapped":"eb+holy+tuesday","trendVolume":934273},{"stateName":"MO","trendName":"#LoveTwitter","placeID":"2486982","placeName":"St. Louis","searchUrl":"http:\/\/twitter.com\/search?q=%23LoveTwitter","trendMapped":"love+twitter","trendVolume":1261595},{"stateName":"MO","trendName":"Apple","placeID":"2486982","placeName":"St. Louis","searchUrl":"http:\/\/twitter.com\/search?q=Apple","trendMapped":"apple","trendVolume":1502194},{"stateName":"MO","trendName":"Cuba","placeID":"2486982","placeName":"St. Louis","searchUrl":"http:\/\/twitter.com\/search?q=Cuba","trendMapped":"cuba","trendVolume":772673},{"stateName":"MS","trendName":"#Brussels","placeID":"2428184","placeName":"Jackson","searchUrl":"http:\/\/twitter.com\/search?q=%23Brussels","trendMapped":"brussels","trendVolume":1848141},{"stateName":"MS","trendName":"#LoveTwitter","placeID":"2428184","placeName":"Jackson","searchUrl":"http:\/\/twitter.com\/search?q=%23LoveTwitter","trendMapped":"love+twitter","trendVolume":1015550},{"stateName":"MS","trendName":"iPhone SE","placeID":"2428184","placeName":"Jackson","searchUrl":"http:\/\/twitter.com\/search?q=%22iPhone+SE%22","trendMapped":"iPhone+SE","trendVolume":458894},{"stateName":"NC","trendName":"#Brussels","placeID":"2478307","placeName":"Raleigh","searchUrl":"http:\/\/twitter.com\/search?q=%23Brussels","trendMapped":"brussels","trendVolume":1854901},{"stateName":"NC","trendName":"#EBHolyTuesday","placeID":"2478307","placeName":"Raleigh","searchUrl":"http:\/\/twitter.com\/search?q=%23EBHolyTuesday","trendMapped":"eb+holy+tuesday","trendVolume":810541},{"stateName":"NC","trendName":"#LHHReunion","placeID":"2478307","placeName":"Raleigh","searchUrl":"http:\/\/twitter.com\/search?q=%23LHHReunion","trendMapped":"lhh+reunion","trendVolume":56812},{"stateName":"NC","trendName":"#LoveTwitter","placeID":"2414469","placeName":"Greensboro","searchUrl":"http:\/\/twitter.com\/search?q=%23LoveTwitter","trendMapped":"love+twitter","trendVolume":1244042},{"stateName":"NC","trendName":"#WorldPoetryDay","placeID":"2478307","placeName":"Raleigh","searchUrl":"http:\/\/twitter.com\/search?q=%23WorldPoetryDay","trendMapped":"world+poetry+day","trendVolume":177759},{"stateName":"NC","trendName":"Apple","placeID":"2478307","placeName":"Raleigh","searchUrl":"http:\/\/twitter.com\/search?q=Apple","trendMapped":"apple","trendVolume":1507318},{"stateName":"NC","trendName":"Brussels","placeID":"2414469","placeName":"Greensboro","searchUrl":"http:\/\/twitter.com\/search?q=Brussels","trendMapped":"brussels","trendVolume":2825064},{"stateName":"NC","trendName":"Spurs","placeID":"2378426","placeName":"Charlotte","searchUrl":"http:\/\/twitter.com\/search?q=Spurs","trendMapped":"spurs","trendVolume":68826},{"stateName":"NC","trendName":"iPhone SE","placeID":"2378426","placeName":"Charlotte","searchUrl":"http:\/\/twitter.com\/search?q=%22iPhone+SE%22","trendMapped":"iPhone+SE","trendVolume":438074},{"stateName":"NE","trendName":"#Brussels","placeID":"2465512","placeName":"Omaha","searchUrl":"http:\/\/twitter.com\/search?q=%23Brussels","trendMapped":"brussels","trendVolume":1597813},{"stateName":"NE","trendName":"#LoveTwitter","placeID":"2465512","placeName":"Omaha","searchUrl":"http:\/\/twitter.com\/search?q=%23LoveTwitter","trendMapped":"love+twitter","trendVolume":1213075},{"stateName":"NE","trendName":"Brussels","placeID":"2465512","placeName":"Omaha","searchUrl":"http:\/\/twitter.com\/search?q=Brussels","trendMapped":"brussels","trendVolume":3715785},{"stateName":"NE","trendName":"Muslims","placeID":"2465512","placeName":"Omaha","searchUrl":"http:\/\/twitter.com\/search?q=Muslims","trendMapped":"muslims","trendVolume":304782},{"stateName":"NM","trendName":"#Brussels","placeID":"2352824","placeName":"Albuquerque","searchUrl":"http:\/\/twitter.com\/search?q=%23Brussels","trendMapped":"brussels","trendVolume":1687943},{"stateName":"NM","trendName":"#BrusselsAttacks","placeID":"2352824","placeName":"Albuquerque","searchUrl":"http:\/\/twitter.com\/search?q=%23BrusselsAttacks","trendMapped":"brussels+attacks","trendVolume":175897},{"stateName":"NM","trendName":"#DWTS","placeID":"2352824","placeName":"Albuquerque","searchUrl":"http:\/\/twitter.com\/search?q=%23DWTS","trendMapped":"dwts","trendVolume":60774},{"stateName":"NM","trendName":"#EBHolyTuesday","placeID":"2352824","placeName":"Albuquerque","searchUrl":"http:\/\/twitter.com\/search?q=%23EBHolyTuesday","trendMapped":"eb+holy+tuesday","trendVolume":903058},{"stateName":"NM","trendName":"#LHHReunion","placeID":"2352824","placeName":"Albuquerque","searchUrl":"http:\/\/twitter.com\/search?q=%23LHHReunion","trendMapped":"lhh+reunion","trendVolume":57820},{"stateName":"NM","trendName":"#MeRapoPorMarioBau","placeID":"2352824","placeName":"Albuquerque","searchUrl":"http:\/\/twitter.com\/search?q=%23MeRapoPorMarioBau","trendMapped":"me+rapo+por+mario+bau","trendVolume":90380},{"stateName":"NM","trendName":"#PrayForTheWorld","placeID":"2352824","placeName":"Albuquerque","searchUrl":"http:\/\/twitter.com\/search?q=%23PrayForTheWorld","trendMapped":"pray+for+the+world","trendVolume":195438},{"stateName":"NM","trendName":"iPhone SE","placeID":"2352824","placeName":"Albuquerque","searchUrl":"http:\/\/twitter.com\/search?q=%22iPhone+SE%22","trendMapped":"iPhone+SE","trendVolume":426692},{"stateName":"NV","trendName":"#Brussels","placeID":"2436704","placeName":"Las Vegas","searchUrl":"http:\/\/twitter.com\/search?q=%23Brussels","trendMapped":"brussels","trendVolume":1757161},{"stateName":"NV","trendName":"#BrusselsAttacks","placeID":"2436704","placeName":"Las Vegas","searchUrl":"http:\/\/twitter.com\/search?q=%23BrusselsAttacks","trendMapped":"brussels+attacks","trendVolume":172297},{"stateName":"NV","trendName":"#EBHolyTuesday","placeID":"2436704","placeName":"Las Vegas","searchUrl":"http:\/\/twitter.com\/search?q=%23EBHolyTuesday","trendMapped":"eb+holy+tuesday","trendVolume":913726},{"stateName":"NV","trendName":"#LoveTwitter","placeID":"2436704","placeName":"Las Vegas","searchUrl":"http:\/\/twitter.com\/search?q=%23LoveTwitter","trendMapped":"love+twitter","trendVolume":1240387},{"stateName":"NV","trendName":"Cuba","placeID":"2436704","placeName":"Las Vegas","searchUrl":"http:\/\/twitter.com\/search?q=Cuba","trendMapped":"cuba","trendVolume":768990},{"stateName":"NV","trendName":"ISIS","placeID":"2436704","placeName":"Las Vegas","searchUrl":"http:\/\/twitter.com\/search?q=ISIS","trendMapped":"isis","trendVolume":442327},{"stateName":"NY","trendName":"#Brussels","placeID":"2459115","placeName":"New York","searchUrl":"http:\/\/twitter.com\/search?q=%23Brussels","trendMapped":"brussels","trendVolume":1667298},{"stateName":"NY","trendName":"#BrusselsAttacks","placeID":"2459115","placeName":"New York","searchUrl":"http:\/\/twitter.com\/search?q=%23BrusselsAttacks","trendMapped":"brussels+attacks","trendVolume":185820},{"stateName":"NY","trendName":"#EBHolyTuesday","placeID":"2459115","placeName":"New York","searchUrl":"http:\/\/twitter.com\/search?q=%23EBHolyTuesday","trendMapped":"eb+holy+tuesday","trendVolume":950216},{"stateName":"NY","trendName":"#LHHReunion","placeID":"2459115","placeName":"New York","searchUrl":"http:\/\/twitter.com\/search?q=%23LHHReunion","trendMapped":"lhh+reunion","trendVolume":56812},{"stateName":"NY","trendName":"#MeRapoPorMarioBau","placeID":"2459115","placeName":"New York","searchUrl":"http:\/\/twitter.com\/search?q=%23MeRapoPorMarioBau","trendMapped":"me+rapo+por+mario+bau","trendVolume":85763},{"stateName":"NY","trendName":"#PrayForTheWorld","placeID":"2459115","placeName":"New York","searchUrl":"http:\/\/twitter.com\/search?q=%23PrayForTheWorld","trendMapped":"pray+for+the+world","trendVolume":191214},{"stateName":"NY","trendName":"#StopIslam","placeID":"2459115","placeName":"New York","searchUrl":"http:\/\/twitter.com\/search?q=%23StopIslam","trendMapped":"stop+islam","trendVolume":350246},{"stateName":"NY","trendName":"B\u00e9lgica","placeID":"2459115","placeName":"New York","searchUrl":"http:\/\/twitter.com\/search?q=B%C3%A9lgica","trendMapped":"b\u00e9lgica","trendVolume":292455},{"stateName":"NY","trendName":"Tara","placeID":"2459115","placeName":"New York","searchUrl":"http:\/\/twitter.com\/search?q=Tara","trendMapped":"tara","trendVolume":72085},{"stateName":"NY","trendName":"Wrestlemania","placeID":"2459115","placeName":"New York","searchUrl":"http:\/\/twitter.com\/search?q=Wrestlemania","trendMapped":"wrestlemania","trendVolume":79546},{"stateName":"NY","trendName":"iPhone SE","placeID":"2459115","placeName":"New York","searchUrl":"http:\/\/twitter.com\/search?q=%22iPhone+SE%22","trendMapped":"iPhone+SE","trendVolume":452027},{"stateName":"OH","trendName":"#Brussels","placeID":"2383660","placeName":"Columbus","searchUrl":"http:\/\/twitter.com\/search?q=%23Brussels","trendMapped":"brussels","trendVolume":1880514},{"stateName":"OH","trendName":"#EBHolyTuesday","placeID":"2381475","placeName":"Cleveland","searchUrl":"http:\/\/twitter.com\/search?q=%23EBHolyTuesday","trendMapped":"eb+holy+tuesday","trendVolume":805230},{"stateName":"OH","trendName":"#LoveTwitter","placeID":"2383660","placeName":"Columbus","searchUrl":"http:\/\/twitter.com\/search?q=%23LoveTwitter","trendMapped":"love+twitter","trendVolume":1275225},{"stateName":"OH","trendName":"#WorldWaterDay","placeID":"2383660","placeName":"Columbus","searchUrl":"http:\/\/twitter.com\/search?q=%23WorldWaterDay","trendMapped":"world+water+day","trendVolume":233908},{"stateName":"OH","trendName":"Brussels","placeID":"2383660","placeName":"Columbus","searchUrl":"http:\/\/twitter.com\/search?q=Brussels","trendMapped":"brussels","trendVolume":2433984},{"stateName":"OH","trendName":"Cuba","placeID":"2383660","placeName":"Columbus","searchUrl":"http:\/\/twitter.com\/search?q=Cuba","trendMapped":"cuba","trendVolume":760362},{"stateName":"OH","trendName":"Peter","placeID":"2381475","placeName":"Cleveland","searchUrl":"http:\/\/twitter.com\/search?q=Peter","trendMapped":"peter","trendVolume":116537},{"stateName":"OH","trendName":"Warriors","placeID":"2381475","placeName":"Cleveland","searchUrl":"http:\/\/twitter.com\/search?q=Warriors","trendMapped":"warriors","trendVolume":57869},{"stateName":"OH","trendName":"iPhone SE","placeID":"2381475","placeName":"Cleveland","searchUrl":"http:\/\/twitter.com\/search?q=%22iPhone+SE%22","trendMapped":"iPhone+SE","trendVolume":438074},{"stateName":"OK","trendName":"#Brussels","placeID":"2464592","placeName":"Oklahoma City","searchUrl":"http:\/\/twitter.com\/search?q=%23Brussels","trendMapped":"brussels","trendVolume":1149913},{"stateName":"OK","trendName":"#LoveTwitter","placeID":"2464592","placeName":"Oklahoma City","searchUrl":"http:\/\/twitter.com\/search?q=%23LoveTwitter","trendMapped":"love+twitter","trendVolume":1261595},{"stateName":"OK","trendName":"Brussels","placeID":"2464592","placeName":"Oklahoma City","searchUrl":"http:\/\/twitter.com\/search?q=Brussels","trendMapped":"brussels","trendVolume":4067872},{"stateName":"OR","trendName":"#Brussels","placeID":"2475687","placeName":"Portland","searchUrl":"http:\/\/twitter.com\/search?q=%23Brussels","trendMapped":"brussels","trendVolume":1687943},{"stateName":"OR","trendName":"#EBHolyTuesday","placeID":"2475687","placeName":"Portland","searchUrl":"http:\/\/twitter.com\/search?q=%23EBHolyTuesday","trendMapped":"eb+holy+tuesday","trendVolume":854509},{"stateName":"OR","trendName":"#LoveTwitter","placeID":"2475687","placeName":"Portland","searchUrl":"http:\/\/twitter.com\/search?q=%23LoveTwitter","trendMapped":"love+twitter","trendVolume":1267021},{"stateName":"OR","trendName":"Apple","placeID":"2475687","placeName":"Portland","searchUrl":"http:\/\/twitter.com\/search?q=Apple","trendMapped":"apple","trendVolume":1504125},{"stateName":"OR","trendName":"Cuba","placeID":"2475687","placeName":"Portland","searchUrl":"http:\/\/twitter.com\/search?q=Cuba","trendMapped":"cuba","trendVolume":768431},{"stateName":"PA","trendName":"#Brussels","placeID":"2473224","placeName":"Pittsburgh","searchUrl":"http:\/\/twitter.com\/search?q=%23Brussels","trendMapped":"brussels","trendVolume":1824579},{"stateName":"PA","trendName":"#DWTS","placeID":"2473224","placeName":"Pittsburgh","searchUrl":"http:\/\/twitter.com\/search?q=%23DWTS","trendMapped":"dwts","trendVolume":60624},{"stateName":"PA","trendName":"#EBHolyTuesday","placeID":"2473224","placeName":"Pittsburgh","searchUrl":"http:\/\/twitter.com\/search?q=%23EBHolyTuesday","trendMapped":"eb+holy+tuesday","trendVolume":928914},{"stateName":"PA","trendName":"#LHHReunion","placeID":"2473224","placeName":"Pittsburgh","searchUrl":"http:\/\/twitter.com\/search?q=%23LHHReunion","trendMapped":"lhh+reunion","trendVolume":55594},{"stateName":"PA","trendName":"#LoveTwitter","placeID":"2473224","placeName":"Pittsburgh","searchUrl":"http:\/\/twitter.com\/search?q=%23LoveTwitter","trendMapped":"love+twitter","trendVolume":1246837},{"stateName":"PA","trendName":"#MeRapoPorMarioBau","placeID":"2471217","placeName":"Philadelphia","searchUrl":"http:\/\/twitter.com\/search?q=%23MeRapoPorMarioBau","trendMapped":"me+rapo+por+mario+bau","trendVolume":92169},{"stateName":"PA","trendName":"#WorldPoetryDay","placeID":"2473224","placeName":"Pittsburgh","searchUrl":"http:\/\/twitter.com\/search?q=%23WorldPoetryDay","trendMapped":"world+poetry+day","trendVolume":177338},{"stateName":"PA","trendName":"Brussels","placeID":"2473224","placeName":"Pittsburgh","searchUrl":"http:\/\/twitter.com\/search?q=Brussels","trendMapped":"brussels","trendVolume":3542616},{"stateName":"PA","trendName":"B\u00e9lgica","placeID":"2471217","placeName":"Philadelphia","searchUrl":"http:\/\/twitter.com\/search?q=B%C3%A9lgica","trendMapped":"b\u00e9lgica","trendVolume":288566},{"stateName":"PA","trendName":"ISIS","placeID":"2473224","placeName":"Pittsburgh","searchUrl":"http:\/\/twitter.com\/search?q=ISIS","trendMapped":"isis","trendVolume":452453},{"stateName":"PA","trendName":"iPhone SE","placeID":"2471217","placeName":"Philadelphia","searchUrl":"http:\/\/twitter.com\/search?q=%22iPhone+SE%22","trendMapped":"iPhone+SE","trendVolume":449224},{"stateName":"RI","trendName":"#Brussels","placeID":"2477058","placeName":"Providence","searchUrl":"http:\/\/twitter.com\/search?q=%23Brussels","trendMapped":"brussels","trendVolume":1687943},{"stateName":"RI","trendName":"#LoveTwitter","placeID":"2477058","placeName":"Providence","searchUrl":"http:\/\/twitter.com\/search?q=%23LoveTwitter","trendMapped":"love+twitter","trendVolume":1253142},{"stateName":"RI","trendName":"B\u00e9lgica","placeID":"2477058","placeName":"Providence","searchUrl":"http:\/\/twitter.com\/search?q=B%C3%A9lgica","trendMapped":"b\u00e9lgica","trendVolume":288566},{"stateName":"RI","trendName":"R.I.","placeID":"2477058","placeName":"Providence","searchUrl":"http:\/\/twitter.com\/search?q=R.I.","trendMapped":"r.i.","trendVolume":243660},{"stateName":"TN","trendName":"#Brussels","placeID":"2457170","placeName":"Nashville","searchUrl":"http:\/\/twitter.com\/search?q=%23Brussels","trendMapped":"brussels","trendVolume":1725183},{"stateName":"TN","trendName":"#LoveTwitter","placeID":"2457170","placeName":"Nashville","searchUrl":"http:\/\/twitter.com\/search?q=%23LoveTwitter","trendMapped":"love+twitter","trendVolume":1253142},{"stateName":"TN","trendName":"Belgium","placeID":"2449323","placeName":"Memphis","searchUrl":"http:\/\/twitter.com\/search?q=Belgium","trendMapped":"belgium","trendVolume":781643},{"stateName":"TN","trendName":"Brussels","placeID":"2457170","placeName":"Nashville","searchUrl":"http:\/\/twitter.com\/search?q=Brussels","trendMapped":"brussels","trendVolume":3678128},{"stateName":"TN","trendName":"ISIS","placeID":"2457170","placeName":"Nashville","searchUrl":"http:\/\/twitter.com\/search?q=ISIS","trendMapped":"isis","trendVolume":454660},{"stateName":"TX","trendName":"#AIPAC2016","placeID":"2388929","placeName":"Dallas-Ft. Worth","searchUrl":"http:\/\/twitter.com\/search?q=%23AIPAC2016","trendMapped":"aipac2016","trendVolume":118116},{"stateName":"TX","trendName":"#Brussels","placeID":"2487796","placeName":"San Antonio","searchUrl":"http:\/\/twitter.com\/search?q=%23Brussels","trendMapped":"brussels","trendVolume":1757161},{"stateName":"TX","trendName":"#BrusselsAttacks","placeID":"2388929","placeName":"Dallas-Ft. Worth","searchUrl":"http:\/\/twitter.com\/search?q=%23BrusselsAttacks","trendMapped":"brussels+attacks","trendVolume":187967},{"stateName":"TX","trendName":"#DWTS","placeID":"2424766","placeName":"Houston","searchUrl":"http:\/\/twitter.com\/search?q=%23DWTS","trendMapped":"dwts","trendVolume":60281},{"stateName":"TX","trendName":"#EBHolyTuesday","placeID":"2487796","placeName":"San Antonio","searchUrl":"http:\/\/twitter.com\/search?q=%23EBHolyTuesday","trendMapped":"eb+holy+tuesday","trendVolume":903058},{"stateName":"TX","trendName":"#LHHReunion","placeID":"2388929","placeName":"Dallas-Ft. Worth","searchUrl":"http:\/\/twitter.com\/search?q=%23LHHReunion","trendMapped":"lhh+reunion","trendVolume":56812},{"stateName":"TX","trendName":"#LoveTwitter","placeID":"2487796","placeName":"San Antonio","searchUrl":"http:\/\/twitter.com\/search?q=%23LoveTwitter","trendMapped":"love+twitter","trendVolume":1261595},{"stateName":"TX","trendName":"#MeRapoPorMarioBau","placeID":"2424766","placeName":"Houston","searchUrl":"http:\/\/twitter.com\/search?q=%23MeRapoPorMarioBau","trendMapped":"me+rapo+por+mario+bau","trendVolume":89657},{"stateName":"TX","trendName":"#StopIslam","placeID":"2424766","placeName":"Houston","searchUrl":"http:\/\/twitter.com\/search?q=%23StopIslam","trendMapped":"stop+islam","trendVolume":413940},{"stateName":"TX","trendName":"#WorldWaterDay","placeID":"2357536","placeName":"Austin","searchUrl":"http:\/\/twitter.com\/search?q=%23WorldWaterDay","trendMapped":"world+water+day","trendVolume":233908},{"stateName":"TX","trendName":"Apple","placeID":"2357536","placeName":"Austin","searchUrl":"http:\/\/twitter.com\/search?q=Apple","trendMapped":"apple","trendVolume":1489331},{"stateName":"TX","trendName":"Brussels","placeID":"2487796","placeName":"San Antonio","searchUrl":"http:\/\/twitter.com\/search?q=Brussels","trendMapped":"brussels","trendVolume":4134404},{"stateName":"TX","trendName":"Cuba","placeID":"2487796","placeName":"San Antonio","searchUrl":"http:\/\/twitter.com\/search?q=Cuba","trendMapped":"cuba","trendVolume":805499},{"stateName":"TX","trendName":"Tara","placeID":"2424766","placeName":"Houston","searchUrl":"http:\/\/twitter.com\/search?q=Tara","trendMapped":"tara","trendVolume":70130},{"stateName":"TX","trendName":"Wrestlemania","placeID":"2424766","placeName":"Houston","searchUrl":"http:\/\/twitter.com\/search?q=Wrestlemania","trendMapped":"wrestlemania","trendVolume":79546},{"stateName":"TX","trendName":"iPhone SE","placeID":"2424766","placeName":"Houston","searchUrl":"http:\/\/twitter.com\/search?q=%22iPhone+SE%22","trendMapped":"iPhone+SE","trendVolume":435408},{"stateName":"UT","trendName":"#Brussels","placeID":"2487610","placeName":"Salt Lake City","searchUrl":"http:\/\/twitter.com\/search?q=%23Brussels","trendMapped":"brussels","trendVolume":1397610},{"stateName":"UT","trendName":"#LoveTwitter","placeID":"2487610","placeName":"Salt Lake City","searchUrl":"http:\/\/twitter.com\/search?q=%23LoveTwitter","trendMapped":"love+twitter","trendVolume":1202570},{"stateName":"UT","trendName":"#PrayForTheWorld","placeID":"2487610","placeName":"Salt Lake City","searchUrl":"http:\/\/twitter.com\/search?q=%23PrayForTheWorld","trendMapped":"pray+for+the+world","trendVolume":194393},{"stateName":"UT","trendName":"Brussels","placeID":"2487610","placeName":"Salt Lake City","searchUrl":"http:\/\/twitter.com\/search?q=Brussels","trendMapped":"brussels","trendVolume":3542616},{"stateName":"UT","trendName":"Cuba","placeID":"2487610","placeName":"Salt Lake City","searchUrl":"http:\/\/twitter.com\/search?q=Cuba","trendMapped":"cuba","trendVolume":770072},{"stateName":"VA","trendName":"#Brussels","placeID":"2512636","placeName":"Virginia Beach","searchUrl":"http:\/\/twitter.com\/search?q=%23Brussels","trendMapped":"brussels","trendVolume":1742006},{"stateName":"VA","trendName":"#DWTS","placeID":"2512636","placeName":"Virginia Beach","searchUrl":"http:\/\/twitter.com\/search?q=%23DWTS","trendMapped":"dwts","trendVolume":61041},{"stateName":"VA","trendName":"#EBHolyTuesday","placeID":"2512636","placeName":"Virginia Beach","searchUrl":"http:\/\/twitter.com\/search?q=%23EBHolyTuesday","trendMapped":"eb+holy+tuesday","trendVolume":869118},{"stateName":"VA","trendName":"#LoveTwitter","placeID":"2460389","placeName":"Norfolk","searchUrl":"http:\/\/twitter.com\/search?q=%23LoveTwitter","trendMapped":"love+twitter","trendVolume":982032},{"stateName":"VA","trendName":"#MeRapoPorMarioBau","placeID":"2512636","placeName":"Virginia Beach","searchUrl":"http:\/\/twitter.com\/search?q=%23MeRapoPorMarioBau","trendMapped":"me+rapo+por+mario+bau","trendVolume":92169},{"stateName":"VA","trendName":"#PrayForTheWorld","placeID":"2512636","placeName":"Virginia Beach","searchUrl":"http:\/\/twitter.com\/search?q=%23PrayForTheWorld","trendMapped":"pray+for+the+world","trendVolume":197586},{"stateName":"VA","trendName":"#brusselsattack","placeID":"2460389","placeName":"Norfolk","searchUrl":"http:\/\/twitter.com\/search?q=%23brusselsattack","trendMapped":"brusselsattack","trendVolume":244002},{"stateName":"VA","trendName":"Apple","placeID":"2480894","placeName":"Richmond","searchUrl":"http:\/\/twitter.com\/search?q=Apple","trendMapped":"apple","trendVolume":1504125},{"stateName":"VA","trendName":"Brussels","placeID":"2460389","placeName":"Norfolk","searchUrl":"http:\/\/twitter.com\/search?q=Brussels","trendMapped":"brussels","trendVolume":2377822},{"stateName":"VA","trendName":"Peter","placeID":"2460389","placeName":"Norfolk","searchUrl":"http:\/\/twitter.com\/search?q=Peter","trendMapped":"peter","trendVolume":120613},{"stateName":"VA","trendName":"iPhone SE","placeID":"2512636","placeName":"Virginia Beach","searchUrl":"http:\/\/twitter.com\/search?q=%22iPhone+SE%22","trendMapped":"iPhone+SE","trendVolume":443772},{"stateName":"WA","trendName":"#AIPAC2016","placeID":"2490383","placeName":"Seattle","searchUrl":"http:\/\/twitter.com\/search?q=%23AIPAC2016","trendMapped":"aipac2016","trendVolume":128117},{"stateName":"WA","trendName":"#Brussels","placeID":"2490383","placeName":"Seattle","searchUrl":"http:\/\/twitter.com\/search?q=%23Brussels","trendMapped":"brussels","trendVolume":1725183},{"stateName":"WA","trendName":"#LHHReunion","placeID":"2490383","placeName":"Seattle","searchUrl":"http:\/\/twitter.com\/search?q=%23LHHReunion","trendMapped":"lhh+reunion","trendVolume":56812},{"stateName":"WA","trendName":"#PrayForTheWorld","placeID":"2490383","placeName":"Seattle","searchUrl":"http:\/\/twitter.com\/search?q=%23PrayForTheWorld","trendMapped":"pray+for+the+world","trendVolume":199284},{"stateName":"WA","trendName":"Apple","placeID":"2490383","placeName":"Seattle","searchUrl":"http:\/\/twitter.com\/search?q=Apple","trendMapped":"apple","trendVolume":1497856},{"stateName":"WA","trendName":"Brussels","placeID":"2490383","placeName":"Seattle","searchUrl":"http:\/\/twitter.com\/search?q=Brussels","trendMapped":"brussels","trendVolume":1529244},{"stateName":"WA","trendName":"iPhone SE","placeID":"2490383","placeName":"Seattle","searchUrl":"http:\/\/twitter.com\/search?q=%22iPhone+SE%22","trendMapped":"iPhone+SE","trendVolume":420880},{"stateName":"WI","trendName":"#Brussels","placeID":"2451822","placeName":"Milwaukee","searchUrl":"http:\/\/twitter.com\/search?q=%23Brussels","trendMapped":"brussels","trendVolume":1880514},{"stateName":"WI","trendName":"#LoveTwitter","placeID":"2451822","placeName":"Milwaukee","searchUrl":"http:\/\/twitter.com\/search?q=%23LoveTwitter","trendMapped":"love+twitter","trendVolume":1240387},{"stateName":"WI","trendName":"Brussels","placeID":"2451822","placeName":"Milwaukee","searchUrl":"http:\/\/twitter.com\/search?q=Brussels","trendMapped":"brussels","trendVolume":1354520},{"stateName":"XX","trendName":"#Brussels","placeID":"23424977","placeName":"United States","searchUrl":"http:\/\/twitter.com\/search?q=%23Brussels","trendMapped":"brussels","trendVolume":1702056},{"stateName":"XX","trendName":"#DWTS","placeID":"23424977","placeName":"United States","searchUrl":"http:\/\/twitter.com\/search?q=%23DWTS","trendMapped":"dwts","trendVolume":60281},{"stateName":"XX","trendName":"#EBHolyTuesday","placeID":"23424977","placeName":"United States","searchUrl":"http:\/\/twitter.com\/search?q=%23EBHolyTuesday","trendMapped":"eb+holy+tuesday","trendVolume":919289},{"stateName":"XX","trendName":"#LHHReunion","placeID":"23424977","placeName":"United States","searchUrl":"http:\/\/twitter.com\/search?q=%23LHHReunion","trendMapped":"lhh+reunion","trendVolume":53972},{"stateName":"XX","trendName":"#MeRapoPorMarioBau","placeID":"23424977","placeName":"United States","searchUrl":"http:\/\/twitter.com\/search?q=%23MeRapoPorMarioBau","trendMapped":"me+rapo+por+mario+bau","trendVolume":81620},{"stateName":"XX","trendName":"#PrayForTheWorld","placeID":"23424977","placeName":"United States","searchUrl":"http:\/\/twitter.com\/search?q=%23PrayForTheWorld","trendMapped":"pray+for+the+world","trendVolume":195438},{"stateName":"XX","trendName":"B\u00e9lgica","placeID":"23424977","placeName":"United States","searchUrl":"http:\/\/twitter.com\/search?q=B%C3%A9lgica","trendMapped":"b\u00e9lgica","trendVolume":292455}]