[{"stateName":"AL","trendName":"#StPatricksDay","placeID":"2364559","placeName":"Birmingham","searchUrl":"http:\/\/twitter.com\/search?q=%23StPatricksDay","trendMapped":"st+patricks+day","trendVolume":953604},{"stateName":"AL","trendName":"Michigan State","placeID":"2364559","placeName":"Birmingham","searchUrl":"http:\/\/twitter.com\/search?q=%22Michigan+State%22","trendMapped":"Michigan+State","trendVolume":210114},{"stateName":"AL","trendName":"st. patrick's day","placeID":"2364559","placeName":"Birmingham","searchUrl":"http:\/\/twitter.com\/search?q=%22st.+patrick%27s+day%22","trendMapped":"st.+patrick's+day","trendVolume":1092393},{"stateName":"AZ","trendName":"#ALDENvasionSaYnares","placeID":"2508428","placeName":"Tucson","searchUrl":"http:\/\/twitter.com\/search?q=%23ALDENvasionSaYnares","trendMapped":"alde+nvasion+sa+ynares","trendVolume":655757},{"stateName":"AZ","trendName":"#BeAlrightTonight","placeID":"2508428","placeName":"Tucson","searchUrl":"http:\/\/twitter.com\/search?q=%23BeAlrightTonight","trendMapped":"be+alright+tonight","trendVolume":170105},{"stateName":"AZ","trendName":"#Daredevil","placeID":"2508428","placeName":"Tucson","searchUrl":"http:\/\/twitter.com\/search?q=%23Daredevil","trendMapped":"daredevil","trendVolume":62777},{"stateName":"AZ","trendName":"#HTGAWM","placeID":"2449808","placeName":"Mesa","searchUrl":"http:\/\/twitter.com\/search?q=%23HTGAWM","trendMapped":"htgawm","trendVolume":125426},{"stateName":"AZ","trendName":"#StPatricksDay","placeID":"2471390","placeName":"Phoenix","searchUrl":"http:\/\/twitter.com\/search?q=%23StPatricksDay","trendMapped":"st+patricks+day","trendVolume":951241},{"stateName":"AZ","trendName":"#UCLDraw","placeID":"2508428","placeName":"Tucson","searchUrl":"http:\/\/twitter.com\/search?q=%23UCLDraw","trendMapped":"ucl+draw","trendVolume":140471},{"stateName":"AZ","trendName":"Dortmund","placeID":"2508428","placeName":"Tucson","searchUrl":"http:\/\/twitter.com\/search?q=Dortmund","trendMapped":"dortmund","trendVolume":192655},{"stateName":"AZ","trendName":"Michigan State","placeID":"2508428","placeName":"Tucson","searchUrl":"http:\/\/twitter.com\/search?q=%22Michigan+State%22","trendMapped":"Michigan+State","trendVolume":212859},{"stateName":"AZ","trendName":"Purdue","placeID":"2508428","placeName":"Tucson","searchUrl":"http:\/\/twitter.com\/search?q=Purdue","trendMapped":"purdue","trendVolume":127277},{"stateName":"AZ","trendName":"Salah Abdeslam","placeID":"2508428","placeName":"Tucson","searchUrl":"http:\/\/twitter.com\/search?q=%22Salah+Abdeslam%22","trendMapped":"Salah+Abdeslam","trendVolume":171070},{"stateName":"AZ","trendName":"Yale","placeID":"2508428","placeName":"Tucson","searchUrl":"http:\/\/twitter.com\/search?q=Yale","trendMapped":"yale","trendVolume":248477},{"stateName":"CA","trendName":"#ALDENvasionSaYnares","placeID":"2488042","placeName":"San Jose","searchUrl":"http:\/\/twitter.com\/search?q=%23ALDENvasionSaYnares","trendMapped":"alde+nvasion+sa+ynares","trendVolume":622712},{"stateName":"CA","trendName":"#Daredevil","placeID":"2407517","placeName":"Fresno","searchUrl":"http:\/\/twitter.com\/search?q=%23Daredevil","trendMapped":"daredevil","trendVolume":61928},{"stateName":"CA","trendName":"#HTGAWM","placeID":"2488042","placeName":"San Jose","searchUrl":"http:\/\/twitter.com\/search?q=%23HTGAWM","trendMapped":"htgawm","trendVolume":126185},{"stateName":"CA","trendName":"#MarchMadness","placeID":"2442047","placeName":"Los Angeles","searchUrl":"http:\/\/twitter.com\/search?q=%23MarchMadness","trendMapped":"march+madness","trendVolume":311949},{"stateName":"CA","trendName":"#StPatricksDay","placeID":"2487956","placeName":"San Francisco","searchUrl":"http:\/\/twitter.com\/search?q=%23StPatricksDay","trendMapped":"st+patricks+day","trendVolume":958479},{"stateName":"CA","trendName":"#UCLDraw","placeID":"2488042","placeName":"San Jose","searchUrl":"http:\/\/twitter.com\/search?q=%23UCLDraw","trendMapped":"ucl+draw","trendVolume":140471},{"stateName":"CA","trendName":"Michigan State","placeID":"2488042","placeName":"San Jose","searchUrl":"http:\/\/twitter.com\/search?q=%22Michigan+State%22","trendMapped":"Michigan+State","trendVolume":213618},{"stateName":"CA","trendName":"Purdue","placeID":"2488042","placeName":"San Jose","searchUrl":"http:\/\/twitter.com\/search?q=Purdue","trendMapped":"purdue","trendVolume":127763},{"stateName":"CA","trendName":"Salah Abdeslam","placeID":"2487956","placeName":"San Francisco","searchUrl":"http:\/\/twitter.com\/search?q=%22Salah+Abdeslam%22","trendMapped":"Salah+Abdeslam","trendVolume":176017},{"stateName":"CA","trendName":"UEFA","placeID":"2442047","placeName":"Los Angeles","searchUrl":"http:\/\/twitter.com\/search?q=UEFA","trendMapped":"uefa","trendVolume":182342},{"stateName":"CA","trendName":"Yale","placeID":"2488042","placeName":"San Jose","searchUrl":"http:\/\/twitter.com\/search?q=Yale","trendMapped":"yale","trendVolume":246697},{"stateName":"CO","trendName":"#Daredevil","placeID":"2383489","placeName":"Colorado Springs","searchUrl":"http:\/\/twitter.com\/search?q=%23Daredevil","trendMapped":"daredevil","trendVolume":62777},{"stateName":"CO","trendName":"#MarchMadness","placeID":"2391279","placeName":"Denver","searchUrl":"http:\/\/twitter.com\/search?q=%23MarchMadness","trendMapped":"march+madness","trendVolume":372935},{"stateName":"CO","trendName":"#StPatricksDay","placeID":"2391279","placeName":"Denver","searchUrl":"http:\/\/twitter.com\/search?q=%23StPatricksDay","trendMapped":"st+patricks+day","trendVolume":955166},{"stateName":"CO","trendName":"#UCLDraw","placeID":"2383489","placeName":"Colorado Springs","searchUrl":"http:\/\/twitter.com\/search?q=%23UCLDraw","trendMapped":"ucl+draw","trendVolume":140471},{"stateName":"CO","trendName":"Baylor","placeID":"2391279","placeName":"Denver","searchUrl":"http:\/\/twitter.com\/search?q=Baylor","trendMapped":"baylor","trendVolume":185453},{"stateName":"CO","trendName":"Michigan State","placeID":"2391279","placeName":"Denver","searchUrl":"http:\/\/twitter.com\/search?q=%22Michigan+State%22","trendMapped":"Michigan+State","trendVolume":203865},{"stateName":"CO","trendName":"Salah Abdeslam","placeID":"2391279","placeName":"Denver","searchUrl":"http:\/\/twitter.com\/search?q=%22Salah+Abdeslam%22","trendMapped":"Salah+Abdeslam","trendVolume":172232},{"stateName":"CO","trendName":"Yale","placeID":"2383489","placeName":"Colorado Springs","searchUrl":"http:\/\/twitter.com\/search?q=Yale","trendMapped":"yale","trendVolume":228964},{"stateName":"CT","trendName":"#MarchMadness","placeID":"2458410","placeName":"New Haven","searchUrl":"http:\/\/twitter.com\/search?q=%23MarchMadness","trendMapped":"march+madness","trendVolume":313312},{"stateName":"CT","trendName":"#StPatricksDay","placeID":"2458410","placeName":"New Haven","searchUrl":"http:\/\/twitter.com\/search?q=%23StPatricksDay","trendMapped":"st+patricks+day","trendVolume":943310},{"stateName":"CT","trendName":"Michigan State","placeID":"2458410","placeName":"New Haven","searchUrl":"http:\/\/twitter.com\/search?q=%22Michigan+State%22","trendMapped":"Michigan+State","trendVolume":210114},{"stateName":"CT","trendName":"Yale","placeID":"2458410","placeName":"New Haven","searchUrl":"http:\/\/twitter.com\/search?q=Yale","trendMapped":"yale","trendVolume":233947},{"stateName":"DC","trendName":"#Daredevil","placeID":"2514815","placeName":"Washington","searchUrl":"http:\/\/twitter.com\/search?q=%23Daredevil","trendMapped":"daredevil","trendVolume":62306},{"stateName":"DC","trendName":"#HTGAWM","placeID":"2514815","placeName":"Washington","searchUrl":"http:\/\/twitter.com\/search?q=%23HTGAWM","trendMapped":"htgawm","trendVolume":125426},{"stateName":"DC","trendName":"#StPatricksDay","placeID":"2514815","placeName":"Washington","searchUrl":"http:\/\/twitter.com\/search?q=%23StPatricksDay","trendMapped":"st+patricks+day","trendVolume":940397},{"stateName":"DC","trendName":"#UCLDraw","placeID":"2514815","placeName":"Washington","searchUrl":"http:\/\/twitter.com\/search?q=%23UCLDraw","trendMapped":"ucl+draw","trendVolume":139074},{"stateName":"DC","trendName":"Purdue","placeID":"2514815","placeName":"Washington","searchUrl":"http:\/\/twitter.com\/search?q=Purdue","trendMapped":"purdue","trendVolume":127763},{"stateName":"DC","trendName":"Salah Abdeslam","placeID":"2514815","placeName":"Washington","searchUrl":"http:\/\/twitter.com\/search?q=%22Salah+Abdeslam%22","trendMapped":"Salah+Abdeslam","trendVolume":167200},{"stateName":"DC","trendName":"Yale","placeID":"2514815","placeName":"Washington","searchUrl":"http:\/\/twitter.com\/search?q=Yale","trendMapped":"yale","trendVolume":246697},{"stateName":"FL","trendName":"#ALDENvasionSaYnares","placeID":"2503863","placeName":"Tampa","searchUrl":"http:\/\/twitter.com\/search?q=%23ALDENvasionSaYnares","trendMapped":"alde+nvasion+sa+ynares","trendVolume":655757},{"stateName":"FL","trendName":"#BeAlrightTonight","placeID":"2450022","placeName":"Miami","searchUrl":"http:\/\/twitter.com\/search?q=%23BeAlrightTonight","trendMapped":"be+alright+tonight","trendVolume":167977},{"stateName":"FL","trendName":"#HTGAWM","placeID":"2503863","placeName":"Tampa","searchUrl":"http:\/\/twitter.com\/search?q=%23HTGAWM","trendMapped":"htgawm","trendVolume":120497},{"stateName":"FL","trendName":"#MarchMadness","placeID":"2450022","placeName":"Miami","searchUrl":"http:\/\/twitter.com\/search?q=%23MarchMadness","trendMapped":"march+madness","trendVolume":366713},{"stateName":"FL","trendName":"#StPatricksDay","placeID":"2503863","placeName":"Tampa","searchUrl":"http:\/\/twitter.com\/search?q=%23StPatricksDay","trendMapped":"st+patricks+day","trendVolume":957192},{"stateName":"FL","trendName":"Michigan State","placeID":"2503863","placeName":"Tampa","searchUrl":"http:\/\/twitter.com\/search?q=%22Michigan+State%22","trendMapped":"Michigan+State","trendVolume":212859},{"stateName":"FL","trendName":"Purdue","placeID":"2503863","placeName":"Tampa","searchUrl":"http:\/\/twitter.com\/search?q=Purdue","trendMapped":"purdue","trendVolume":126846},{"stateName":"FL","trendName":"Salah Abdeslam","placeID":"2503863","placeName":"Tampa","searchUrl":"http:\/\/twitter.com\/search?q=%22Salah+Abdeslam%22","trendMapped":"Salah+Abdeslam","trendVolume":186114},{"stateName":"GA","trendName":"#HTGAWM","placeID":"2357024","placeName":"Atlanta","searchUrl":"http:\/\/twitter.com\/search?q=%23HTGAWM","trendMapped":"htgawm","trendVolume":124110},{"stateName":"GA","trendName":"#MarchMadness","placeID":"2357024","placeName":"Atlanta","searchUrl":"http:\/\/twitter.com\/search?q=%23MarchMadness","trendMapped":"march+madness","trendVolume":330963},{"stateName":"GA","trendName":"#StPatricksDay","placeID":"2357024","placeName":"Atlanta","searchUrl":"http:\/\/twitter.com\/search?q=%23StPatricksDay","trendMapped":"st+patricks+day","trendVolume":958060},{"stateName":"GA","trendName":"Baylor","placeID":"2357024","placeName":"Atlanta","searchUrl":"http:\/\/twitter.com\/search?q=Baylor","trendMapped":"baylor","trendVolume":175204},{"stateName":"GA","trendName":"Michigan State","placeID":"2357024","placeName":"Atlanta","searchUrl":"http:\/\/twitter.com\/search?q=%22Michigan+State%22","trendMapped":"Michigan+State","trendVolume":212859},{"stateName":"GA","trendName":"Molenbeek","placeID":"2357024","placeName":"Atlanta","searchUrl":"http:\/\/twitter.com\/search?q=Molenbeek","trendMapped":"molenbeek","trendVolume":90801},{"stateName":"GA","trendName":"Salah Abdeslam","placeID":"2357024","placeName":"Atlanta","searchUrl":"http:\/\/twitter.com\/search?q=%22Salah+Abdeslam%22","trendMapped":"Salah+Abdeslam","trendVolume":178536},{"stateName":"HI","trendName":"#BestFanArmy","placeID":"2423945","placeName":"Honolulu","searchUrl":"http:\/\/twitter.com\/search?q=%23BestFanArmy","trendMapped":"best+fan+army","trendVolume":2952918},{"stateName":"HI","trendName":"#MarchMadness","placeID":"2423945","placeName":"Honolulu","searchUrl":"http:\/\/twitter.com\/search?q=%23MarchMadness","trendMapped":"march+madness","trendVolume":380722},{"stateName":"HI","trendName":"#StPatricksDay","placeID":"2423945","placeName":"Honolulu","searchUrl":"http:\/\/twitter.com\/search?q=%23StPatricksDay","trendMapped":"st+patricks+day","trendVolume":951567},{"stateName":"IL","trendName":"#ALDENvasionSaYnares","placeID":"2379574","placeName":"Chicago","searchUrl":"http:\/\/twitter.com\/search?q=%23ALDENvasionSaYnares","trendMapped":"alde+nvasion+sa+ynares","trendVolume":622712},{"stateName":"IL","trendName":"#StPatricksDay","placeID":"2379574","placeName":"Chicago","searchUrl":"http:\/\/twitter.com\/search?q=%23StPatricksDay","trendMapped":"st+patricks+day","trendVolume":755898},{"stateName":"IL","trendName":"#UCLDraw","placeID":"2379574","placeName":"Chicago","searchUrl":"http:\/\/twitter.com\/search?q=%23UCLDraw","trendMapped":"ucl+draw","trendVolume":140471},{"stateName":"IL","trendName":"Michigan State","placeID":"2379574","placeName":"Chicago","searchUrl":"http:\/\/twitter.com\/search?q=%22Michigan+State%22","trendMapped":"Michigan+State","trendVolume":203865},{"stateName":"IL","trendName":"Salah Abdeslam","placeID":"2379574","placeName":"Chicago","searchUrl":"http:\/\/twitter.com\/search?q=%22Salah+Abdeslam%22","trendMapped":"Salah+Abdeslam","trendVolume":142374},{"stateName":"IN","trendName":"#MarchMadness","placeID":"2427032","placeName":"Indianapolis","searchUrl":"http:\/\/twitter.com\/search?q=%23MarchMadness","trendMapped":"march+madness","trendVolume":382346},{"stateName":"IN","trendName":"#StPatricksDay","placeID":"2427032","placeName":"Indianapolis","searchUrl":"http:\/\/twitter.com\/search?q=%23StPatricksDay","trendMapped":"st+patricks+day","trendVolume":617248},{"stateName":"IN","trendName":"Baylor","placeID":"2427032","placeName":"Indianapolis","searchUrl":"http:\/\/twitter.com\/search?q=Baylor","trendMapped":"baylor","trendVolume":175204},{"stateName":"IN","trendName":"Michigan State","placeID":"2427032","placeName":"Indianapolis","searchUrl":"http:\/\/twitter.com\/search?q=%22Michigan+State%22","trendMapped":"Michigan+State","trendVolume":208933},{"stateName":"IN","trendName":"Purdue","placeID":"2427032","placeName":"Indianapolis","searchUrl":"http:\/\/twitter.com\/search?q=Purdue","trendMapped":"purdue","trendVolume":125321},{"stateName":"IN","trendName":"Yale","placeID":"2427032","placeName":"Indianapolis","searchUrl":"http:\/\/twitter.com\/search?q=Yale","trendMapped":"yale","trendVolume":246697},{"stateName":"KY","trendName":"#MarchMadness","placeID":"2442327","placeName":"Louisville","searchUrl":"http:\/\/twitter.com\/search?q=%23MarchMadness","trendMapped":"march+madness","trendVolume":367299},{"stateName":"KY","trendName":"#StPatricksDay","placeID":"2442327","placeName":"Louisville","searchUrl":"http:\/\/twitter.com\/search?q=%23StPatricksDay","trendMapped":"st+patricks+day","trendVolume":947085},{"stateName":"KY","trendName":"Salah Abdeslam","placeID":"2442327","placeName":"Louisville","searchUrl":"http:\/\/twitter.com\/search?q=%22Salah+Abdeslam%22","trendMapped":"Salah+Abdeslam","trendVolume":192131},{"stateName":"LA","trendName":"#MarchMadness","placeID":"2359991","placeName":"Baton Rouge","searchUrl":"http:\/\/twitter.com\/search?q=%23MarchMadness","trendMapped":"march+madness","trendVolume":315882},{"stateName":"LA","trendName":"#StPatricksDay","placeID":"2458833","placeName":"New Orleans","searchUrl":"http:\/\/twitter.com\/search?q=%23StPatricksDay","trendMapped":"st+patricks+day","trendVolume":958479},{"stateName":"LA","trendName":"Michigan State","placeID":"2458833","placeName":"New Orleans","searchUrl":"http:\/\/twitter.com\/search?q=%22Michigan+State%22","trendMapped":"Michigan+State","trendVolume":210114},{"stateName":"LA","trendName":"Salah Abdeslam","placeID":"2359991","placeName":"Baton Rouge","searchUrl":"http:\/\/twitter.com\/search?q=%22Salah+Abdeslam%22","trendMapped":"Salah+Abdeslam","trendVolume":174244},{"stateName":"LA","trendName":"St. Patrick's Day","placeID":"2359991","placeName":"Baton Rouge","searchUrl":"http:\/\/twitter.com\/search?q=%22St.+Patrick%27s+Day%22","trendMapped":"St.+Patrick's+Day","trendVolume":630109},{"stateName":"MA","trendName":"#HTGAWM","placeID":"2367105","placeName":"Boston","searchUrl":"http:\/\/twitter.com\/search?q=%23HTGAWM","trendMapped":"htgawm","trendVolume":122542},{"stateName":"MA","trendName":"#StPatricksDay","placeID":"2367105","placeName":"Boston","searchUrl":"http:\/\/twitter.com\/search?q=%23StPatricksDay","trendMapped":"st+patricks+day","trendVolume":952353},{"stateName":"MA","trendName":"Michigan State","placeID":"2367105","placeName":"Boston","searchUrl":"http:\/\/twitter.com\/search?q=%22Michigan+State%22","trendMapped":"Michigan+State","trendVolume":204673},{"stateName":"MA","trendName":"Purdue","placeID":"2367105","placeName":"Boston","searchUrl":"http:\/\/twitter.com\/search?q=Purdue","trendMapped":"purdue","trendVolume":125321},{"stateName":"MA","trendName":"Yale","placeID":"2367105","placeName":"Boston","searchUrl":"http:\/\/twitter.com\/search?q=Yale","trendMapped":"yale","trendVolume":247950},{"stateName":"MD","trendName":"#StPatricksDay","placeID":"2358820","placeName":"Baltimore","searchUrl":"http:\/\/twitter.com\/search?q=%23StPatricksDay","trendMapped":"st+patricks+day","trendVolume":951567},{"stateName":"MD","trendName":"House","placeID":"2358820","placeName":"Baltimore","searchUrl":"http:\/\/twitter.com\/search?q=House","trendMapped":"house","trendVolume":499323},{"stateName":"MD","trendName":"Michigan State","placeID":"2358820","placeName":"Baltimore","searchUrl":"http:\/\/twitter.com\/search?q=%22Michigan+State%22","trendMapped":"Michigan+State","trendVolume":207815},{"stateName":"MI","trendName":"#BeAlrightTonight","placeID":"2391585","placeName":"Detroit","searchUrl":"http:\/\/twitter.com\/search?q=%23BeAlrightTonight","trendMapped":"be+alright+tonight","trendVolume":167977},{"stateName":"MI","trendName":"#HTGAWM","placeID":"2391585","placeName":"Detroit","searchUrl":"http:\/\/twitter.com\/search?q=%23HTGAWM","trendMapped":"htgawm","trendVolume":122542},{"stateName":"MI","trendName":"#MarchMadness","placeID":"2391585","placeName":"Detroit","searchUrl":"http:\/\/twitter.com\/search?q=%23MarchMadness","trendMapped":"march+madness","trendVolume":366188},{"stateName":"MI","trendName":"#StPatricksDay","placeID":"2391585","placeName":"Detroit","searchUrl":"http:\/\/twitter.com\/search?q=%23StPatricksDay","trendMapped":"st+patricks+day","trendVolume":958060},{"stateName":"MI","trendName":"Baylor","placeID":"2391585","placeName":"Detroit","searchUrl":"http:\/\/twitter.com\/search?q=Baylor","trendMapped":"baylor","trendVolume":182522},{"stateName":"MI","trendName":"Michigan State","placeID":"2391585","placeName":"Detroit","searchUrl":"http:\/\/twitter.com\/search?q=%22Michigan+State%22","trendMapped":"Michigan+State","trendVolume":183840},{"stateName":"MI","trendName":"Purdue","placeID":"2391585","placeName":"Detroit","searchUrl":"http:\/\/twitter.com\/search?q=Purdue","trendMapped":"purdue","trendVolume":125321},{"stateName":"MI","trendName":"Yale","placeID":"2391585","placeName":"Detroit","searchUrl":"http:\/\/twitter.com\/search?q=Yale","trendMapped":"yale","trendVolume":249593},{"stateName":"MN","trendName":"#StPatricksDay","placeID":"2452078","placeName":"Minneapolis","searchUrl":"http:\/\/twitter.com\/search?q=%23StPatricksDay","trendMapped":"st+patricks+day","trendVolume":958060},{"stateName":"MN","trendName":"Michigan State","placeID":"2452078","placeName":"Minneapolis","searchUrl":"http:\/\/twitter.com\/search?q=%22Michigan+State%22","trendMapped":"Michigan+State","trendVolume":207815},{"stateName":"MN","trendName":"Salah Abdeslam","placeID":"2452078","placeName":"Minneapolis","searchUrl":"http:\/\/twitter.com\/search?q=%22Salah+Abdeslam%22","trendMapped":"Salah+Abdeslam","trendVolume":172232},{"stateName":"MO","trendName":"#StPatricksDay","placeID":"2486982","placeName":"St. Louis","searchUrl":"http:\/\/twitter.com\/search?q=%23StPatricksDay","trendMapped":"st+patricks+day","trendVolume":955166},{"stateName":"MO","trendName":"Baylor","placeID":"2430683","placeName":"Kansas City","searchUrl":"http:\/\/twitter.com\/search?q=Baylor","trendMapped":"baylor","trendVolume":187163},{"stateName":"MO","trendName":"Michigan State","placeID":"2486982","placeName":"St. Louis","searchUrl":"http:\/\/twitter.com\/search?q=%22Michigan+State%22","trendMapped":"Michigan+State","trendVolume":212859},{"stateName":"MO","trendName":"Purdue","placeID":"2486982","placeName":"St. Louis","searchUrl":"http:\/\/twitter.com\/search?q=Purdue","trendMapped":"purdue","trendVolume":125321},{"stateName":"MS","trendName":"#ALDENvasionSaYnares","placeID":"2428184","placeName":"Jackson","searchUrl":"http:\/\/twitter.com\/search?q=%23ALDENvasionSaYnares","trendMapped":"alde+nvasion+sa+ynares","trendVolume":622712},{"stateName":"MS","trendName":"#StPatricksDay","placeID":"2428184","placeName":"Jackson","searchUrl":"http:\/\/twitter.com\/search?q=%23StPatricksDay","trendMapped":"st+patricks+day","trendVolume":957192},{"stateName":"MS","trendName":"St. Patrick's Day","placeID":"2428184","placeName":"Jackson","searchUrl":"http:\/\/twitter.com\/search?q=%22St.+Patrick%27s+Day%22","trendMapped":"St.+Patrick's+Day","trendVolume":686113},{"stateName":"NC","trendName":"#HTGAWM","placeID":"2478307","placeName":"Raleigh","searchUrl":"http:\/\/twitter.com\/search?q=%23HTGAWM","trendMapped":"htgawm","trendVolume":118084},{"stateName":"NC","trendName":"#MarchMadness","placeID":"2378426","placeName":"Charlotte","searchUrl":"http:\/\/twitter.com\/search?q=%23MarchMadness","trendMapped":"march+madness","trendVolume":310496},{"stateName":"NC","trendName":"#StPatricksDay","placeID":"2478307","placeName":"Raleigh","searchUrl":"http:\/\/twitter.com\/search?q=%23StPatricksDay","trendMapped":"st+patricks+day","trendVolume":956438},{"stateName":"NC","trendName":"Baylor","placeID":"2378426","placeName":"Charlotte","searchUrl":"http:\/\/twitter.com\/search?q=Baylor","trendMapped":"baylor","trendVolume":182522},{"stateName":"NC","trendName":"Michigan State","placeID":"2378426","placeName":"Charlotte","searchUrl":"http:\/\/twitter.com\/search?q=%22Michigan+State%22","trendMapped":"Michigan+State","trendVolume":203865},{"stateName":"NC","trendName":"Purdue","placeID":"2478307","placeName":"Raleigh","searchUrl":"http:\/\/twitter.com\/search?q=Purdue","trendMapped":"purdue","trendVolume":125741},{"stateName":"NC","trendName":"Salah Abdeslam","placeID":"2414469","placeName":"Greensboro","searchUrl":"http:\/\/twitter.com\/search?q=%22Salah+Abdeslam%22","trendMapped":"Salah+Abdeslam","trendVolume":194356},{"stateName":"NC","trendName":"St. Patrick's Day","placeID":"2414469","placeName":"Greensboro","searchUrl":"http:\/\/twitter.com\/search?q=%22St.+Patrick%27s+Day%22","trendMapped":"St.+Patrick's+Day","trendVolume":758151},{"stateName":"NC","trendName":"Yale","placeID":"2478307","placeName":"Raleigh","searchUrl":"http:\/\/twitter.com\/search?q=Yale","trendMapped":"yale","trendVolume":247950},{"stateName":"NE","trendName":"#StPatricksDay","placeID":"2465512","placeName":"Omaha","searchUrl":"http:\/\/twitter.com\/search?q=%23StPatricksDay","trendMapped":"st+patricks+day","trendVolume":955789},{"stateName":"NE","trendName":"Michigan State","placeID":"2465512","placeName":"Omaha","searchUrl":"http:\/\/twitter.com\/search?q=%22Michigan+State%22","trendMapped":"Michigan+State","trendVolume":207815},{"stateName":"NE","trendName":"st. patrick's day","placeID":"2465512","placeName":"Omaha","searchUrl":"http:\/\/twitter.com\/search?q=%22st.+patrick%27s+day%22","trendMapped":"st.+patrick's+day","trendVolume":1092393},{"stateName":"NM","trendName":"#ALDENvasionSaYnares","placeID":"2352824","placeName":"Albuquerque","searchUrl":"http:\/\/twitter.com\/search?q=%23ALDENvasionSaYnares","trendMapped":"alde+nvasion+sa+ynares","trendVolume":655757},{"stateName":"NM","trendName":"#Daredevil","placeID":"2352824","placeName":"Albuquerque","searchUrl":"http:\/\/twitter.com\/search?q=%23Daredevil","trendMapped":"daredevil","trendVolume":62306},{"stateName":"NM","trendName":"Michigan State","placeID":"2352824","placeName":"Albuquerque","searchUrl":"http:\/\/twitter.com\/search?q=%22Michigan+State%22","trendMapped":"Michigan+State","trendVolume":210114},{"stateName":"NM","trendName":"Purdue","placeID":"2352824","placeName":"Albuquerque","searchUrl":"http:\/\/twitter.com\/search?q=Purdue","trendMapped":"purdue","trendVolume":127887},{"stateName":"NM","trendName":"Salah Abdeslam","placeID":"2352824","placeName":"Albuquerque","searchUrl":"http:\/\/twitter.com\/search?q=%22Salah+Abdeslam%22","trendMapped":"Salah+Abdeslam","trendVolume":157778},{"stateName":"NM","trendName":"Yale","placeID":"2352824","placeName":"Albuquerque","searchUrl":"http:\/\/twitter.com\/search?q=Yale","trendMapped":"yale","trendVolume":246697},{"stateName":"NV","trendName":"#MarchMadness","placeID":"2436704","placeName":"Las Vegas","searchUrl":"http:\/\/twitter.com\/search?q=%23MarchMadness","trendMapped":"march+madness","trendVolume":326430},{"stateName":"NV","trendName":"#StPatricksDay","placeID":"2436704","placeName":"Las Vegas","searchUrl":"http:\/\/twitter.com\/search?q=%23StPatricksDay","trendMapped":"st+patricks+day","trendVolume":953604},{"stateName":"NV","trendName":"Michigan State","placeID":"2436704","placeName":"Las Vegas","searchUrl":"http:\/\/twitter.com\/search?q=%22Michigan+State%22","trendMapped":"Michigan+State","trendVolume":200047},{"stateName":"NV","trendName":"Salah Abdeslam","placeID":"2436704","placeName":"Las Vegas","searchUrl":"http:\/\/twitter.com\/search?q=%22Salah+Abdeslam%22","trendMapped":"Salah+Abdeslam","trendVolume":178536},{"stateName":"NV","trendName":"St Patrick's Day","placeID":"2436704","placeName":"Las Vegas","searchUrl":"http:\/\/twitter.com\/search?q=%22St+Patrick%27s+Day%22","trendMapped":"St+Patrick's+Day","trendVolume":1109078},{"stateName":"NV","trendName":"St. Patrick's Day","placeID":"2436704","placeName":"Las Vegas","searchUrl":"http:\/\/twitter.com\/search?q=%22St.+Patrick%27s+Day%22","trendMapped":"St.+Patrick's+Day","trendVolume":1065290},{"stateName":"NY","trendName":"#ALDENvasionSaYnares","placeID":"2459115","placeName":"New York","searchUrl":"http:\/\/twitter.com\/search?q=%23ALDENvasionSaYnares","trendMapped":"alde+nvasion+sa+ynares","trendVolume":526699},{"stateName":"NY","trendName":"#HTGAWM","placeID":"2459115","placeName":"New York","searchUrl":"http:\/\/twitter.com\/search?q=%23HTGAWM","trendMapped":"htgawm","trendVolume":126185},{"stateName":"NY","trendName":"#StPatricksDay","placeID":"2459115","placeName":"New York","searchUrl":"http:\/\/twitter.com\/search?q=%23StPatricksDay","trendMapped":"st+patricks+day","trendVolume":938804},{"stateName":"NY","trendName":"Dortmund","placeID":"2459115","placeName":"New York","searchUrl":"http:\/\/twitter.com\/search?q=Dortmund","trendMapped":"dortmund","trendVolume":181965},{"stateName":"NY","trendName":"Salah Abdeslam","placeID":"2459115","placeName":"New York","searchUrl":"http:\/\/twitter.com\/search?q=%22Salah+Abdeslam%22","trendMapped":"Salah+Abdeslam","trendVolume":176796},{"stateName":"NY","trendName":"UEFA","placeID":"2459115","placeName":"New York","searchUrl":"http:\/\/twitter.com\/search?q=UEFA","trendMapped":"uefa","trendVolume":182342},{"stateName":"NY","trendName":"Yale","placeID":"2459115","placeName":"New York","searchUrl":"http:\/\/twitter.com\/search?q=Yale","trendMapped":"yale","trendVolume":240931},{"stateName":"OH","trendName":"#MarchMadness","placeID":"2383660","placeName":"Columbus","searchUrl":"http:\/\/twitter.com\/search?q=%23MarchMadness","trendMapped":"march+madness","trendVolume":316906},{"stateName":"OH","trendName":"#StPatricksDay","placeID":"2383660","placeName":"Columbus","searchUrl":"http:\/\/twitter.com\/search?q=%23StPatricksDay","trendMapped":"st+patricks+day","trendVolume":958479},{"stateName":"OH","trendName":"Michigan State","placeID":"2383660","placeName":"Columbus","searchUrl":"http:\/\/twitter.com\/search?q=%22Michigan+State%22","trendMapped":"Michigan+State","trendVolume":200047},{"stateName":"OH","trendName":"Purdue","placeID":"2381475","placeName":"Cleveland","searchUrl":"http:\/\/twitter.com\/search?q=Purdue","trendMapped":"purdue","trendVolume":125741},{"stateName":"OH","trendName":"Salah Abdeslam","placeID":"2383660","placeName":"Columbus","searchUrl":"http:\/\/twitter.com\/search?q=%22Salah+Abdeslam%22","trendMapped":"Salah+Abdeslam","trendVolume":179348},{"stateName":"OH","trendName":"St. Patrick's Day","placeID":"2380358","placeName":"Cincinnati","searchUrl":"http:\/\/twitter.com\/search?q=%22St.+Patrick%27s+Day%22","trendMapped":"St.+Patrick's+Day","trendVolume":568883},{"stateName":"OK","trendName":"#StPatricksDay","placeID":"2464592","placeName":"Oklahoma City","searchUrl":"http:\/\/twitter.com\/search?q=%23StPatricksDay","trendMapped":"st+patricks+day","trendVolume":955789},{"stateName":"OR","trendName":"#StPatricksDay","placeID":"2475687","placeName":"Portland","searchUrl":"http:\/\/twitter.com\/search?q=%23StPatricksDay","trendMapped":"st+patricks+day","trendVolume":955789},{"stateName":"OR","trendName":"Michigan State","placeID":"2475687","placeName":"Portland","searchUrl":"http:\/\/twitter.com\/search?q=%22Michigan+State%22","trendMapped":"Michigan+State","trendVolume":207815},{"stateName":"PA","trendName":"#ALDENvasionSaYnares","placeID":"2471217","placeName":"Philadelphia","searchUrl":"http:\/\/twitter.com\/search?q=%23ALDENvasionSaYnares","trendMapped":"alde+nvasion+sa+ynares","trendVolume":333919},{"stateName":"PA","trendName":"#HTGAWM","placeID":"2471217","placeName":"Philadelphia","searchUrl":"http:\/\/twitter.com\/search?q=%23HTGAWM","trendMapped":"htgawm","trendVolume":122031},{"stateName":"PA","trendName":"#MarchMadness","placeID":"2418046","placeName":"Harrisburg","searchUrl":"http:\/\/twitter.com\/search?q=%23MarchMadness","trendMapped":"march+madness","trendVolume":366713},{"stateName":"PA","trendName":"#StPatricksDay","placeID":"2473224","placeName":"Pittsburgh","searchUrl":"http:\/\/twitter.com\/search?q=%23StPatricksDay","trendMapped":"st+patricks+day","trendVolume":957192},{"stateName":"PA","trendName":"Dortmund","placeID":"2471217","placeName":"Philadelphia","searchUrl":"http:\/\/twitter.com\/search?q=Dortmund","trendMapped":"dortmund","trendVolume":181965},{"stateName":"PA","trendName":"Michigan State","placeID":"2473224","placeName":"Pittsburgh","searchUrl":"http:\/\/twitter.com\/search?q=%22Michigan+State%22","trendMapped":"Michigan+State","trendVolume":203865},{"stateName":"PA","trendName":"Par\u00eds","placeID":"2471217","placeName":"Philadelphia","searchUrl":"http:\/\/twitter.com\/search?q=Par%C3%ADs","trendMapped":"par\u00eds","trendVolume":272381},{"stateName":"PA","trendName":"Salah Abdeslam","placeID":"2471217","placeName":"Philadelphia","searchUrl":"http:\/\/twitter.com\/search?q=%22Salah+Abdeslam%22","trendMapped":"Salah+Abdeslam","trendVolume":179348},{"stateName":"PA","trendName":"Yale","placeID":"2473224","placeName":"Pittsburgh","searchUrl":"http:\/\/twitter.com\/search?q=Yale","trendMapped":"yale","trendVolume":244189},{"stateName":"RI","trendName":"#StPatricksDay","placeID":"2477058","placeName":"Providence","searchUrl":"http:\/\/twitter.com\/search?q=%23StPatricksDay","trendMapped":"st+patricks+day","trendVolume":953341},{"stateName":"TN","trendName":"#MarchMadness","placeID":"2449323","placeName":"Memphis","searchUrl":"http:\/\/twitter.com\/search?q=%23MarchMadness","trendMapped":"march+madness","trendVolume":380722},{"stateName":"TN","trendName":"#StPatricksDay","placeID":"2457170","placeName":"Nashville","searchUrl":"http:\/\/twitter.com\/search?q=%23StPatricksDay","trendMapped":"st+patricks+day","trendVolume":958479},{"stateName":"TN","trendName":"Salah Abdeslam","placeID":"2457170","placeName":"Nashville","searchUrl":"http:\/\/twitter.com\/search?q=%22Salah+Abdeslam%22","trendMapped":"Salah+Abdeslam","trendVolume":194356},{"stateName":"TX","trendName":"#BeAlrightTonight","placeID":"2424766","placeName":"Houston","searchUrl":"http:\/\/twitter.com\/search?q=%23BeAlrightTonight","trendMapped":"be+alright+tonight","trendVolume":169510},{"stateName":"TX","trendName":"#HTGAWM","placeID":"2424766","placeName":"Houston","searchUrl":"http:\/\/twitter.com\/search?q=%23HTGAWM","trendMapped":"htgawm","trendVolume":120497},{"stateName":"TX","trendName":"#MarchMadness","placeID":"2424766","placeName":"Houston","searchUrl":"http:\/\/twitter.com\/search?q=%23MarchMadness","trendMapped":"march+madness","trendVolume":374144},{"stateName":"TX","trendName":"#StPatricksDay","placeID":"2487796","placeName":"San Antonio","searchUrl":"http:\/\/twitter.com\/search?q=%23StPatricksDay","trendMapped":"st+patricks+day","trendVolume":958479},{"stateName":"TX","trendName":"Baylor","placeID":"2424766","placeName":"Houston","searchUrl":"http:\/\/twitter.com\/search?q=Baylor","trendMapped":"baylor","trendVolume":182522},{"stateName":"TX","trendName":"Michigan State","placeID":"2424766","placeName":"Houston","searchUrl":"http:\/\/twitter.com\/search?q=%22Michigan+State%22","trendMapped":"Michigan+State","trendVolume":210114},{"stateName":"TX","trendName":"Salah Abdeslam","placeID":"2487796","placeName":"San Antonio","searchUrl":"http:\/\/twitter.com\/search?q=%22Salah+Abdeslam%22","trendMapped":"Salah+Abdeslam","trendVolume":193114},{"stateName":"TX","trendName":"Yale","placeID":"2388929","placeName":"Dallas-Ft. Worth","searchUrl":"http:\/\/twitter.com\/search?q=Yale","trendMapped":"yale","trendVolume":247950},{"stateName":"TX","trendName":"st. patrick's day","placeID":"2397816","placeName":"El Paso","searchUrl":"http:\/\/twitter.com\/search?q=%22st.+patrick%27s+day%22","trendMapped":"st.+patrick's+day","trendVolume":1075733},{"stateName":"UT","trendName":"#MarchMadness","placeID":"2487610","placeName":"Salt Lake City","searchUrl":"http:\/\/twitter.com\/search?q=%23MarchMadness","trendMapped":"march+madness","trendVolume":382346},{"stateName":"UT","trendName":"#StPatricksDay","placeID":"2487610","placeName":"Salt Lake City","searchUrl":"http:\/\/twitter.com\/search?q=%23StPatricksDay","trendMapped":"st+patricks+day","trendVolume":920583},{"stateName":"UT","trendName":"Michigan State","placeID":"2487610","placeName":"Salt Lake City","searchUrl":"http:\/\/twitter.com\/search?q=%22Michigan+State%22","trendMapped":"Michigan+State","trendVolume":212859},{"stateName":"VA","trendName":"#ALDENvasionSaYnares","placeID":"2512636","placeName":"Virginia Beach","searchUrl":"http:\/\/twitter.com\/search?q=%23ALDENvasionSaYnares","trendMapped":"alde+nvasion+sa+ynares","trendVolume":363695},{"stateName":"VA","trendName":"#Daredevil","placeID":"2512636","placeName":"Virginia Beach","searchUrl":"http:\/\/twitter.com\/search?q=%23Daredevil","trendMapped":"daredevil","trendVolume":61394},{"stateName":"VA","trendName":"#MarchMadness","placeID":"2460389","placeName":"Norfolk","searchUrl":"http:\/\/twitter.com\/search?q=%23MarchMadness","trendMapped":"march+madness","trendVolume":320983},{"stateName":"VA","trendName":"#StPatricksDay","placeID":"2512636","placeName":"Virginia Beach","searchUrl":"http:\/\/twitter.com\/search?q=%23StPatricksDay","trendMapped":"st+patricks+day","trendVolume":958479},{"stateName":"VA","trendName":"Dortmund","placeID":"2512636","placeName":"Virginia Beach","searchUrl":"http:\/\/twitter.com\/search?q=Dortmund","trendMapped":"dortmund","trendVolume":191970},{"stateName":"VA","trendName":"Purdue","placeID":"2512636","placeName":"Virginia Beach","searchUrl":"http:\/\/twitter.com\/search?q=Purdue","trendMapped":"purdue","trendVolume":127763},{"stateName":"VA","trendName":"Salah Abdeslam","placeID":"2512636","placeName":"Virginia Beach","searchUrl":"http:\/\/twitter.com\/search?q=%22Salah+Abdeslam%22","trendMapped":"Salah+Abdeslam","trendVolume":120781},{"stateName":"VA","trendName":"Yale","placeID":"2512636","placeName":"Virginia Beach","searchUrl":"http:\/\/twitter.com\/search?q=Yale","trendMapped":"yale","trendVolume":244871},{"stateName":"WA","trendName":"#HTGAWM","placeID":"2490383","placeName":"Seattle","searchUrl":"http:\/\/twitter.com\/search?q=%23HTGAWM","trendMapped":"htgawm","trendVolume":116419},{"stateName":"WA","trendName":"#StPatricksDay","placeID":"2490383","placeName":"Seattle","searchUrl":"http:\/\/twitter.com\/search?q=%23StPatricksDay","trendMapped":"st+patricks+day","trendVolume":931037},{"stateName":"WA","trendName":"Purdue","placeID":"2490383","placeName":"Seattle","searchUrl":"http:\/\/twitter.com\/search?q=Purdue","trendMapped":"purdue","trendVolume":126846},{"stateName":"WA","trendName":"Yale","placeID":"2490383","placeName":"Seattle","searchUrl":"http:\/\/twitter.com\/search?q=Yale","trendMapped":"yale","trendVolume":234904},{"stateName":"WI","trendName":"#MarchMadness","placeID":"2451822","placeName":"Milwaukee","searchUrl":"http:\/\/twitter.com\/search?q=%23MarchMadness","trendMapped":"march+madness","trendVolume":366713},{"stateName":"WI","trendName":"#StPatricksDay","placeID":"2451822","placeName":"Milwaukee","searchUrl":"http:\/\/twitter.com\/search?q=%23StPatricksDay","trendMapped":"st+patricks+day","trendVolume":957192},{"stateName":"WI","trendName":"Michigan State","placeID":"2451822","placeName":"Milwaukee","searchUrl":"http:\/\/twitter.com\/search?q=%22Michigan+State%22","trendMapped":"Michigan+State","trendVolume":212859},{"stateName":"XX","trendName":"#HTGAWM","placeID":"23424977","placeName":"United States","searchUrl":"http:\/\/twitter.com\/search?q=%23HTGAWM","trendMapped":"htgawm","trendVolume":126185},{"stateName":"XX","trendName":"Michigan State","placeID":"23424977","placeName":"United States","searchUrl":"http:\/\/twitter.com\/search?q=%22Michigan+State%22","trendMapped":"Michigan+State","trendVolume":210114},{"stateName":"XX","trendName":"Purdue","placeID":"23424977","placeName":"United States","searchUrl":"http:\/\/twitter.com\/search?q=Purdue","trendMapped":"purdue","trendVolume":127763},{"stateName":"XX","trendName":"Salah Abdeslam","placeID":"23424977","placeName":"United States","searchUrl":"http:\/\/twitter.com\/search?q=%22Salah+Abdeslam%22","trendMapped":"Salah+Abdeslam","trendVolume":172232},{"stateName":"XX","trendName":"Yale","placeID":"23424977","placeName":"United States","searchUrl":"http:\/\/twitter.com\/search?q=Yale","trendMapped":"yale","trendVolume":240931}]