[{"stateName":"AL","trendName":"#DangerousWomanTonight","placeID":"2364559","placeName":"Birmingham","searchUrl":"http:\/\/twitter.com\/search?q=%23DangerousWomanTonight","trendMapped":"dangerous+woman+tonight","trendVolume":216705},{"stateName":"AL","trendName":"#DolceAmorePuSo","placeID":"2364559","placeName":"Birmingham","searchUrl":"http:\/\/twitter.com\/search?q=%23DolceAmorePuSo","trendMapped":"dolce+amore+pu+so","trendVolume":1142379},{"stateName":"AL","trendName":"#GOPDebate","placeID":"2364559","placeName":"Birmingham","searchUrl":"http:\/\/twitter.com\/search?q=%23GOPDebate","trendMapped":"gop+debate","trendVolume":744395},{"stateName":"AL","trendName":"#MemeHistory","placeID":"2364559","placeName":"Birmingham","searchUrl":"http:\/\/twitter.com\/search?q=%23MemeHistory","trendMapped":"meme+history","trendVolume":855118},{"stateName":"AZ","trendName":"#DangerousWomanTonight","placeID":"2508428","placeName":"Tucson","searchUrl":"http:\/\/twitter.com\/search?q=%23DangerousWomanTonight","trendMapped":"dangerous+woman+tonight","trendVolume":264388},{"stateName":"AZ","trendName":"#DolceAmorePuSo","placeID":"2508428","placeName":"Tucson","searchUrl":"http:\/\/twitter.com\/search?q=%23DolceAmorePuSo","trendMapped":"dolce+amore+pu+so","trendVolume":1118035},{"stateName":"AZ","trendName":"#FridayFeeling","placeID":"2508428","placeName":"Tucson","searchUrl":"http:\/\/twitter.com\/search?q=%23FridayFeeling","trendMapped":"friday+feeling","trendVolume":88509},{"stateName":"AZ","trendName":"#GOPDebate","placeID":"2508428","placeName":"Tucson","searchUrl":"http:\/\/twitter.com\/search?q=%23GOPDebate","trendMapped":"gop+debate","trendVolume":882790},{"stateName":"AZ","trendName":"#WELCOMETOMANILA5SOS","placeID":"2449808","placeName":"Mesa","searchUrl":"http:\/\/twitter.com\/search?q=%23WELCOMETOMANILA5SOS","trendMapped":"welcometomanila5+sos","trendVolume":131434},{"stateName":"AZ","trendName":"Ben Carson","placeID":"2508428","placeName":"Tucson","searchUrl":"http:\/\/twitter.com\/search?q=%22Ben+Carson%22","trendMapped":"Ben+Carson","trendVolume":149527},{"stateName":"AZ","trendName":"Ciara","placeID":"2508428","placeName":"Tucson","searchUrl":"http:\/\/twitter.com\/search?q=Ciara","trendMapped":"ciara","trendVolume":157176},{"stateName":"AZ","trendName":"Civil War","placeID":"2471390","placeName":"Phoenix","searchUrl":"http:\/\/twitter.com\/search?q=%22Civil+War%22","trendMapped":"Civil+War","trendVolume":375112},{"stateName":"CA","trendName":"#DangerousWomanTonight","placeID":"2488042","placeName":"San Jose","searchUrl":"http:\/\/twitter.com\/search?q=%23DangerousWomanTonight","trendMapped":"dangerous+woman+tonight","trendVolume":259305},{"stateName":"CA","trendName":"#DemDebate","placeID":"2487889","placeName":"San Diego","searchUrl":"http:\/\/twitter.com\/search?q=%23DemDebate","trendMapped":"dem+debate","trendVolume":584040},{"stateName":"CA","trendName":"#DolceAmorePuSo","placeID":"2487956","placeName":"San Francisco","searchUrl":"http:\/\/twitter.com\/search?q=%23DolceAmorePuSo","trendMapped":"dolce+amore+pu+so","trendVolume":1134027},{"stateName":"CA","trendName":"#FridayFeeling","placeID":"2488042","placeName":"San Jose","searchUrl":"http:\/\/twitter.com\/search?q=%23FridayFeeling","trendMapped":"friday+feeling","trendVolume":92778},{"stateName":"CA","trendName":"#GOPDebate","placeID":"2488042","placeName":"San Jose","searchUrl":"http:\/\/twitter.com\/search?q=%23GOPDebate","trendMapped":"gop+debate","trendVolume":882835},{"stateName":"CA","trendName":"#GOT7FlightLog","placeID":"2488042","placeName":"San Jose","searchUrl":"http:\/\/twitter.com\/search?q=%23GOT7FlightLog","trendMapped":"got7+flight+log","trendVolume":158956},{"stateName":"CA","trendName":"#MemeHistory","placeID":"2487889","placeName":"San Diego","searchUrl":"http:\/\/twitter.com\/search?q=%23MemeHistory","trendMapped":"meme+history","trendVolume":755336},{"stateName":"CA","trendName":"#WELCOMETOMANILA5SOS","placeID":"2488042","placeName":"San Jose","searchUrl":"http:\/\/twitter.com\/search?q=%23WELCOMETOMANILA5SOS","trendMapped":"welcometomanila5+sos","trendVolume":131434},{"stateName":"CA","trendName":"Ben Carson","placeID":"2488042","placeName":"San Jose","searchUrl":"http:\/\/twitter.com\/search?q=%22Ben+Carson%22","trendMapped":"Ben+Carson","trendVolume":168444},{"stateName":"CA","trendName":"Ciara","placeID":"2488042","placeName":"San Jose","searchUrl":"http:\/\/twitter.com\/search?q=Ciara","trendMapped":"ciara","trendVolume":166903},{"stateName":"CA","trendName":"Newcastle","placeID":"2442047","placeName":"Los Angeles","searchUrl":"http:\/\/twitter.com\/search?q=Newcastle","trendMapped":"newcastle","trendVolume":109243},{"stateName":"CO","trendName":"#BuyDangerousWomanOniTunes","placeID":"2391279","placeName":"Denver","searchUrl":"http:\/\/twitter.com\/search?q=%23BuyDangerousWomanOniTunes","trendMapped":"buy+dangerous+woman+oni+tunes","trendVolume":259971},{"stateName":"CO","trendName":"#DangerousWomanTonight","placeID":"2383489","placeName":"Colorado Springs","searchUrl":"http:\/\/twitter.com\/search?q=%23DangerousWomanTonight","trendMapped":"dangerous+woman+tonight","trendVolume":259305},{"stateName":"CO","trendName":"#DemDebate","placeID":"2391279","placeName":"Denver","searchUrl":"http:\/\/twitter.com\/search?q=%23DemDebate","trendMapped":"dem+debate","trendVolume":586498},{"stateName":"CO","trendName":"#DolceAmorePuSo","placeID":"2391279","placeName":"Denver","searchUrl":"http:\/\/twitter.com\/search?q=%23DolceAmorePuSo","trendMapped":"dolce+amore+pu+so","trendVolume":1118035},{"stateName":"CO","trendName":"#FridayFeeling","placeID":"2391279","placeName":"Denver","searchUrl":"http:\/\/twitter.com\/search?q=%23FridayFeeling","trendMapped":"friday+feeling","trendVolume":85473},{"stateName":"CO","trendName":"#GOPDebate","placeID":"2391279","placeName":"Denver","searchUrl":"http:\/\/twitter.com\/search?q=%23GOPDebate","trendMapped":"gop+debate","trendVolume":850634},{"stateName":"CO","trendName":"#GOT7FlightLog","placeID":"2383489","placeName":"Colorado Springs","searchUrl":"http:\/\/twitter.com\/search?q=%23GOT7FlightLog","trendMapped":"got7+flight+log","trendVolume":158956},{"stateName":"CO","trendName":"Ben Carson","placeID":"2391279","placeName":"Denver","searchUrl":"http:\/\/twitter.com\/search?q=%22Ben+Carson%22","trendMapped":"Ben+Carson","trendVolume":156502},{"stateName":"CO","trendName":"Ciara","placeID":"2391279","placeName":"Denver","searchUrl":"http:\/\/twitter.com\/search?q=Ciara","trendMapped":"ciara","trendVolume":169258},{"stateName":"CO","trendName":"M.O.M","placeID":"2391279","placeName":"Denver","searchUrl":"http:\/\/twitter.com\/search?q=M.O.M","trendMapped":"m.o.m","trendVolume":151403},{"stateName":"CT","trendName":"#DemDebate","placeID":"2458410","placeName":"New Haven","searchUrl":"http:\/\/twitter.com\/search?q=%23DemDebate","trendMapped":"dem+debate","trendVolume":582285},{"stateName":"CT","trendName":"#DolceAmorePuSo","placeID":"2458410","placeName":"New Haven","searchUrl":"http:\/\/twitter.com\/search?q=%23DolceAmorePuSo","trendMapped":"dolce+amore+pu+so","trendVolume":1142379},{"stateName":"CT","trendName":"#GOPDebate","placeID":"2458410","placeName":"New Haven","searchUrl":"http:\/\/twitter.com\/search?q=%23GOPDebate","trendMapped":"gop+debate","trendVolume":882205},{"stateName":"CT","trendName":"Ciara","placeID":"2458410","placeName":"New Haven","searchUrl":"http:\/\/twitter.com\/search?q=Ciara","trendMapped":"ciara","trendVolume":154727},{"stateName":"DC","trendName":"#DolceAmorePuSo","placeID":"2514815","placeName":"Washington","searchUrl":"http:\/\/twitter.com\/search?q=%23DolceAmorePuSo","trendMapped":"dolce+amore+pu+so","trendVolume":1118035},{"stateName":"DC","trendName":"#FridayFeeling","placeID":"2514815","placeName":"Washington","searchUrl":"http:\/\/twitter.com\/search?q=%23FridayFeeling","trendMapped":"friday+feeling","trendVolume":88509},{"stateName":"DC","trendName":"#GOPDebate","placeID":"2514815","placeName":"Washington","searchUrl":"http:\/\/twitter.com\/search?q=%23GOPDebate","trendMapped":"gop+debate","trendVolume":805017},{"stateName":"DC","trendName":"Ben Carson","placeID":"2514815","placeName":"Washington","searchUrl":"http:\/\/twitter.com\/search?q=%22Ben+Carson%22","trendMapped":"Ben+Carson","trendVolume":162945},{"stateName":"FL","trendName":"#BuyDangerousWomanOniTunes","placeID":"2450022","placeName":"Miami","searchUrl":"http:\/\/twitter.com\/search?q=%23BuyDangerousWomanOniTunes","trendMapped":"buy+dangerous+woman+oni+tunes","trendVolume":259013},{"stateName":"FL","trendName":"#DangerousWomanTonight","placeID":"2503863","placeName":"Tampa","searchUrl":"http:\/\/twitter.com\/search?q=%23DangerousWomanTonight","trendMapped":"dangerous+woman+tonight","trendVolume":254082},{"stateName":"FL","trendName":"#DemDebate","placeID":"2503713","placeName":"Tallahassee","searchUrl":"http:\/\/twitter.com\/search?q=%23DemDebate","trendMapped":"dem+debate","trendVolume":587086},{"stateName":"FL","trendName":"#DolceAmorePuSo","placeID":"2503863","placeName":"Tampa","searchUrl":"http:\/\/twitter.com\/search?q=%23DolceAmorePuSo","trendMapped":"dolce+amore+pu+so","trendVolume":1087084},{"stateName":"FL","trendName":"#FridayFeeling","placeID":"2503863","placeName":"Tampa","searchUrl":"http:\/\/twitter.com\/search?q=%23FridayFeeling","trendMapped":"friday+feeling","trendVolume":95299},{"stateName":"FL","trendName":"#GOPDebate","placeID":"2503863","placeName":"Tampa","searchUrl":"http:\/\/twitter.com\/search?q=%23GOPDebate","trendMapped":"gop+debate","trendVolume":882835},{"stateName":"FL","trendName":"#MemeHistory","placeID":"2503863","placeName":"Tampa","searchUrl":"http:\/\/twitter.com\/search?q=%23MemeHistory","trendMapped":"meme+history","trendVolume":701022},{"stateName":"FL","trendName":"Ben Carson","placeID":"2450022","placeName":"Miami","searchUrl":"http:\/\/twitter.com\/search?q=%22Ben+Carson%22","trendMapped":"Ben+Carson","trendVolume":175032},{"stateName":"FL","trendName":"Ciara","placeID":"2503863","placeName":"Tampa","searchUrl":"http:\/\/twitter.com\/search?q=Ciara","trendMapped":"ciara","trendVolume":154727},{"stateName":"FL","trendName":"House","placeID":"2503713","placeName":"Tallahassee","searchUrl":"http:\/\/twitter.com\/search?q=House","trendMapped":"house","trendVolume":511983},{"stateName":"FL","trendName":"United","placeID":"2503863","placeName":"Tampa","searchUrl":"http:\/\/twitter.com\/search?q=United","trendMapped":"united","trendVolume":545291},{"stateName":"GA","trendName":"#DangerousWomanTonight","placeID":"2357024","placeName":"Atlanta","searchUrl":"http:\/\/twitter.com\/search?q=%23DangerousWomanTonight","trendMapped":"dangerous+woman+tonight","trendVolume":218052},{"stateName":"GA","trendName":"#FridayFeeling","placeID":"2357024","placeName":"Atlanta","searchUrl":"http:\/\/twitter.com\/search?q=%23FridayFeeling","trendMapped":"friday+feeling","trendVolume":90925},{"stateName":"GA","trendName":"#GOPDebate","placeID":"2357024","placeName":"Atlanta","searchUrl":"http:\/\/twitter.com\/search?q=%23GOPDebate","trendMapped":"gop+debate","trendVolume":822360},{"stateName":"GA","trendName":"#MemeHistory","placeID":"2357024","placeName":"Atlanta","searchUrl":"http:\/\/twitter.com\/search?q=%23MemeHistory","trendMapped":"meme+history","trendVolume":560519},{"stateName":"GA","trendName":"Ben Carson","placeID":"2357024","placeName":"Atlanta","searchUrl":"http:\/\/twitter.com\/search?q=%22Ben+Carson%22","trendMapped":"Ben+Carson","trendVolume":173933},{"stateName":"HI","trendName":"#DolceAmorePuSo","placeID":"2423945","placeName":"Honolulu","searchUrl":"http:\/\/twitter.com\/search?q=%23DolceAmorePuSo","trendMapped":"dolce+amore+pu+so","trendVolume":1118035},{"stateName":"HI","trendName":"#GOPDebate","placeID":"2423945","placeName":"Honolulu","searchUrl":"http:\/\/twitter.com\/search?q=%23GOPDebate","trendMapped":"gop+debate","trendVolume":881253},{"stateName":"IL","trendName":"#DangerousWomanTonight","placeID":"2379574","placeName":"Chicago","searchUrl":"http:\/\/twitter.com\/search?q=%23DangerousWomanTonight","trendMapped":"dangerous+woman+tonight","trendVolume":222939},{"stateName":"IL","trendName":"#DolceAmorePuSo","placeID":"2379574","placeName":"Chicago","searchUrl":"http:\/\/twitter.com\/search?q=%23DolceAmorePuSo","trendMapped":"dolce+amore+pu+so","trendVolume":1142379},{"stateName":"IL","trendName":"#FridayFeeling","placeID":"2379574","placeName":"Chicago","searchUrl":"http:\/\/twitter.com\/search?q=%23FridayFeeling","trendMapped":"friday+feeling","trendVolume":91673},{"stateName":"IL","trendName":"#GOPDebate","placeID":"2379574","placeName":"Chicago","searchUrl":"http:\/\/twitter.com\/search?q=%23GOPDebate","trendMapped":"gop+debate","trendVolume":798567},{"stateName":"IL","trendName":"Ben Carson","placeID":"2379574","placeName":"Chicago","searchUrl":"http:\/\/twitter.com\/search?q=%22Ben+Carson%22","trendMapped":"Ben+Carson","trendVolume":161350},{"stateName":"IL","trendName":"Ciara","placeID":"2379574","placeName":"Chicago","searchUrl":"http:\/\/twitter.com\/search?q=Ciara","trendMapped":"ciara","trendVolume":101213},{"stateName":"IN","trendName":"#DangerousWomanTonight","placeID":"2427032","placeName":"Indianapolis","searchUrl":"http:\/\/twitter.com\/search?q=%23DangerousWomanTonight","trendMapped":"dangerous+woman+tonight","trendVolume":252947},{"stateName":"IN","trendName":"#DemDebate","placeID":"2427032","placeName":"Indianapolis","searchUrl":"http:\/\/twitter.com\/search?q=%23DemDebate","trendMapped":"dem+debate","trendVolume":588347},{"stateName":"IN","trendName":"#DolceAmorePuSo","placeID":"2427032","placeName":"Indianapolis","searchUrl":"http:\/\/twitter.com\/search?q=%23DolceAmorePuSo","trendMapped":"dolce+amore+pu+so","trendVolume":1042274},{"stateName":"IN","trendName":"#FridayFeeling","placeID":"2427032","placeName":"Indianapolis","searchUrl":"http:\/\/twitter.com\/search?q=%23FridayFeeling","trendMapped":"friday+feeling","trendVolume":80634},{"stateName":"IN","trendName":"#GOPDebate","placeID":"2427032","placeName":"Indianapolis","searchUrl":"http:\/\/twitter.com\/search?q=%23GOPDebate","trendMapped":"gop+debate","trendVolume":880233},{"stateName":"IN","trendName":"Ben Carson","placeID":"2427032","placeName":"Indianapolis","searchUrl":"http:\/\/twitter.com\/search?q=%22Ben+Carson%22","trendMapped":"Ben+Carson","trendVolume":145582},{"stateName":"KY","trendName":"#DangerousWomanTonight","placeID":"2442327","placeName":"Louisville","searchUrl":"http:\/\/twitter.com\/search?q=%23DangerousWomanTonight","trendMapped":"dangerous+woman+tonight","trendVolume":224879},{"stateName":"KY","trendName":"#DolceAmorePuSo","placeID":"2442327","placeName":"Louisville","searchUrl":"http:\/\/twitter.com\/search?q=%23DolceAmorePuSo","trendMapped":"dolce+amore+pu+so","trendVolume":1142379},{"stateName":"KY","trendName":"#GOPDebate","placeID":"2442327","placeName":"Louisville","searchUrl":"http:\/\/twitter.com\/search?q=%23GOPDebate","trendMapped":"gop+debate","trendVolume":881553},{"stateName":"LA","trendName":"#DemDebate","placeID":"2458833","placeName":"New Orleans","searchUrl":"http:\/\/twitter.com\/search?q=%23DemDebate","trendMapped":"dem+debate","trendVolume":584309},{"stateName":"LA","trendName":"#DolceAmorePuSo","placeID":"2458833","placeName":"New Orleans","searchUrl":"http:\/\/twitter.com\/search?q=%23DolceAmorePuSo","trendMapped":"dolce+amore+pu+so","trendVolume":1134027},{"stateName":"LA","trendName":"#GOPDebate","placeID":"2458833","placeName":"New Orleans","searchUrl":"http:\/\/twitter.com\/search?q=%23GOPDebate","trendMapped":"gop+debate","trendVolume":883508},{"stateName":"MA","trendName":"#DangerousWomanTonight","placeID":"2367105","placeName":"Boston","searchUrl":"http:\/\/twitter.com\/search?q=%23DangerousWomanTonight","trendMapped":"dangerous+woman+tonight","trendVolume":250311},{"stateName":"MA","trendName":"#DolceAmorePuSo","placeID":"2367105","placeName":"Boston","searchUrl":"http:\/\/twitter.com\/search?q=%23DolceAmorePuSo","trendMapped":"dolce+amore+pu+so","trendVolume":1118035},{"stateName":"MA","trendName":"#GOPDebate","placeID":"2367105","placeName":"Boston","searchUrl":"http:\/\/twitter.com\/search?q=%23GOPDebate","trendMapped":"gop+debate","trendVolume":858961},{"stateName":"MA","trendName":"Ben Carson","placeID":"2367105","placeName":"Boston","searchUrl":"http:\/\/twitter.com\/search?q=%22Ben+Carson%22","trendMapped":"Ben+Carson","trendVolume":166221},{"stateName":"MD","trendName":"#DangerousWomanTonight","placeID":"2358820","placeName":"Baltimore","searchUrl":"http:\/\/twitter.com\/search?q=%23DangerousWomanTonight","trendMapped":"dangerous+woman+tonight","trendVolume":233261},{"stateName":"MD","trendName":"#DemDebate","placeID":"2358820","placeName":"Baltimore","searchUrl":"http:\/\/twitter.com\/search?q=%23DemDebate","trendMapped":"dem+debate","trendVolume":580850},{"stateName":"MD","trendName":"#DolceAmorePuSo","placeID":"2358820","placeName":"Baltimore","searchUrl":"http:\/\/twitter.com\/search?q=%23DolceAmorePuSo","trendMapped":"dolce+amore+pu+so","trendVolume":1142379},{"stateName":"MD","trendName":"#GOPDebate","placeID":"2358820","placeName":"Baltimore","searchUrl":"http:\/\/twitter.com\/search?q=%23GOPDebate","trendMapped":"gop+debate","trendVolume":881696},{"stateName":"MD","trendName":"#MemeHistory","placeID":"2358820","placeName":"Baltimore","searchUrl":"http:\/\/twitter.com\/search?q=%23MemeHistory","trendMapped":"meme+history","trendVolume":678588},{"stateName":"MI","trendName":"#DangerousWomanTonight","placeID":"2391585","placeName":"Detroit","searchUrl":"http:\/\/twitter.com\/search?q=%23DangerousWomanTonight","trendMapped":"dangerous+woman+tonight","trendVolume":256172},{"stateName":"MI","trendName":"#DolceAmorePuSo","placeID":"2391585","placeName":"Detroit","searchUrl":"http:\/\/twitter.com\/search?q=%23DolceAmorePuSo","trendMapped":"dolce+amore+pu+so","trendVolume":1042274},{"stateName":"MI","trendName":"#FridayFeeling","placeID":"2391585","placeName":"Detroit","searchUrl":"http:\/\/twitter.com\/search?q=%23FridayFeeling","trendMapped":"friday+feeling","trendVolume":93622},{"stateName":"MI","trendName":"#GOPDebate","placeID":"2391585","placeName":"Detroit","searchUrl":"http:\/\/twitter.com\/search?q=%23GOPDebate","trendMapped":"gop+debate","trendVolume":875908},{"stateName":"MI","trendName":"#MemeHistory","placeID":"2391585","placeName":"Detroit","searchUrl":"http:\/\/twitter.com\/search?q=%23MemeHistory","trendMapped":"meme+history","trendVolume":843425},{"stateName":"MI","trendName":"Civil War","placeID":"2391585","placeName":"Detroit","searchUrl":"http:\/\/twitter.com\/search?q=%22Civil+War%22","trendMapped":"Civil+War","trendVolume":375849},{"stateName":"MN","trendName":"#BuyDangerousWomanOniTunes","placeID":"2452078","placeName":"Minneapolis","searchUrl":"http:\/\/twitter.com\/search?q=%23BuyDangerousWomanOniTunes","trendMapped":"buy+dangerous+woman+oni+tunes","trendVolume":256926},{"stateName":"MN","trendName":"#DangerousWomanTonight","placeID":"2452078","placeName":"Minneapolis","searchUrl":"http:\/\/twitter.com\/search?q=%23DangerousWomanTonight","trendMapped":"dangerous+woman+tonight","trendVolume":244521},{"stateName":"MN","trendName":"#DemDebate","placeID":"2452078","placeName":"Minneapolis","searchUrl":"http:\/\/twitter.com\/search?q=%23DemDebate","trendMapped":"dem+debate","trendVolume":584309},{"stateName":"MN","trendName":"#DolceAmorePuSo","placeID":"2452078","placeName":"Minneapolis","searchUrl":"http:\/\/twitter.com\/search?q=%23DolceAmorePuSo","trendMapped":"dolce+amore+pu+so","trendVolume":1142379},{"stateName":"MN","trendName":"#GOPDebate","placeID":"2452078","placeName":"Minneapolis","searchUrl":"http:\/\/twitter.com\/search?q=%23GOPDebate","trendMapped":"gop+debate","trendVolume":883508},{"stateName":"MN","trendName":"#MemeHistory","placeID":"2452078","placeName":"Minneapolis","searchUrl":"http:\/\/twitter.com\/search?q=%23MemeHistory","trendMapped":"meme+history","trendVolume":845461},{"stateName":"MO","trendName":"#DangerousWomanTonight","placeID":"2486982","placeName":"St. Louis","searchUrl":"http:\/\/twitter.com\/search?q=%23DangerousWomanTonight","trendMapped":"dangerous+woman+tonight","trendVolume":216705},{"stateName":"MO","trendName":"#DolceAmorePuSo","placeID":"2486982","placeName":"St. Louis","searchUrl":"http:\/\/twitter.com\/search?q=%23DolceAmorePuSo","trendMapped":"dolce+amore+pu+so","trendVolume":1042274},{"stateName":"MO","trendName":"#FridayFeeling","placeID":"2486982","placeName":"St. Louis","searchUrl":"http:\/\/twitter.com\/search?q=%23FridayFeeling","trendMapped":"friday+feeling","trendVolume":85473},{"stateName":"MO","trendName":"#GOPDebate","placeID":"2486982","placeName":"St. Louis","searchUrl":"http:\/\/twitter.com\/search?q=%23GOPDebate","trendMapped":"gop+debate","trendVolume":881889},{"stateName":"MO","trendName":"#MemeHistory","placeID":"2486982","placeName":"St. Louis","searchUrl":"http:\/\/twitter.com\/search?q=%23MemeHistory","trendMapped":"meme+history","trendVolume":743114},{"stateName":"MO","trendName":"Ciara","placeID":"2486982","placeName":"St. Louis","searchUrl":"http:\/\/twitter.com\/search?q=Ciara","trendMapped":"ciara","trendVolume":115916},{"stateName":"MS","trendName":"#DangerousWomanTonight","placeID":"2428184","placeName":"Jackson","searchUrl":"http:\/\/twitter.com\/search?q=%23DangerousWomanTonight","trendMapped":"dangerous+woman+tonight","trendVolume":248173},{"stateName":"MS","trendName":"#DolceAmorePuSo","placeID":"2428184","placeName":"Jackson","searchUrl":"http:\/\/twitter.com\/search?q=%23DolceAmorePuSo","trendMapped":"dolce+amore+pu+so","trendVolume":1118035},{"stateName":"MS","trendName":"#GOPDebate","placeID":"2428184","placeName":"Jackson","searchUrl":"http:\/\/twitter.com\/search?q=%23GOPDebate","trendMapped":"gop+debate","trendVolume":881961},{"stateName":"MS","trendName":"Hillary","placeID":"2428184","placeName":"Jackson","searchUrl":"http:\/\/twitter.com\/search?q=Hillary","trendMapped":"hillary","trendVolume":438831},{"stateName":"NC","trendName":"#DangerousWomanTonight","placeID":"2414469","placeName":"Greensboro","searchUrl":"http:\/\/twitter.com\/search?q=%23DangerousWomanTonight","trendMapped":"dangerous+woman+tonight","trendVolume":232234},{"stateName":"NC","trendName":"#DemDebate","placeID":"2478307","placeName":"Raleigh","searchUrl":"http:\/\/twitter.com\/search?q=%23DemDebate","trendMapped":"dem+debate","trendVolume":588347},{"stateName":"NC","trendName":"#DolceAmorePuSo","placeID":"2478307","placeName":"Raleigh","searchUrl":"http:\/\/twitter.com\/search?q=%23DolceAmorePuSo","trendMapped":"dolce+amore+pu+so","trendVolume":1142379},{"stateName":"NC","trendName":"#GOPDebate","placeID":"2478307","placeName":"Raleigh","searchUrl":"http:\/\/twitter.com\/search?q=%23GOPDebate","trendMapped":"gop+debate","trendVolume":882790},{"stateName":"NC","trendName":"#MemeHistory","placeID":"2414469","placeName":"Greensboro","searchUrl":"http:\/\/twitter.com\/search?q=%23MemeHistory","trendMapped":"meme+history","trendVolume":732246},{"stateName":"NC","trendName":"Civil War","placeID":"2478307","placeName":"Raleigh","searchUrl":"http:\/\/twitter.com\/search?q=%22Civil+War%22","trendMapped":"Civil+War","trendVolume":375849},{"stateName":"NE","trendName":"#DemDebate","placeID":"2465512","placeName":"Omaha","searchUrl":"http:\/\/twitter.com\/search?q=%23DemDebate","trendMapped":"dem+debate","trendVolume":584309},{"stateName":"NE","trendName":"#DolceAmorePuSo","placeID":"2465512","placeName":"Omaha","searchUrl":"http:\/\/twitter.com\/search?q=%23DolceAmorePuSo","trendMapped":"dolce+amore+pu+so","trendVolume":1099070},{"stateName":"NE","trendName":"#GOPDebate","placeID":"2465512","placeName":"Omaha","searchUrl":"http:\/\/twitter.com\/search?q=%23GOPDebate","trendMapped":"gop+debate","trendVolume":881553},{"stateName":"NE","trendName":"Civil War","placeID":"2465512","placeName":"Omaha","searchUrl":"http:\/\/twitter.com\/search?q=%22Civil+War%22","trendMapped":"Civil+War","trendVolume":379972},{"stateName":"NM","trendName":"#DangerousWomanTonight","placeID":"2352824","placeName":"Albuquerque","searchUrl":"http:\/\/twitter.com\/search?q=%23DangerousWomanTonight","trendMapped":"dangerous+woman+tonight","trendVolume":252947},{"stateName":"NM","trendName":"#DolceAmorePuSo","placeID":"2352824","placeName":"Albuquerque","searchUrl":"http:\/\/twitter.com\/search?q=%23DolceAmorePuSo","trendMapped":"dolce+amore+pu+so","trendVolume":1042274},{"stateName":"NM","trendName":"#GOPDebate","placeID":"2352824","placeName":"Albuquerque","searchUrl":"http:\/\/twitter.com\/search?q=%23GOPDebate","trendMapped":"gop+debate","trendVolume":805017},{"stateName":"NM","trendName":"#MemeHistory","placeID":"2352824","placeName":"Albuquerque","searchUrl":"http:\/\/twitter.com\/search?q=%23MemeHistory","trendMapped":"meme+history","trendVolume":415510},{"stateName":"NM","trendName":"Ben Carson","placeID":"2352824","placeName":"Albuquerque","searchUrl":"http:\/\/twitter.com\/search?q=%22Ben+Carson%22","trendMapped":"Ben+Carson","trendVolume":133108},{"stateName":"NM","trendName":"M.O.M","placeID":"2352824","placeName":"Albuquerque","searchUrl":"http:\/\/twitter.com\/search?q=M.O.M","trendMapped":"m.o.m","trendVolume":151403},{"stateName":"NV","trendName":"#BuyDangerousWomanOniTunes","placeID":"2436704","placeName":"Las Vegas","searchUrl":"http:\/\/twitter.com\/search?q=%23BuyDangerousWomanOniTunes","trendMapped":"buy+dangerous+woman+oni+tunes","trendVolume":256926},{"stateName":"NV","trendName":"#DolceAmorePuSo","placeID":"2436704","placeName":"Las Vegas","searchUrl":"http:\/\/twitter.com\/search?q=%23DolceAmorePuSo","trendMapped":"dolce+amore+pu+so","trendVolume":1142379},{"stateName":"NV","trendName":"#GOPDebate","placeID":"2436704","placeName":"Las Vegas","searchUrl":"http:\/\/twitter.com\/search?q=%23GOPDebate","trendMapped":"gop+debate","trendVolume":882548},{"stateName":"NV","trendName":"#MemeHistory","placeID":"2436704","placeName":"Las Vegas","searchUrl":"http:\/\/twitter.com\/search?q=%23MemeHistory","trendMapped":"meme+history","trendVolume":762774},{"stateName":"NV","trendName":"Civil War","placeID":"2436704","placeName":"Las Vegas","searchUrl":"http:\/\/twitter.com\/search?q=%22Civil+War%22","trendMapped":"Civil+War","trendVolume":354076},{"stateName":"NY","trendName":"#DangerousWomanTonight","placeID":"2459115","placeName":"New York","searchUrl":"http:\/\/twitter.com\/search?q=%23DangerousWomanTonight","trendMapped":"dangerous+woman+tonight","trendVolume":252947},{"stateName":"NY","trendName":"#DolceAmorePuSo","placeID":"2459115","placeName":"New York","searchUrl":"http:\/\/twitter.com\/search?q=%23DolceAmorePuSo","trendMapped":"dolce+amore+pu+so","trendVolume":1014721},{"stateName":"NY","trendName":"#FridayFeeling","placeID":"2459115","placeName":"New York","searchUrl":"http:\/\/twitter.com\/search?q=%23FridayFeeling","trendMapped":"friday+feeling","trendVolume":88509},{"stateName":"NY","trendName":"#GOPDebate","placeID":"2459115","placeName":"New York","searchUrl":"http:\/\/twitter.com\/search?q=%23GOPDebate","trendMapped":"gop+debate","trendVolume":809717},{"stateName":"NY","trendName":"Ciara","placeID":"2459115","placeName":"New York","searchUrl":"http:\/\/twitter.com\/search?q=Ciara","trendMapped":"ciara","trendVolume":161751},{"stateName":"OH","trendName":"#DangerousWomanTonight","placeID":"2381475","placeName":"Cleveland","searchUrl":"http:\/\/twitter.com\/search?q=%23DangerousWomanTonight","trendMapped":"dangerous+woman+tonight","trendVolume":254082},{"stateName":"OH","trendName":"#DemDebate","placeID":"2383660","placeName":"Columbus","searchUrl":"http:\/\/twitter.com\/search?q=%23DemDebate","trendMapped":"dem+debate","trendVolume":588347},{"stateName":"OH","trendName":"#DolceAmorePuSo","placeID":"2383660","placeName":"Columbus","searchUrl":"http:\/\/twitter.com\/search?q=%23DolceAmorePuSo","trendMapped":"dolce+amore+pu+so","trendVolume":1142379},{"stateName":"OH","trendName":"#FridayFeeling","placeID":"2383660","placeName":"Columbus","searchUrl":"http:\/\/twitter.com\/search?q=%23FridayFeeling","trendMapped":"friday+feeling","trendVolume":80634},{"stateName":"OH","trendName":"#GOPDebate","placeID":"2383660","placeName":"Columbus","searchUrl":"http:\/\/twitter.com\/search?q=%23GOPDebate","trendMapped":"gop+debate","trendVolume":882835},{"stateName":"OH","trendName":"Ben Carson","placeID":"2381475","placeName":"Cleveland","searchUrl":"http:\/\/twitter.com\/search?q=%22Ben+Carson%22","trendMapped":"Ben+Carson","trendVolume":165527},{"stateName":"OH","trendName":"Broncos","placeID":"2381475","placeName":"Cleveland","searchUrl":"http:\/\/twitter.com\/search?q=Broncos","trendMapped":"broncos","trendVolume":82648},{"stateName":"OH","trendName":"Ciara","placeID":"2381475","placeName":"Cleveland","searchUrl":"http:\/\/twitter.com\/search?q=Ciara","trendMapped":"ciara","trendVolume":171570},{"stateName":"OH","trendName":"Civil War","placeID":"2381475","placeName":"Cleveland","searchUrl":"http:\/\/twitter.com\/search?q=%22Civil+War%22","trendMapped":"Civil+War","trendVolume":361219},{"stateName":"OH","trendName":"Kobe","placeID":"2381475","placeName":"Cleveland","searchUrl":"http:\/\/twitter.com\/search?q=Kobe","trendMapped":"kobe","trendVolume":333793},{"stateName":"OK","trendName":"#DemDebate","placeID":"2464592","placeName":"Oklahoma City","searchUrl":"http:\/\/twitter.com\/search?q=%23DemDebate","trendMapped":"dem+debate","trendVolume":584309},{"stateName":"OK","trendName":"#DolceAmorePuSo","placeID":"2464592","placeName":"Oklahoma City","searchUrl":"http:\/\/twitter.com\/search?q=%23DolceAmorePuSo","trendMapped":"dolce+amore+pu+so","trendVolume":982288},{"stateName":"OK","trendName":"#GOPDebate","placeID":"2464592","placeName":"Oklahoma City","searchUrl":"http:\/\/twitter.com\/search?q=%23GOPDebate","trendMapped":"gop+debate","trendVolume":882548},{"stateName":"OK","trendName":"House","placeID":"2464592","placeName":"Oklahoma City","searchUrl":"http:\/\/twitter.com\/search?q=House","trendMapped":"house","trendVolume":507080},{"stateName":"OR","trendName":"#DangerousWomanTonight","placeID":"2475687","placeName":"Portland","searchUrl":"http:\/\/twitter.com\/search?q=%23DangerousWomanTonight","trendMapped":"dangerous+woman+tonight","trendVolume":254082},{"stateName":"OR","trendName":"#DemDebate","placeID":"2475687","placeName":"Portland","searchUrl":"http:\/\/twitter.com\/search?q=%23DemDebate","trendMapped":"dem+debate","trendVolume":587086},{"stateName":"OR","trendName":"#DolceAmorePuSo","placeID":"2475687","placeName":"Portland","searchUrl":"http:\/\/twitter.com\/search?q=%23DolceAmorePuSo","trendMapped":"dolce+amore+pu+so","trendVolume":1142379},{"stateName":"OR","trendName":"#GOPDebate","placeID":"2475687","placeName":"Portland","searchUrl":"http:\/\/twitter.com\/search?q=%23GOPDebate","trendMapped":"gop+debate","trendVolume":882835},{"stateName":"PA","trendName":"#BuyDangerousWomanOniTunes","placeID":"2471217","placeName":"Philadelphia","searchUrl":"http:\/\/twitter.com\/search?q=%23BuyDangerousWomanOniTunes","trendMapped":"buy+dangerous+woman+oni+tunes","trendVolume":245737},{"stateName":"PA","trendName":"#DangerousWomanTonight","placeID":"2473224","placeName":"Pittsburgh","searchUrl":"http:\/\/twitter.com\/search?q=%23DangerousWomanTonight","trendMapped":"dangerous+woman+tonight","trendVolume":264388},{"stateName":"PA","trendName":"#DemDebate","placeID":"2473224","placeName":"Pittsburgh","searchUrl":"http:\/\/twitter.com\/search?q=%23DemDebate","trendMapped":"dem+debate","trendVolume":584908},{"stateName":"PA","trendName":"#DolceAmorePuSo","placeID":"2473224","placeName":"Pittsburgh","searchUrl":"http:\/\/twitter.com\/search?q=%23DolceAmorePuSo","trendMapped":"dolce+amore+pu+so","trendVolume":1087084},{"stateName":"PA","trendName":"#FridayFeeling","placeID":"2471217","placeName":"Philadelphia","searchUrl":"http:\/\/twitter.com\/search?q=%23FridayFeeling","trendMapped":"friday+feeling","trendVolume":87060},{"stateName":"PA","trendName":"#GOPDebate","placeID":"2473224","placeName":"Pittsburgh","searchUrl":"http:\/\/twitter.com\/search?q=%23GOPDebate","trendMapped":"gop+debate","trendVolume":882270},{"stateName":"PA","trendName":"#MemeHistory","placeID":"2473224","placeName":"Pittsburgh","searchUrl":"http:\/\/twitter.com\/search?q=%23MemeHistory","trendMapped":"meme+history","trendVolume":709441},{"stateName":"PA","trendName":"#WorldCultureFestival","placeID":"2471217","placeName":"Philadelphia","searchUrl":"http:\/\/twitter.com\/search?q=%23WorldCultureFestival","trendMapped":"world+culture+festival","trendVolume":67966},{"stateName":"PA","trendName":"Ciara","placeID":"2471217","placeName":"Philadelphia","searchUrl":"http:\/\/twitter.com\/search?q=Ciara","trendMapped":"ciara","trendVolume":131640},{"stateName":"PA","trendName":"Civil War","placeID":"2418046","placeName":"Harrisburg","searchUrl":"http:\/\/twitter.com\/search?q=%22Civil+War%22","trendMapped":"Civil+War","trendVolume":293712},{"stateName":"RI","trendName":"#DangerousWomanTonight","placeID":"2477058","placeName":"Providence","searchUrl":"http:\/\/twitter.com\/search?q=%23DangerousWomanTonight","trendMapped":"dangerous+woman+tonight","trendVolume":244521},{"stateName":"RI","trendName":"#DemDebate","placeID":"2477058","placeName":"Providence","searchUrl":"http:\/\/twitter.com\/search?q=%23DemDebate","trendMapped":"dem+debate","trendVolume":582285},{"stateName":"RI","trendName":"#DolceAmorePuSo","placeID":"2477058","placeName":"Providence","searchUrl":"http:\/\/twitter.com\/search?q=%23DolceAmorePuSo","trendMapped":"dolce+amore+pu+so","trendVolume":1108783},{"stateName":"RI","trendName":"#GOPDebate","placeID":"2477058","placeName":"Providence","searchUrl":"http:\/\/twitter.com\/search?q=%23GOPDebate","trendMapped":"gop+debate","trendVolume":883508},{"stateName":"RI","trendName":"Dangerous Woman","placeID":"2477058","placeName":"Providence","searchUrl":"http:\/\/twitter.com\/search?q=%22Dangerous+Woman%22","trendMapped":"Dangerous+Woman","trendVolume":288298},{"stateName":"RI","trendName":"Rubio","placeID":"2477058","placeName":"Providence","searchUrl":"http:\/\/twitter.com\/search?q=Rubio","trendMapped":"rubio","trendVolume":312328},{"stateName":"TN","trendName":"#DangerousWomanTonight","placeID":"2457170","placeName":"Nashville","searchUrl":"http:\/\/twitter.com\/search?q=%23DangerousWomanTonight","trendMapped":"dangerous+woman+tonight","trendVolume":250311},{"stateName":"TN","trendName":"#DolceAmorePuSo","placeID":"2457170","placeName":"Nashville","searchUrl":"http:\/\/twitter.com\/search?q=%23DolceAmorePuSo","trendMapped":"dolce+amore+pu+so","trendVolume":1118035},{"stateName":"TN","trendName":"#GOPDebate","placeID":"2457170","placeName":"Nashville","searchUrl":"http:\/\/twitter.com\/search?q=%23GOPDebate","trendMapped":"gop+debate","trendVolume":882550},{"stateName":"TX","trendName":"#BuyDangerousWomanOniTunes","placeID":"2388929","placeName":"Dallas-Ft. Worth","searchUrl":"http:\/\/twitter.com\/search?q=%23BuyDangerousWomanOniTunes","trendMapped":"buy+dangerous+woman+oni+tunes","trendVolume":259971},{"stateName":"TX","trendName":"#DangerousWomanTonight","placeID":"2424766","placeName":"Houston","searchUrl":"http:\/\/twitter.com\/search?q=%23DangerousWomanTonight","trendMapped":"dangerous+woman+tonight","trendVolume":252947},{"stateName":"TX","trendName":"#DemDebate","placeID":"2487796","placeName":"San Antonio","searchUrl":"http:\/\/twitter.com\/search?q=%23DemDebate","trendMapped":"dem+debate","trendVolume":588347},{"stateName":"TX","trendName":"#DolceAmorePuSo","placeID":"2487796","placeName":"San Antonio","searchUrl":"http:\/\/twitter.com\/search?q=%23DolceAmorePuSo","trendMapped":"dolce+amore+pu+so","trendVolume":1134027},{"stateName":"TX","trendName":"#FridayFeeling","placeID":"2388929","placeName":"Dallas-Ft. Worth","searchUrl":"http:\/\/twitter.com\/search?q=%23FridayFeeling","trendMapped":"friday+feeling","trendVolume":89837},{"stateName":"TX","trendName":"#GOPDebate","placeID":"2487796","placeName":"San Antonio","searchUrl":"http:\/\/twitter.com\/search?q=%23GOPDebate","trendMapped":"gop+debate","trendVolume":882548},{"stateName":"TX","trendName":"#MemeHistory","placeID":"2397816","placeName":"El Paso","searchUrl":"http:\/\/twitter.com\/search?q=%23MemeHistory","trendMapped":"meme+history","trendVolume":806271},{"stateName":"TX","trendName":"#PurposeTourSeattle","placeID":"2397816","placeName":"El Paso","searchUrl":"http:\/\/twitter.com\/search?q=%23PurposeTourSeattle","trendMapped":"purpose+tour+seattle","trendVolume":734923},{"stateName":"TX","trendName":"Ben Carson","placeID":"2388929","placeName":"Dallas-Ft. Worth","searchUrl":"http:\/\/twitter.com\/search?q=%22Ben+Carson%22","trendMapped":"Ben+Carson","trendVolume":167812},{"stateName":"TX","trendName":"Ciara","placeID":"2388929","placeName":"Dallas-Ft. Worth","searchUrl":"http:\/\/twitter.com\/search?q=Ciara","trendMapped":"ciara","trendVolume":101213},{"stateName":"TX","trendName":"Civil War","placeID":"2487796","placeName":"San Antonio","searchUrl":"http:\/\/twitter.com\/search?q=%22Civil+War%22","trendMapped":"Civil+War","trendVolume":442287},{"stateName":"UT","trendName":"#DemDebate","placeID":"2487610","placeName":"Salt Lake City","searchUrl":"http:\/\/twitter.com\/search?q=%23DemDebate","trendMapped":"dem+debate","trendVolume":580850},{"stateName":"UT","trendName":"#DolceAmorePuSo","placeID":"2487610","placeName":"Salt Lake City","searchUrl":"http:\/\/twitter.com\/search?q=%23DolceAmorePuSo","trendMapped":"dolce+amore+pu+so","trendVolume":1087084},{"stateName":"UT","trendName":"#GOPDebate","placeID":"2487610","placeName":"Salt Lake City","searchUrl":"http:\/\/twitter.com\/search?q=%23GOPDebate","trendMapped":"gop+debate","trendVolume":883172},{"stateName":"UT","trendName":"#MemeHistory","placeID":"2487610","placeName":"Salt Lake City","searchUrl":"http:\/\/twitter.com\/search?q=%23MemeHistory","trendMapped":"meme+history","trendVolume":701022},{"stateName":"UT","trendName":"Civil War","placeID":"2487610","placeName":"Salt Lake City","searchUrl":"http:\/\/twitter.com\/search?q=%22Civil+War%22","trendMapped":"Civil+War","trendVolume":382426},{"stateName":"VA","trendName":"#DangerousWomanTonight","placeID":"2512636","placeName":"Virginia Beach","searchUrl":"http:\/\/twitter.com\/search?q=%23DangerousWomanTonight","trendMapped":"dangerous+woman+tonight","trendVolume":248173},{"stateName":"VA","trendName":"#DolceAmorePuSo","placeID":"2512636","placeName":"Virginia Beach","searchUrl":"http:\/\/twitter.com\/search?q=%23DolceAmorePuSo","trendMapped":"dolce+amore+pu+so","trendVolume":1055773},{"stateName":"VA","trendName":"#FridayFeeling","placeID":"2512636","placeName":"Virginia Beach","searchUrl":"http:\/\/twitter.com\/search?q=%23FridayFeeling","trendMapped":"friday+feeling","trendVolume":90925},{"stateName":"VA","trendName":"#GOPDebate","placeID":"2512636","placeName":"Virginia Beach","searchUrl":"http:\/\/twitter.com\/search?q=%23GOPDebate","trendMapped":"gop+debate","trendVolume":881821},{"stateName":"VA","trendName":"#MemeHistory","placeID":"2460389","placeName":"Norfolk","searchUrl":"http:\/\/twitter.com\/search?q=%23MemeHistory","trendMapped":"meme+history","trendVolume":845461},{"stateName":"VA","trendName":"Ben Carson","placeID":"2512636","placeName":"Virginia Beach","searchUrl":"http:\/\/twitter.com\/search?q=%22Ben+Carson%22","trendMapped":"Ben+Carson","trendVolume":157604},{"stateName":"VA","trendName":"Ciara","placeID":"2512636","placeName":"Virginia Beach","searchUrl":"http:\/\/twitter.com\/search?q=Ciara","trendMapped":"ciara","trendVolume":166903},{"stateName":"VA","trendName":"Civil War","placeID":"2480894","placeName":"Richmond","searchUrl":"http:\/\/twitter.com\/search?q=%22Civil+War%22","trendMapped":"Civil+War","trendVolume":382426},{"stateName":"WA","trendName":"#DangerousWomanTonight","placeID":"2490383","placeName":"Seattle","searchUrl":"http:\/\/twitter.com\/search?q=%23DangerousWomanTonight","trendMapped":"dangerous+woman+tonight","trendVolume":250311},{"stateName":"WA","trendName":"#DolceAmorePuSo","placeID":"2490383","placeName":"Seattle","searchUrl":"http:\/\/twitter.com\/search?q=%23DolceAmorePuSo","trendMapped":"dolce+amore+pu+so","trendVolume":1042274},{"stateName":"WA","trendName":"#FridayFeeling","placeID":"2490383","placeName":"Seattle","searchUrl":"http:\/\/twitter.com\/search?q=%23FridayFeeling","trendMapped":"friday+feeling","trendVolume":91673},{"stateName":"WA","trendName":"#GOPDebate","placeID":"2490383","placeName":"Seattle","searchUrl":"http:\/\/twitter.com\/search?q=%23GOPDebate","trendMapped":"gop+debate","trendVolume":882548},{"stateName":"WA","trendName":"#MemeHistory","placeID":"2490383","placeName":"Seattle","searchUrl":"http:\/\/twitter.com\/search?q=%23MemeHistory","trendMapped":"meme+history","trendVolume":658942},{"stateName":"WA","trendName":"Ciara","placeID":"2490383","placeName":"Seattle","searchUrl":"http:\/\/twitter.com\/search?q=Ciara","trendMapped":"ciara","trendVolume":154727},{"stateName":"WI","trendName":"#DemDebate","placeID":"2451822","placeName":"Milwaukee","searchUrl":"http:\/\/twitter.com\/search?q=%23DemDebate","trendMapped":"dem+debate","trendVolume":585003},{"stateName":"WI","trendName":"#GOPDebate","placeID":"2451822","placeName":"Milwaukee","searchUrl":"http:\/\/twitter.com\/search?q=%23GOPDebate","trendMapped":"gop+debate","trendVolume":880793},{"stateName":"WI","trendName":"#MemeHistory","placeID":"2451822","placeName":"Milwaukee","searchUrl":"http:\/\/twitter.com\/search?q=%23MemeHistory","trendMapped":"meme+history","trendVolume":766137},{"stateName":"WI","trendName":"#TeamCap","placeID":"2451822","placeName":"Milwaukee","searchUrl":"http:\/\/twitter.com\/search?q=%23TeamCap","trendMapped":"team+cap","trendVolume":254583},{"stateName":"XX","trendName":"#DolceAmorePuSo","placeID":"23424977","placeName":"United States","searchUrl":"http:\/\/twitter.com\/search?q=%23DolceAmorePuSo","trendMapped":"dolce+amore+pu+so","trendVolume":1087084},{"stateName":"XX","trendName":"#GOPDebate","placeID":"23424977","placeName":"United States","searchUrl":"http:\/\/twitter.com\/search?q=%23GOPDebate","trendMapped":"gop+debate","trendVolume":795407},{"stateName":"XX","trendName":"Ben Carson","placeID":"23424977","placeName":"United States","searchUrl":"http:\/\/twitter.com\/search?q=%22Ben+Carson%22","trendMapped":"Ben+Carson","trendVolume":168444},{"stateName":"XX","trendName":"Ciara","placeID":"23424977","placeName":"United States","searchUrl":"http:\/\/twitter.com\/search?q=Ciara","trendMapped":"ciara","trendVolume":169258},{"stateName":"XX","trendName":"M.O.M","placeID":"23424977","placeName":"United States","searchUrl":"http:\/\/twitter.com\/search?q=M.O.M","trendMapped":"m.o.m","trendVolume":151403}]