[{"stateName":"AL","trendName":"#PiDay","placeID":"2364559","placeName":"Birmingham","searchUrl":"http:\/\/twitter.com\/search?q=%23PiDay","trendMapped":"pi+day","trendVolume":269544},{"stateName":"AL","trendName":"#TheBachelor","placeID":"2364559","placeName":"Birmingham","searchUrl":"http:\/\/twitter.com\/search?q=%23TheBachelor","trendMapped":"the+bachelor","trendVolume":427026},{"stateName":"AZ","trendName":"#DemTownHall","placeID":"2471390","placeName":"Phoenix","searchUrl":"http:\/\/twitter.com\/search?q=%23DemTownHall","trendMapped":"dem+town+hall","trendVolume":238232},{"stateName":"AZ","trendName":"#DolanTwinsNewVideo","placeID":"2508428","placeName":"Tucson","searchUrl":"http:\/\/twitter.com\/search?q=%23DolanTwinsNewVideo","trendMapped":"dolan+twins+new+video","trendVolume":190337},{"stateName":"AZ","trendName":"#PiDay","placeID":"2471390","placeName":"Phoenix","searchUrl":"http:\/\/twitter.com\/search?q=%23PiDay","trendMapped":"pi+day","trendVolume":283422},{"stateName":"AZ","trendName":"#PrimaryDay","placeID":"2508428","placeName":"Tucson","searchUrl":"http:\/\/twitter.com\/search?q=%23PrimaryDay","trendMapped":"primary+day","trendVolume":91697},{"stateName":"AZ","trendName":"#TheBachelor","placeID":"2508428","placeName":"Tucson","searchUrl":"http:\/\/twitter.com\/search?q=%23TheBachelor","trendMapped":"the+bachelor","trendVolume":427614},{"stateName":"AZ","trendName":"I-10","placeID":"2508428","placeName":"Tucson","searchUrl":"http:\/\/twitter.com\/search?q=I-10","trendMapped":"i-10","trendVolume":185457},{"stateName":"CA","trendName":"#DolanTwinsNewVideo","placeID":"2488042","placeName":"San Jose","searchUrl":"http:\/\/twitter.com\/search?q=%23DolanTwinsNewVideo","trendMapped":"dolan+twins+new+video","trendVolume":190337},{"stateName":"CA","trendName":"#PiDay","placeID":"2486340","placeName":"Sacramento","searchUrl":"http:\/\/twitter.com\/search?q=%23PiDay","trendMapped":"pi+day","trendVolume":286359},{"stateName":"CA","trendName":"#PrimaryDay","placeID":"2488042","placeName":"San Jose","searchUrl":"http:\/\/twitter.com\/search?q=%23PrimaryDay","trendMapped":"primary+day","trendVolume":83969},{"stateName":"CA","trendName":"#TheBachelor","placeID":"2488042","placeName":"San Jose","searchUrl":"http:\/\/twitter.com\/search?q=%23TheBachelor","trendMapped":"the+bachelor","trendVolume":427755},{"stateName":"CA","trendName":"Berl\u00edn","placeID":"2488042","placeName":"San Jose","searchUrl":"http:\/\/twitter.com\/search?q=Berl%C3%ADn","trendMapped":"berl\u00edn","trendVolume":82371},{"stateName":"CA","trendName":"I-10","placeID":"2488042","placeName":"San Jose","searchUrl":"http:\/\/twitter.com\/search?q=I-10","trendMapped":"i-10","trendVolume":185467},{"stateName":"CO","trendName":"#DolanTwinsNewVideo","placeID":"2391279","placeName":"Denver","searchUrl":"http:\/\/twitter.com\/search?q=%23DolanTwinsNewVideo","trendMapped":"dolan+twins+new+video","trendVolume":190036},{"stateName":"CO","trendName":"#PiDay","placeID":"2391279","placeName":"Denver","searchUrl":"http:\/\/twitter.com\/search?q=%23PiDay","trendMapped":"pi+day","trendVolume":283422},{"stateName":"CO","trendName":"#PrimaryDay","placeID":"2383489","placeName":"Colorado Springs","searchUrl":"http:\/\/twitter.com\/search?q=%23PrimaryDay","trendMapped":"primary+day","trendVolume":83969},{"stateName":"CO","trendName":"#TheBachelor","placeID":"2391279","placeName":"Denver","searchUrl":"http:\/\/twitter.com\/search?q=%23TheBachelor","trendMapped":"the+bachelor","trendVolume":426498},{"stateName":"CO","trendName":"Berl\u00edn","placeID":"2383489","placeName":"Colorado Springs","searchUrl":"http:\/\/twitter.com\/search?q=Berl%C3%ADn","trendMapped":"berl\u00edn","trendVolume":81466},{"stateName":"CO","trendName":"I-10","placeID":"2383489","placeName":"Colorado Springs","searchUrl":"http:\/\/twitter.com\/search?q=I-10","trendMapped":"i-10","trendVolume":178704},{"stateName":"CT","trendName":"#PiDay","placeID":"2458410","placeName":"New Haven","searchUrl":"http:\/\/twitter.com\/search?q=%23PiDay","trendMapped":"pi+day","trendVolume":276928},{"stateName":"CT","trendName":"#TheBachelor","placeID":"2458410","placeName":"New Haven","searchUrl":"http:\/\/twitter.com\/search?q=%23TheBachelor","trendMapped":"the+bachelor","trendVolume":427568},{"stateName":"DC","trendName":"#DolanTwinsNewVideo","placeID":"2514815","placeName":"Washington","searchUrl":"http:\/\/twitter.com\/search?q=%23DolanTwinsNewVideo","trendMapped":"dolan+twins+new+video","trendVolume":187236},{"stateName":"DC","trendName":"#PrimaryDay","placeID":"2514815","placeName":"Washington","searchUrl":"http:\/\/twitter.com\/search?q=%23PrimaryDay","trendMapped":"primary+day","trendVolume":79584},{"stateName":"DC","trendName":"#TheBachelor","placeID":"2514815","placeName":"Washington","searchUrl":"http:\/\/twitter.com\/search?q=%23TheBachelor","trendMapped":"the+bachelor","trendVolume":419646},{"stateName":"DC","trendName":"I-10","placeID":"2514815","placeName":"Washington","searchUrl":"http:\/\/twitter.com\/search?q=I-10","trendMapped":"i-10","trendVolume":182994},{"stateName":"FL","trendName":"#DolanTwinsNewVideo","placeID":"2503713","placeName":"Tallahassee","searchUrl":"http:\/\/twitter.com\/search?q=%23DolanTwinsNewVideo","trendMapped":"dolan+twins+new+video","trendVolume":190036},{"stateName":"FL","trendName":"#PiDay","placeID":"2466256","placeName":"Orlando","searchUrl":"http:\/\/twitter.com\/search?q=%23PiDay","trendMapped":"pi+day","trendVolume":286359},{"stateName":"FL","trendName":"#PrimaryDay","placeID":"2503713","placeName":"Tallahassee","searchUrl":"http:\/\/twitter.com\/search?q=%23PrimaryDay","trendMapped":"primary+day","trendVolume":80976},{"stateName":"FL","trendName":"#TheBachelor","placeID":"2503863","placeName":"Tampa","searchUrl":"http:\/\/twitter.com\/search?q=%23TheBachelor","trendMapped":"the+bachelor","trendVolume":427710},{"stateName":"FL","trendName":"Black","placeID":"2428344","placeName":"Jacksonville","searchUrl":"http:\/\/twitter.com\/search?q=Black","trendMapped":"black","trendVolume":846051},{"stateName":"FL","trendName":"Hillary","placeID":"2503713","placeName":"Tallahassee","searchUrl":"http:\/\/twitter.com\/search?q=Hillary","trendMapped":"hillary","trendVolume":354171},{"stateName":"FL","trendName":"I-10","placeID":"2503863","placeName":"Tampa","searchUrl":"http:\/\/twitter.com\/search?q=I-10","trendMapped":"i-10","trendVolume":185467},{"stateName":"GA","trendName":"#DolanTwinsNewVideo","placeID":"2357024","placeName":"Atlanta","searchUrl":"http:\/\/twitter.com\/search?q=%23DolanTwinsNewVideo","trendMapped":"dolan+twins+new+video","trendVolume":187236},{"stateName":"GA","trendName":"#PrimaryDay","placeID":"2357024","placeName":"Atlanta","searchUrl":"http:\/\/twitter.com\/search?q=%23PrimaryDay","trendMapped":"primary+day","trendVolume":93343},{"stateName":"GA","trendName":"#TheBachelor","placeID":"2357024","placeName":"Atlanta","searchUrl":"http:\/\/twitter.com\/search?q=%23TheBachelor","trendMapped":"the+bachelor","trendVolume":423343},{"stateName":"GA","trendName":"I-10","placeID":"2357024","placeName":"Atlanta","searchUrl":"http:\/\/twitter.com\/search?q=I-10","trendMapped":"i-10","trendVolume":187164},{"stateName":"HI","trendName":"#PiDay","placeID":"2423945","placeName":"Honolulu","searchUrl":"http:\/\/twitter.com\/search?q=%23PiDay","trendMapped":"pi+day","trendVolume":286359},{"stateName":"HI","trendName":"#TheBachelor","placeID":"2423945","placeName":"Honolulu","searchUrl":"http:\/\/twitter.com\/search?q=%23TheBachelor","trendMapped":"the+bachelor","trendVolume":426711},{"stateName":"HI","trendName":"Syria","placeID":"2423945","placeName":"Honolulu","searchUrl":"http:\/\/twitter.com\/search?q=Syria","trendMapped":"syria","trendVolume":209374},{"stateName":"IL","trendName":"#DolanTwinsNewVideo","placeID":"2379574","placeName":"Chicago","searchUrl":"http:\/\/twitter.com\/search?q=%23DolanTwinsNewVideo","trendMapped":"dolan+twins+new+video","trendVolume":189462},{"stateName":"IL","trendName":"#PrimaryDay","placeID":"2379574","placeName":"Chicago","searchUrl":"http:\/\/twitter.com\/search?q=%23PrimaryDay","trendMapped":"primary+day","trendVolume":96711},{"stateName":"IL","trendName":"#TheBachelor","placeID":"2379574","placeName":"Chicago","searchUrl":"http:\/\/twitter.com\/search?q=%23TheBachelor","trendMapped":"the+bachelor","trendVolume":420085},{"stateName":"IL","trendName":"I-10","placeID":"2379574","placeName":"Chicago","searchUrl":"http:\/\/twitter.com\/search?q=I-10","trendMapped":"i-10","trendVolume":182994},{"stateName":"IN","trendName":"#DemTownHall","placeID":"2427032","placeName":"Indianapolis","searchUrl":"http:\/\/twitter.com\/search?q=%23DemTownHall","trendMapped":"dem+town+hall","trendVolume":275962},{"stateName":"IN","trendName":"#PiDay","placeID":"2427032","placeName":"Indianapolis","searchUrl":"http:\/\/twitter.com\/search?q=%23PiDay","trendMapped":"pi+day","trendVolume":281343},{"stateName":"IN","trendName":"#TheBachelor","placeID":"2427032","placeName":"Indianapolis","searchUrl":"http:\/\/twitter.com\/search?q=%23TheBachelor","trendMapped":"the+bachelor","trendVolume":427650},{"stateName":"KY","trendName":"#PiDay","placeID":"2442327","placeName":"Louisville","searchUrl":"http:\/\/twitter.com\/search?q=%23PiDay","trendMapped":"pi+day","trendVolume":286899},{"stateName":"KY","trendName":"#TheBachelor","placeID":"2442327","placeName":"Louisville","searchUrl":"http:\/\/twitter.com\/search?q=%23TheBachelor","trendMapped":"the+bachelor","trendVolume":428405},{"stateName":"LA","trendName":"#DolanTwinsNewVideo","placeID":"2359991","placeName":"Baton Rouge","searchUrl":"http:\/\/twitter.com\/search?q=%23DolanTwinsNewVideo","trendMapped":"dolan+twins+new+video","trendVolume":185040},{"stateName":"LA","trendName":"#PiDay","placeID":"2458833","placeName":"New Orleans","searchUrl":"http:\/\/twitter.com\/search?q=%23PiDay","trendMapped":"pi+day","trendVolume":284690},{"stateName":"LA","trendName":"#TheBachelor","placeID":"2458833","placeName":"New Orleans","searchUrl":"http:\/\/twitter.com\/search?q=%23TheBachelor","trendMapped":"the+bachelor","trendVolume":428060},{"stateName":"LA","trendName":"I-10","placeID":"2359991","placeName":"Baton Rouge","searchUrl":"http:\/\/twitter.com\/search?q=I-10","trendMapped":"i-10","trendVolume":185467},{"stateName":"MA","trendName":"#DolanTwinsNewVideo","placeID":"2367105","placeName":"Boston","searchUrl":"http:\/\/twitter.com\/search?q=%23DolanTwinsNewVideo","trendMapped":"dolan+twins+new+video","trendVolume":187236},{"stateName":"MA","trendName":"#PrimaryDay","placeID":"2367105","placeName":"Boston","searchUrl":"http:\/\/twitter.com\/search?q=%23PrimaryDay","trendMapped":"primary+day","trendVolume":98407},{"stateName":"MA","trendName":"#TheBachelor","placeID":"2367105","placeName":"Boston","searchUrl":"http:\/\/twitter.com\/search?q=%23TheBachelor","trendMapped":"the+bachelor","trendVolume":419646},{"stateName":"MA","trendName":"I-10","placeID":"2367105","placeName":"Boston","searchUrl":"http:\/\/twitter.com\/search?q=I-10","trendMapped":"i-10","trendVolume":176290},{"stateName":"MD","trendName":"#PiDay","placeID":"2358820","placeName":"Baltimore","searchUrl":"http:\/\/twitter.com\/search?q=%23PiDay","trendMapped":"pi+day","trendVolume":278296},{"stateName":"MD","trendName":"#TheBachelor","placeID":"2358820","placeName":"Baltimore","searchUrl":"http:\/\/twitter.com\/search?q=%23TheBachelor","trendMapped":"the+bachelor","trendVolume":426718},{"stateName":"MI","trendName":"#TheBachelor","placeID":"2391585","placeName":"Detroit","searchUrl":"http:\/\/twitter.com\/search?q=%23TheBachelor","trendMapped":"the+bachelor","trendVolume":427525},{"stateName":"MN","trendName":"#PiDay","placeID":"2452078","placeName":"Minneapolis","searchUrl":"http:\/\/twitter.com\/search?q=%23PiDay","trendMapped":"pi+day","trendVolume":269544},{"stateName":"MN","trendName":"#TheBachelor","placeID":"2452078","placeName":"Minneapolis","searchUrl":"http:\/\/twitter.com\/search?q=%23TheBachelor","trendMapped":"the+bachelor","trendVolume":427280},{"stateName":"MO","trendName":"#PiDay","placeID":"2486982","placeName":"St. Louis","searchUrl":"http:\/\/twitter.com\/search?q=%23PiDay","trendMapped":"pi+day","trendVolume":278983},{"stateName":"MO","trendName":"#TheBachelor","placeID":"2486982","placeName":"St. Louis","searchUrl":"http:\/\/twitter.com\/search?q=%23TheBachelor","trendMapped":"the+bachelor","trendVolume":427650},{"stateName":"MS","trendName":"#Periscope","placeID":"2428184","placeName":"Jackson","searchUrl":"http:\/\/twitter.com\/search?q=%23Periscope","trendMapped":"periscope","trendVolume":210036},{"stateName":"MS","trendName":"#PiDay","placeID":"2428184","placeName":"Jackson","searchUrl":"http:\/\/twitter.com\/search?q=%23PiDay","trendMapped":"pi+day","trendVolume":286359},{"stateName":"MS","trendName":"#TheBachelor","placeID":"2428184","placeName":"Jackson","searchUrl":"http:\/\/twitter.com\/search?q=%23TheBachelor","trendMapped":"the+bachelor","trendVolume":418534},{"stateName":"MS","trendName":"Rihanna","placeID":"2428184","placeName":"Jackson","searchUrl":"http:\/\/twitter.com\/search?q=Rihanna","trendMapped":"rihanna","trendVolume":170400},{"stateName":"NC","trendName":"#PiDay","placeID":"2378426","placeName":"Charlotte","searchUrl":"http:\/\/twitter.com\/search?q=%23PiDay","trendMapped":"pi+day","trendVolume":280520},{"stateName":"NC","trendName":"#TheBachelor","placeID":"2478307","placeName":"Raleigh","searchUrl":"http:\/\/twitter.com\/search?q=%23TheBachelor","trendMapped":"the+bachelor","trendVolume":428405},{"stateName":"NE","trendName":"#DolanTwinsNewVideo","placeID":"2465512","placeName":"Omaha","searchUrl":"http:\/\/twitter.com\/search?q=%23DolanTwinsNewVideo","trendMapped":"dolan+twins+new+video","trendVolume":188842},{"stateName":"NE","trendName":"#PiDay","placeID":"2465512","placeName":"Omaha","searchUrl":"http:\/\/twitter.com\/search?q=%23PiDay","trendMapped":"pi+day","trendVolume":280520},{"stateName":"NE","trendName":"#TheBachelor","placeID":"2465512","placeName":"Omaha","searchUrl":"http:\/\/twitter.com\/search?q=%23TheBachelor","trendMapped":"the+bachelor","trendVolume":425287},{"stateName":"NE","trendName":"#Trump2016","placeID":"2465512","placeName":"Omaha","searchUrl":"http:\/\/twitter.com\/search?q=%23Trump2016","trendMapped":"trump2016","trendVolume":157487},{"stateName":"NE","trendName":"I-10","placeID":"2465512","placeName":"Omaha","searchUrl":"http:\/\/twitter.com\/search?q=I-10","trendMapped":"i-10","trendVolume":179607},{"stateName":"NM","trendName":"#DolanTwinsNewVideo","placeID":"2352824","placeName":"Albuquerque","searchUrl":"http:\/\/twitter.com\/search?q=%23DolanTwinsNewVideo","trendMapped":"dolan+twins+new+video","trendVolume":185040},{"stateName":"NM","trendName":"#PrimaryDay","placeID":"2352824","placeName":"Albuquerque","searchUrl":"http:\/\/twitter.com\/search?q=%23PrimaryDay","trendMapped":"primary+day","trendVolume":72561},{"stateName":"NM","trendName":"#TheBachelor","placeID":"2352824","placeName":"Albuquerque","searchUrl":"http:\/\/twitter.com\/search?q=%23TheBachelor","trendMapped":"the+bachelor","trendVolume":402868},{"stateName":"NM","trendName":"I-10","placeID":"2352824","placeName":"Albuquerque","searchUrl":"http:\/\/twitter.com\/search?q=I-10","trendMapped":"i-10","trendVolume":182879},{"stateName":"NV","trendName":"#PiDay","placeID":"2436704","placeName":"Las Vegas","searchUrl":"http:\/\/twitter.com\/search?q=%23PiDay","trendMapped":"pi+day","trendVolume":295924},{"stateName":"NV","trendName":"#TheBachelor","placeID":"2436704","placeName":"Las Vegas","searchUrl":"http:\/\/twitter.com\/search?q=%23TheBachelor","trendMapped":"the+bachelor","trendVolume":428060},{"stateName":"NY","trendName":"#PrimaryDay","placeID":"2459115","placeName":"New York","searchUrl":"http:\/\/twitter.com\/search?q=%23PrimaryDay","trendMapped":"primary+day","trendVolume":93343},{"stateName":"NY","trendName":"#TheBachelor","placeID":"2459115","placeName":"New York","searchUrl":"http:\/\/twitter.com\/search?q=%23TheBachelor","trendMapped":"the+bachelor","trendVolume":388910},{"stateName":"NY","trendName":"I-10","placeID":"2459115","placeName":"New York","searchUrl":"http:\/\/twitter.com\/search?q=I-10","trendMapped":"i-10","trendVolume":184978},{"stateName":"OH","trendName":"#DolanTwinsNewVideo","placeID":"2383660","placeName":"Columbus","searchUrl":"http:\/\/twitter.com\/search?q=%23DolanTwinsNewVideo","trendMapped":"dolan+twins+new+video","trendVolume":189462},{"stateName":"OH","trendName":"#PiDay","placeID":"2383660","placeName":"Columbus","searchUrl":"http:\/\/twitter.com\/search?q=%23PiDay","trendMapped":"pi+day","trendVolume":286359},{"stateName":"OH","trendName":"#PrimaryDay","placeID":"2383660","placeName":"Columbus","searchUrl":"http:\/\/twitter.com\/search?q=%23PrimaryDay","trendMapped":"primary+day","trendVolume":98407},{"stateName":"OH","trendName":"#TheBachelor","placeID":"2383660","placeName":"Columbus","searchUrl":"http:\/\/twitter.com\/search?q=%23TheBachelor","trendMapped":"the+bachelor","trendVolume":428405},{"stateName":"OH","trendName":"I-10","placeID":"2383660","placeName":"Columbus","searchUrl":"http:\/\/twitter.com\/search?q=I-10","trendMapped":"i-10","trendVolume":179607},{"stateName":"OK","trendName":"#DemTownHall","placeID":"2464592","placeName":"Oklahoma City","searchUrl":"http:\/\/twitter.com\/search?q=%23DemTownHall","trendMapped":"dem+town+hall","trendVolume":275962},{"stateName":"OK","trendName":"#PiDay","placeID":"2464592","placeName":"Oklahoma City","searchUrl":"http:\/\/twitter.com\/search?q=%23PiDay","trendMapped":"pi+day","trendVolume":278983},{"stateName":"OK","trendName":"#TheBachelor","placeID":"2464592","placeName":"Oklahoma City","searchUrl":"http:\/\/twitter.com\/search?q=%23TheBachelor","trendMapped":"the+bachelor","trendVolume":428005},{"stateName":"OR","trendName":"#PiDay","placeID":"2475687","placeName":"Portland","searchUrl":"http:\/\/twitter.com\/search?q=%23PiDay","trendMapped":"pi+day","trendVolume":272986},{"stateName":"OR","trendName":"#TheBachelor","placeID":"2475687","placeName":"Portland","searchUrl":"http:\/\/twitter.com\/search?q=%23TheBachelor","trendMapped":"the+bachelor","trendVolume":428405},{"stateName":"PA","trendName":"#DolanTwinsNewVideo","placeID":"2471217","placeName":"Philadelphia","searchUrl":"http:\/\/twitter.com\/search?q=%23DolanTwinsNewVideo","trendMapped":"dolan+twins+new+video","trendVolume":189462},{"stateName":"PA","trendName":"#PiDay","placeID":"2418046","placeName":"Harrisburg","searchUrl":"http:\/\/twitter.com\/search?q=%23PiDay","trendMapped":"pi+day","trendVolume":286359},{"stateName":"PA","trendName":"#TheBachelor","placeID":"2473224","placeName":"Pittsburgh","searchUrl":"http:\/\/twitter.com\/search?q=%23TheBachelor","trendMapped":"the+bachelor","trendVolume":427092},{"stateName":"PA","trendName":"Bernie Sanders","placeID":"2418046","placeName":"Harrisburg","searchUrl":"http:\/\/twitter.com\/search?q=%22Bernie+Sanders%22","trendMapped":"Bernie+Sanders","trendVolume":142352},{"stateName":"PA","trendName":"I-10","placeID":"2471217","placeName":"Philadelphia","searchUrl":"http:\/\/twitter.com\/search?q=I-10","trendMapped":"i-10","trendVolume":178704},{"stateName":"RI","trendName":"#TheBachelor","placeID":"2477058","placeName":"Providence","searchUrl":"http:\/\/twitter.com\/search?q=%23TheBachelor","trendMapped":"the+bachelor","trendVolume":428405},{"stateName":"TN","trendName":"#PiDay","placeID":"2457170","placeName":"Nashville","searchUrl":"http:\/\/twitter.com\/search?q=%23PiDay","trendMapped":"pi+day","trendVolume":300162},{"stateName":"TN","trendName":"#TheBachelor","placeID":"2457170","placeName":"Nashville","searchUrl":"http:\/\/twitter.com\/search?q=%23TheBachelor","trendMapped":"the+bachelor","trendVolume":427755},{"stateName":"TN","trendName":"I-10","placeID":"2449323","placeName":"Memphis","searchUrl":"http:\/\/twitter.com\/search?q=I-10","trendMapped":"i-10","trendVolume":185457},{"stateName":"TX","trendName":"#DolanTwinsNewVideo","placeID":"2397816","placeName":"El Paso","searchUrl":"http:\/\/twitter.com\/search?q=%23DolanTwinsNewVideo","trendMapped":"dolan+twins+new+video","trendVolume":188355},{"stateName":"TX","trendName":"#PiDay","placeID":"2424766","placeName":"Houston","searchUrl":"http:\/\/twitter.com\/search?q=%23PiDay","trendMapped":"pi+day","trendVolume":284127},{"stateName":"TX","trendName":"#PrimaryDay","placeID":"2397816","placeName":"El Paso","searchUrl":"http:\/\/twitter.com\/search?q=%23PrimaryDay","trendMapped":"primary+day","trendVolume":88443},{"stateName":"TX","trendName":"#TheBachelor","placeID":"2487796","placeName":"San Antonio","searchUrl":"http:\/\/twitter.com\/search?q=%23TheBachelor","trendMapped":"the+bachelor","trendVolume":428405},{"stateName":"TX","trendName":"Donald Trump","placeID":"2397816","placeName":"El Paso","searchUrl":"http:\/\/twitter.com\/search?q=%22Donald+Trump%22","trendMapped":"Donald+Trump","trendVolume":450951},{"stateName":"TX","trendName":"I-10","placeID":"2397816","placeName":"El Paso","searchUrl":"http:\/\/twitter.com\/search?q=I-10","trendMapped":"i-10","trendVolume":181693},{"stateName":"TX","trendName":"Snapchat","placeID":"2487796","placeName":"San Antonio","searchUrl":"http:\/\/twitter.com\/search?q=Snapchat","trendMapped":"snapchat","trendVolume":406130},{"stateName":"TX","trendName":"Trump","placeID":"2397816","placeName":"El Paso","searchUrl":"http:\/\/twitter.com\/search?q=Trump","trendMapped":"trump","trendVolume":1750274},{"stateName":"UT","trendName":"#PiDay","placeID":"2487610","placeName":"Salt Lake City","searchUrl":"http:\/\/twitter.com\/search?q=%23PiDay","trendMapped":"pi+day","trendVolume":286899},{"stateName":"UT","trendName":"#TheBachelor","placeID":"2487610","placeName":"Salt Lake City","searchUrl":"http:\/\/twitter.com\/search?q=%23TheBachelor","trendMapped":"the+bachelor","trendVolume":427710},{"stateName":"VA","trendName":"#DolanTwinsNewVideo","placeID":"2512636","placeName":"Virginia Beach","searchUrl":"http:\/\/twitter.com\/search?q=%23DolanTwinsNewVideo","trendMapped":"dolan+twins+new+video","trendVolume":190337},{"stateName":"VA","trendName":"#PiDay","placeID":"2480894","placeName":"Richmond","searchUrl":"http:\/\/twitter.com\/search?q=%23PiDay","trendMapped":"pi+day","trendVolume":301099},{"stateName":"VA","trendName":"#PrimaryDay","placeID":"2512636","placeName":"Virginia Beach","searchUrl":"http:\/\/twitter.com\/search?q=%23PrimaryDay","trendMapped":"primary+day","trendVolume":93343},{"stateName":"VA","trendName":"#TheBachelor","placeID":"2512636","placeName":"Virginia Beach","searchUrl":"http:\/\/twitter.com\/search?q=%23TheBachelor","trendMapped":"the+bachelor","trendVolume":427710},{"stateName":"VA","trendName":"I-10","placeID":"2512636","placeName":"Virginia Beach","searchUrl":"http:\/\/twitter.com\/search?q=I-10","trendMapped":"i-10","trendVolume":187164},{"stateName":"WA","trendName":"#PrimaryDay","placeID":"2490383","placeName":"Seattle","searchUrl":"http:\/\/twitter.com\/search?q=%23PrimaryDay","trendMapped":"primary+day","trendVolume":96711},{"stateName":"WA","trendName":"#TheBachelor","placeID":"2490383","placeName":"Seattle","searchUrl":"http:\/\/twitter.com\/search?q=%23TheBachelor","trendMapped":"the+bachelor","trendVolume":426606},{"stateName":"WI","trendName":"#PiDay","placeID":"2451822","placeName":"Milwaukee","searchUrl":"http:\/\/twitter.com\/search?q=%23PiDay","trendMapped":"pi+day","trendVolume":278296},{"stateName":"WI","trendName":"#TheBachelor","placeID":"2451822","placeName":"Milwaukee","searchUrl":"http:\/\/twitter.com\/search?q=%23TheBachelor","trendMapped":"the+bachelor","trendVolume":425757},{"stateName":"WI","trendName":"Pi Day","placeID":"2451822","placeName":"Milwaukee","searchUrl":"http:\/\/twitter.com\/search?q=%22Pi+Day%22","trendMapped":"Pi+Day","trendVolume":215263},{"stateName":"XX","trendName":"#PrimaryDay","placeID":"23424977","placeName":"United States","searchUrl":"http:\/\/twitter.com\/search?q=%23PrimaryDay","trendMapped":"primary+day","trendVolume":76683},{"stateName":"XX","trendName":"#TheBachelor","placeID":"23424977","placeName":"United States","searchUrl":"http:\/\/twitter.com\/search?q=%23TheBachelor","trendMapped":"the+bachelor","trendVolume":365688},{"stateName":"XX","trendName":"I-10","placeID":"23424977","placeName":"United States","searchUrl":"http:\/\/twitter.com\/search?q=I-10","trendMapped":"i-10","trendVolume":177569}]