[{"stateName":"AL","trendName":"#DemDebate","placeID":"2364559","placeName":"Birmingham","searchUrl":"http:\/\/twitter.com\/search?q=%23DemDebate","trendMapped":"dem+debate","trendVolume":827605},{"stateName":"AL","trendName":"#UFC196","placeID":"2364559","placeName":"Birmingham","searchUrl":"http:\/\/twitter.com\/search?q=%23UFC196","trendMapped":"ufc196","trendVolume":901041},{"stateName":"AL","trendName":"Nancy Reagan","placeID":"2364559","placeName":"Birmingham","searchUrl":"http:\/\/twitter.com\/search?q=%22Nancy+Reagan%22","trendMapped":"Nancy+Reagan","trendVolume":448782},{"stateName":"AZ","trendName":"#3DaysTilDangerousWoman","placeID":"2508428","placeName":"Tucson","searchUrl":"http:\/\/twitter.com\/search?q=%233DaysTilDangerousWoman","trendMapped":"3+days+til+dangerous+woman","trendVolume":117755},{"stateName":"AZ","trendName":"#BTS1000DAYS","placeID":"2508428","placeName":"Tucson","searchUrl":"http:\/\/twitter.com\/search?q=%23BTS1000DAYS","trendMapped":"bts1000+days","trendVolume":361804},{"stateName":"AZ","trendName":"#DemDebate","placeID":"2508428","placeName":"Tucson","searchUrl":"http:\/\/twitter.com\/search?q=%23DemDebate","trendMapped":"dem+debate","trendVolume":808048},{"stateName":"AZ","trendName":"HARMONIZERS VOTING","placeID":"2449808","placeName":"Mesa","searchUrl":"http:\/\/twitter.com\/search?q=%22HARMONIZERS+VOTING%22","trendMapped":"HARMONIZERS+VOTING","trendVolume":513328},{"stateName":"AZ","trendName":"Nancy Reagan","placeID":"2449808","placeName":"Mesa","searchUrl":"http:\/\/twitter.com\/search?q=%22Nancy+Reagan%22","trendMapped":"Nancy+Reagan","trendVolume":490525},{"stateName":"AZ","trendName":"POWERVOTE FOR JAMES","placeID":"2508428","placeName":"Tucson","searchUrl":"http:\/\/twitter.com\/search?q=%22POWERVOTE+FOR+JAMES%22","trendMapped":"POWERVOTE+FOR+JAMES","trendVolume":914914},{"stateName":"AZ","trendName":"Peyton Manning","placeID":"2508428","placeName":"Tucson","searchUrl":"http:\/\/twitter.com\/search?q=%22Peyton+Manning%22","trendMapped":"Peyton+Manning","trendVolume":243041},{"stateName":"AZ","trendName":"WAKE UP DIRECTIONERS","placeID":"2508428","placeName":"Tucson","searchUrl":"http:\/\/twitter.com\/search?q=%22WAKE+UP+DIRECTIONERS%22","trendMapped":"WAKE+UP+DIRECTIONERS","trendVolume":588437},{"stateName":"AZ","trendName":"Warriors","placeID":"2508428","placeName":"Tucson","searchUrl":"http:\/\/twitter.com\/search?q=Warriors","trendMapped":"warriors","trendVolume":270148},{"stateName":"CA","trendName":"#3DaysTilDangerousWoman","placeID":"2487956","placeName":"San Francisco","searchUrl":"http:\/\/twitter.com\/search?q=%233DaysTilDangerousWoman","trendMapped":"3+days+til+dangerous+woman","trendVolume":117281},{"stateName":"CA","trendName":"#BTS1000DAYS","placeID":"2488042","placeName":"San Jose","searchUrl":"http:\/\/twitter.com\/search?q=%23BTS1000DAYS","trendMapped":"bts1000+days","trendVolume":356125},{"stateName":"CA","trendName":"#DemDebate","placeID":"2488042","placeName":"San Jose","searchUrl":"http:\/\/twitter.com\/search?q=%23DemDebate","trendMapped":"dem+debate","trendVolume":828976},{"stateName":"CA","trendName":"#UFC196","placeID":"2487889","placeName":"San Diego","searchUrl":"http:\/\/twitter.com\/search?q=%23UFC196","trendMapped":"ufc196","trendVolume":882864},{"stateName":"CA","trendName":"#mondaymotivation","placeID":"2442047","placeName":"Los Angeles","searchUrl":"http:\/\/twitter.com\/search?q=%23mondaymotivation","trendMapped":"mondaymotivation","trendVolume":133509},{"stateName":"CA","trendName":"Australia","placeID":"2487956","placeName":"San Francisco","searchUrl":"http:\/\/twitter.com\/search?q=Australia","trendMapped":"australia","trendVolume":146871},{"stateName":"CA","trendName":"HARMONIZERS VOTING","placeID":"2487956","placeName":"San Francisco","searchUrl":"http:\/\/twitter.com\/search?q=%22HARMONIZERS+VOTING%22","trendMapped":"HARMONIZERS+VOTING","trendVolume":513328},{"stateName":"CA","trendName":"Lakers","placeID":"2487956","placeName":"San Francisco","searchUrl":"http:\/\/twitter.com\/search?q=Lakers","trendMapped":"lakers","trendVolume":371137},{"stateName":"CA","trendName":"Nancy Reagan","placeID":"2488042","placeName":"San Jose","searchUrl":"http:\/\/twitter.com\/search?q=%22Nancy+Reagan%22","trendMapped":"Nancy+Reagan","trendVolume":491515},{"stateName":"CA","trendName":"POWERVOTE FOR JAMES","placeID":"2488042","placeName":"San Jose","searchUrl":"http:\/\/twitter.com\/search?q=%22POWERVOTE+FOR+JAMES%22","trendMapped":"POWERVOTE+FOR+JAMES","trendVolume":1236620},{"stateName":"CA","trendName":"Peyton Manning","placeID":"2488042","placeName":"San Jose","searchUrl":"http:\/\/twitter.com\/search?q=%22Peyton+Manning%22","trendMapped":"Peyton+Manning","trendVolume":247917},{"stateName":"CA","trendName":"WAKE UP DIRECTIONERS","placeID":"2488042","placeName":"San Jose","searchUrl":"http:\/\/twitter.com\/search?q=%22WAKE+UP+DIRECTIONERS%22","trendMapped":"WAKE+UP+DIRECTIONERS","trendVolume":626101},{"stateName":"CA","trendName":"Warriors","placeID":"2488042","placeName":"San Jose","searchUrl":"http:\/\/twitter.com\/search?q=Warriors","trendMapped":"warriors","trendVolume":264585},{"stateName":"CO","trendName":"#BTS1000DAYS","placeID":"2391279","placeName":"Denver","searchUrl":"http:\/\/twitter.com\/search?q=%23BTS1000DAYS","trendMapped":"bts1000+days","trendVolume":361804},{"stateName":"CO","trendName":"#DemDebate","placeID":"2391279","placeName":"Denver","searchUrl":"http:\/\/twitter.com\/search?q=%23DemDebate","trendMapped":"dem+debate","trendVolume":805724},{"stateName":"CO","trendName":"House","placeID":"2391279","placeName":"Denver","searchUrl":"http:\/\/twitter.com\/search?q=House","trendMapped":"house","trendVolume":483518},{"stateName":"CO","trendName":"Nancy Reagan","placeID":"2391279","placeName":"Denver","searchUrl":"http:\/\/twitter.com\/search?q=%22Nancy+Reagan%22","trendMapped":"Nancy+Reagan","trendVolume":491515},{"stateName":"CO","trendName":"POWERVOTE FOR JAMES","placeID":"2391279","placeName":"Denver","searchUrl":"http:\/\/twitter.com\/search?q=%22POWERVOTE+FOR+JAMES%22","trendMapped":"POWERVOTE+FOR+JAMES","trendVolume":932163},{"stateName":"CO","trendName":"Peyton Manning","placeID":"2383489","placeName":"Colorado Springs","searchUrl":"http:\/\/twitter.com\/search?q=%22Peyton+Manning%22","trendMapped":"Peyton+Manning","trendVolume":241912},{"stateName":"CO","trendName":"WAKE UP DIRECTIONERS","placeID":"2383489","placeName":"Colorado Springs","searchUrl":"http:\/\/twitter.com\/search?q=%22WAKE+UP+DIRECTIONERS%22","trendMapped":"WAKE+UP+DIRECTIONERS","trendVolume":368566},{"stateName":"CT","trendName":"#DemDebate","placeID":"2458410","placeName":"New Haven","searchUrl":"http:\/\/twitter.com\/search?q=%23DemDebate","trendMapped":"dem+debate","trendVolume":827159},{"stateName":"CT","trendName":"#UFC196","placeID":"2458410","placeName":"New Haven","searchUrl":"http:\/\/twitter.com\/search?q=%23UFC196","trendMapped":"ufc196","trendVolume":860918},{"stateName":"CT","trendName":"POWERVOTE FOR JAMES","placeID":"2458410","placeName":"New Haven","searchUrl":"http:\/\/twitter.com\/search?q=%22POWERVOTE+FOR+JAMES%22","trendMapped":"POWERVOTE+FOR+JAMES","trendVolume":932163},{"stateName":"DC","trendName":"#BTS1000DAYS","placeID":"2514815","placeName":"Washington","searchUrl":"http:\/\/twitter.com\/search?q=%23BTS1000DAYS","trendMapped":"bts1000+days","trendVolume":326645},{"stateName":"DC","trendName":"#DemDebate","placeID":"2514815","placeName":"Washington","searchUrl":"http:\/\/twitter.com\/search?q=%23DemDebate","trendMapped":"dem+debate","trendVolume":763482},{"stateName":"DC","trendName":"POWERVOTE FOR JAMES","placeID":"2514815","placeName":"Washington","searchUrl":"http:\/\/twitter.com\/search?q=%22POWERVOTE+FOR+JAMES%22","trendMapped":"POWERVOTE+FOR+JAMES","trendVolume":884357},{"stateName":"DC","trendName":"WAKE UP DIRECTIONERS","placeID":"2514815","placeName":"Washington","searchUrl":"http:\/\/twitter.com\/search?q=%22WAKE+UP+DIRECTIONERS%22","trendMapped":"WAKE+UP+DIRECTIONERS","trendVolume":626101},{"stateName":"FL","trendName":"#BTS1000DAYS","placeID":"2503863","placeName":"Tampa","searchUrl":"http:\/\/twitter.com\/search?q=%23BTS1000DAYS","trendMapped":"bts1000+days","trendVolume":358541},{"stateName":"FL","trendName":"#DemDebate","placeID":"2503863","placeName":"Tampa","searchUrl":"http:\/\/twitter.com\/search?q=%23DemDebate","trendMapped":"dem+debate","trendVolume":828976},{"stateName":"FL","trendName":"#UFC196","placeID":"2503713","placeName":"Tallahassee","searchUrl":"http:\/\/twitter.com\/search?q=%23UFC196","trendMapped":"ufc196","trendVolume":901041},{"stateName":"FL","trendName":"Lakers","placeID":"2503863","placeName":"Tampa","searchUrl":"http:\/\/twitter.com\/search?q=Lakers","trendMapped":"lakers","trendVolume":368699},{"stateName":"FL","trendName":"Nancy Reagan","placeID":"2428344","placeName":"Jacksonville","searchUrl":"http:\/\/twitter.com\/search?q=%22Nancy+Reagan%22","trendMapped":"Nancy+Reagan","trendVolume":447991},{"stateName":"FL","trendName":"POWERVOTE FOR JAMES","placeID":"2503863","placeName":"Tampa","searchUrl":"http:\/\/twitter.com\/search?q=%22POWERVOTE+FOR+JAMES%22","trendMapped":"POWERVOTE+FOR+JAMES","trendVolume":914914},{"stateName":"FL","trendName":"Peyton Manning","placeID":"2503863","placeName":"Tampa","searchUrl":"http:\/\/twitter.com\/search?q=%22Peyton+Manning%22","trendMapped":"Peyton+Manning","trendVolume":252647},{"stateName":"GA","trendName":"#BTS1000DAYS","placeID":"2357024","placeName":"Atlanta","searchUrl":"http:\/\/twitter.com\/search?q=%23BTS1000DAYS","trendMapped":"bts1000+days","trendVolume":342751},{"stateName":"GA","trendName":"#DemDebate","placeID":"2357024","placeName":"Atlanta","searchUrl":"http:\/\/twitter.com\/search?q=%23DemDebate","trendMapped":"dem+debate","trendVolume":760383},{"stateName":"GA","trendName":"Lakers","placeID":"2357024","placeName":"Atlanta","searchUrl":"http:\/\/twitter.com\/search?q=Lakers","trendMapped":"lakers","trendVolume":357550},{"stateName":"GA","trendName":"POWERVOTE FOR JAMES","placeID":"2357024","placeName":"Atlanta","searchUrl":"http:\/\/twitter.com\/search?q=%22POWERVOTE+FOR+JAMES%22","trendMapped":"POWERVOTE+FOR+JAMES","trendVolume":884357},{"stateName":"GA","trendName":"Peyton","placeID":"2357024","placeName":"Atlanta","searchUrl":"http:\/\/twitter.com\/search?q=Peyton","trendMapped":"peyton","trendVolume":349338},{"stateName":"GA","trendName":"WAKE UP DIRECTIONERS","placeID":"2357024","placeName":"Atlanta","searchUrl":"http:\/\/twitter.com\/search?q=%22WAKE+UP+DIRECTIONERS%22","trendMapped":"WAKE+UP+DIRECTIONERS","trendVolume":639111},{"stateName":"HI","trendName":"#DemDebate","placeID":"2423945","placeName":"Honolulu","searchUrl":"http:\/\/twitter.com\/search?q=%23DemDebate","trendMapped":"dem+debate","trendVolume":758705},{"stateName":"HI","trendName":"#UFC196","placeID":"2423945","placeName":"Honolulu","searchUrl":"http:\/\/twitter.com\/search?q=%23UFC196","trendMapped":"ufc196","trendVolume":773907},{"stateName":"HI","trendName":"#VoteEnriqueFPP","placeID":"2423945","placeName":"Honolulu","searchUrl":"http:\/\/twitter.com\/search?q=%23VoteEnriqueFPP","trendMapped":"vote+enrique+fpp","trendVolume":951278},{"stateName":"IL","trendName":"#BTS1000DAYS","placeID":"2379574","placeName":"Chicago","searchUrl":"http:\/\/twitter.com\/search?q=%23BTS1000DAYS","trendMapped":"bts1000+days","trendVolume":358541},{"stateName":"IL","trendName":"#DemDebate","placeID":"2379574","placeName":"Chicago","searchUrl":"http:\/\/twitter.com\/search?q=%23DemDebate","trendMapped":"dem+debate","trendVolume":787095},{"stateName":"IL","trendName":"HARMONIZERS VOTING","placeID":"2379574","placeName":"Chicago","searchUrl":"http:\/\/twitter.com\/search?q=%22HARMONIZERS+VOTING%22","trendMapped":"HARMONIZERS+VOTING","trendVolume":513328},{"stateName":"IL","trendName":"POWERVOTE FOR JAMES","placeID":"2379574","placeName":"Chicago","searchUrl":"http:\/\/twitter.com\/search?q=%22POWERVOTE+FOR+JAMES%22","trendMapped":"POWERVOTE+FOR+JAMES","trendVolume":884357},{"stateName":"IL","trendName":"Peyton Manning","placeID":"2379574","placeName":"Chicago","searchUrl":"http:\/\/twitter.com\/search?q=%22Peyton+Manning%22","trendMapped":"Peyton+Manning","trendVolume":234103},{"stateName":"IL","trendName":"WAKE UP DIRECTIONERS","placeID":"2379574","placeName":"Chicago","searchUrl":"http:\/\/twitter.com\/search?q=%22WAKE+UP+DIRECTIONERS%22","trendMapped":"WAKE+UP+DIRECTIONERS","trendVolume":626101},{"stateName":"IN","trendName":"#BTS1000DAYS","placeID":"2427032","placeName":"Indianapolis","searchUrl":"http:\/\/twitter.com\/search?q=%23BTS1000DAYS","trendMapped":"bts1000+days","trendVolume":319133},{"stateName":"IN","trendName":"#DemDebate","placeID":"2427032","placeName":"Indianapolis","searchUrl":"http:\/\/twitter.com\/search?q=%23DemDebate","trendMapped":"dem+debate","trendVolume":809809},{"stateName":"IN","trendName":"POWERVOTE FOR JAMES","placeID":"2427032","placeName":"Indianapolis","searchUrl":"http:\/\/twitter.com\/search?q=%22POWERVOTE+FOR+JAMES%22","trendMapped":"POWERVOTE+FOR+JAMES","trendVolume":845198},{"stateName":"KY","trendName":"#BTS1000DAYS","placeID":"2442327","placeName":"Louisville","searchUrl":"http:\/\/twitter.com\/search?q=%23BTS1000DAYS","trendMapped":"bts1000+days","trendVolume":356125},{"stateName":"KY","trendName":"#DemDebate","placeID":"2442327","placeName":"Louisville","searchUrl":"http:\/\/twitter.com\/search?q=%23DemDebate","trendMapped":"dem+debate","trendVolume":826870},{"stateName":"KY","trendName":"#UFC196","placeID":"2442327","placeName":"Louisville","searchUrl":"http:\/\/twitter.com\/search?q=%23UFC196","trendMapped":"ufc196","trendVolume":901041},{"stateName":"KY","trendName":"Bernie","placeID":"2442327","placeName":"Louisville","searchUrl":"http:\/\/twitter.com\/search?q=Bernie","trendMapped":"bernie","trendVolume":503811},{"stateName":"KY","trendName":"POWERVOTE FOR JAMES","placeID":"2442327","placeName":"Louisville","searchUrl":"http:\/\/twitter.com\/search?q=%22POWERVOTE+FOR+JAMES%22","trendMapped":"POWERVOTE+FOR+JAMES","trendVolume":545740},{"stateName":"LA","trendName":"#BTS1000DAYS","placeID":"2458833","placeName":"New Orleans","searchUrl":"http:\/\/twitter.com\/search?q=%23BTS1000DAYS","trendMapped":"bts1000+days","trendVolume":348312},{"stateName":"LA","trendName":"#DemDebate","placeID":"2458833","placeName":"New Orleans","searchUrl":"http:\/\/twitter.com\/search?q=%23DemDebate","trendMapped":"dem+debate","trendVolume":815042},{"stateName":"LA","trendName":"#UFC196","placeID":"2458833","placeName":"New Orleans","searchUrl":"http:\/\/twitter.com\/search?q=%23UFC196","trendMapped":"ufc196","trendVolume":901041},{"stateName":"LA","trendName":"'Work'","placeID":"2458833","placeName":"New Orleans","searchUrl":"http:\/\/twitter.com\/search?q=%27Work%27","trendMapped":"'+work'","trendVolume":1039437},{"stateName":"LA","trendName":"Bernie","placeID":"2359991","placeName":"Baton Rouge","searchUrl":"http:\/\/twitter.com\/search?q=Bernie","trendMapped":"bernie","trendVolume":564301},{"stateName":"LA","trendName":"Cruz","placeID":"2359991","placeName":"Baton Rouge","searchUrl":"http:\/\/twitter.com\/search?q=Cruz","trendMapped":"cruz","trendVolume":585312},{"stateName":"LA","trendName":"Hillary","placeID":"2359991","placeName":"Baton Rouge","searchUrl":"http:\/\/twitter.com\/search?q=Hillary","trendMapped":"hillary","trendVolume":483421},{"stateName":"LA","trendName":"Warriors","placeID":"2359991","placeName":"Baton Rouge","searchUrl":"http:\/\/twitter.com\/search?q=Warriors","trendMapped":"warriors","trendVolume":270148},{"stateName":"MA","trendName":"#3DaysTilDangerousWoman","placeID":"2367105","placeName":"Boston","searchUrl":"http:\/\/twitter.com\/search?q=%233DaysTilDangerousWoman","trendMapped":"3+days+til+dangerous+woman","trendVolume":117755},{"stateName":"MA","trendName":"#BTS1000DAYS","placeID":"2367105","placeName":"Boston","searchUrl":"http:\/\/twitter.com\/search?q=%23BTS1000DAYS","trendMapped":"bts1000+days","trendVolume":359763},{"stateName":"MA","trendName":"#DemDebate","placeID":"2367105","placeName":"Boston","searchUrl":"http:\/\/twitter.com\/search?q=%23DemDebate","trendMapped":"dem+debate","trendVolume":766606},{"stateName":"MA","trendName":"POWERVOTE FOR JAMES","placeID":"2367105","placeName":"Boston","searchUrl":"http:\/\/twitter.com\/search?q=%22POWERVOTE+FOR+JAMES%22","trendMapped":"POWERVOTE+FOR+JAMES","trendVolume":914914},{"stateName":"MA","trendName":"Peyton Manning","placeID":"2367105","placeName":"Boston","searchUrl":"http:\/\/twitter.com\/search?q=%22Peyton+Manning%22","trendMapped":"Peyton+Manning","trendVolume":243041},{"stateName":"MD","trendName":"#DemDebate","placeID":"2358820","placeName":"Baltimore","searchUrl":"http:\/\/twitter.com\/search?q=%23DemDebate","trendMapped":"dem+debate","trendVolume":826632},{"stateName":"MD","trendName":"#Vote5H","placeID":"2358820","placeName":"Baltimore","searchUrl":"http:\/\/twitter.com\/search?q=%23Vote5H","trendMapped":"vote5+h","trendVolume":2659432},{"stateName":"MI","trendName":"#BTS1000DAYS","placeID":"2391585","placeName":"Detroit","searchUrl":"http:\/\/twitter.com\/search?q=%23BTS1000DAYS","trendMapped":"bts1000+days","trendVolume":359763},{"stateName":"MI","trendName":"#DemDebate","placeID":"2391585","placeName":"Detroit","searchUrl":"http:\/\/twitter.com\/search?q=%23DemDebate","trendMapped":"dem+debate","trendVolume":817369},{"stateName":"MI","trendName":"POWERVOTE FOR JAMES","placeID":"2391585","placeName":"Detroit","searchUrl":"http:\/\/twitter.com\/search?q=%22POWERVOTE+FOR+JAMES%22","trendMapped":"POWERVOTE+FOR+JAMES","trendVolume":845198},{"stateName":"MN","trendName":"#BTS1000DAYS","placeID":"2452078","placeName":"Minneapolis","searchUrl":"http:\/\/twitter.com\/search?q=%23BTS1000DAYS","trendMapped":"bts1000+days","trendVolume":348312},{"stateName":"MN","trendName":"#DemDebate","placeID":"2452078","placeName":"Minneapolis","searchUrl":"http:\/\/twitter.com\/search?q=%23DemDebate","trendMapped":"dem+debate","trendVolume":828133},{"stateName":"MN","trendName":"#UFC196","placeID":"2452078","placeName":"Minneapolis","searchUrl":"http:\/\/twitter.com\/search?q=%23UFC196","trendMapped":"ufc196","trendVolume":882864},{"stateName":"MO","trendName":"#DemDebate","placeID":"2486982","placeName":"St. Louis","searchUrl":"http:\/\/twitter.com\/search?q=%23DemDebate","trendMapped":"dem+debate","trendVolume":829544},{"stateName":"MO","trendName":"#UFC196","placeID":"2430683","placeName":"Kansas City","searchUrl":"http:\/\/twitter.com\/search?q=%23UFC196","trendMapped":"ufc196","trendVolume":884498},{"stateName":"MO","trendName":"POWERVOTE FOR JAMES","placeID":"2486982","placeName":"St. Louis","searchUrl":"http:\/\/twitter.com\/search?q=%22POWERVOTE+FOR+JAMES%22","trendMapped":"POWERVOTE+FOR+JAMES","trendVolume":914914},{"stateName":"MO","trendName":"Warriors","placeID":"2486982","placeName":"St. Louis","searchUrl":"http:\/\/twitter.com\/search?q=Warriors","trendMapped":"warriors","trendVolume":270148},{"stateName":"MS","trendName":"#DemDebate","placeID":"2428184","placeName":"Jackson","searchUrl":"http:\/\/twitter.com\/search?q=%23DemDebate","trendMapped":"dem+debate","trendVolume":827301},{"stateName":"MS","trendName":"Nancy Reagan","placeID":"2428184","placeName":"Jackson","searchUrl":"http:\/\/twitter.com\/search?q=%22Nancy+Reagan%22","trendMapped":"Nancy+Reagan","trendVolume":447991},{"stateName":"MS","trendName":"Peyton Manning","placeID":"2428184","placeName":"Jackson","searchUrl":"http:\/\/twitter.com\/search?q=%22Peyton+Manning%22","trendMapped":"Peyton+Manning","trendVolume":234103},{"stateName":"NC","trendName":"#DemDebate","placeID":"2478307","placeName":"Raleigh","searchUrl":"http:\/\/twitter.com\/search?q=%23DemDebate","trendMapped":"dem+debate","trendVolume":829544},{"stateName":"NC","trendName":"#UFC196","placeID":"2414469","placeName":"Greensboro","searchUrl":"http:\/\/twitter.com\/search?q=%23UFC196","trendMapped":"ufc196","trendVolume":884498},{"stateName":"NC","trendName":"HARMONIZERS VOTING","placeID":"2378426","placeName":"Charlotte","searchUrl":"http:\/\/twitter.com\/search?q=%22HARMONIZERS+VOTING%22","trendMapped":"HARMONIZERS+VOTING","trendVolume":519107},{"stateName":"NC","trendName":"Nancy Reagan","placeID":"2378426","placeName":"Charlotte","searchUrl":"http:\/\/twitter.com\/search?q=%22Nancy+Reagan%22","trendMapped":"Nancy+Reagan","trendVolume":414497},{"stateName":"NC","trendName":"Peyton Manning","placeID":"2378426","placeName":"Charlotte","searchUrl":"http:\/\/twitter.com\/search?q=%22Peyton+Manning%22","trendMapped":"Peyton+Manning","trendVolume":237996},{"stateName":"NC","trendName":"Warriors","placeID":"2478307","placeName":"Raleigh","searchUrl":"http:\/\/twitter.com\/search?q=Warriors","trendMapped":"warriors","trendVolume":267497},{"stateName":"NE","trendName":"#DemDebate","placeID":"2465512","placeName":"Omaha","searchUrl":"http:\/\/twitter.com\/search?q=%23DemDebate","trendMapped":"dem+debate","trendVolume":826870},{"stateName":"NE","trendName":"#UFC196","placeID":"2465512","placeName":"Omaha","searchUrl":"http:\/\/twitter.com\/search?q=%23UFC196","trendMapped":"ufc196","trendVolume":825402},{"stateName":"NE","trendName":"POWERVOTE FOR JAMES","placeID":"2465512","placeName":"Omaha","searchUrl":"http:\/\/twitter.com\/search?q=%22POWERVOTE+FOR+JAMES%22","trendMapped":"POWERVOTE+FOR+JAMES","trendVolume":873597},{"stateName":"NM","trendName":"#3DaysTilDangerousWoman","placeID":"2352824","placeName":"Albuquerque","searchUrl":"http:\/\/twitter.com\/search?q=%233DaysTilDangerousWoman","trendMapped":"3+days+til+dangerous+woman","trendVolume":117755},{"stateName":"NM","trendName":"#BTS1000DAYS","placeID":"2352824","placeName":"Albuquerque","searchUrl":"http:\/\/twitter.com\/search?q=%23BTS1000DAYS","trendMapped":"bts1000+days","trendVolume":348312},{"stateName":"NM","trendName":"#DemDebate","placeID":"2352824","placeName":"Albuquerque","searchUrl":"http:\/\/twitter.com\/search?q=%23DemDebate","trendMapped":"dem+debate","trendVolume":722959},{"stateName":"NM","trendName":"HARMONIZERS VOTING","placeID":"2352824","placeName":"Albuquerque","searchUrl":"http:\/\/twitter.com\/search?q=%22HARMONIZERS+VOTING%22","trendMapped":"HARMONIZERS+VOTING","trendVolume":513328},{"stateName":"NM","trendName":"Nancy Reagan","placeID":"2352824","placeName":"Albuquerque","searchUrl":"http:\/\/twitter.com\/search?q=%22Nancy+Reagan%22","trendMapped":"Nancy+Reagan","trendVolume":489732},{"stateName":"NM","trendName":"POWERVOTE FOR JAMES","placeID":"2352824","placeName":"Albuquerque","searchUrl":"http:\/\/twitter.com\/search?q=%22POWERVOTE+FOR+JAMES%22","trendMapped":"POWERVOTE+FOR+JAMES","trendVolume":914914},{"stateName":"NM","trendName":"Peyton Manning","placeID":"2352824","placeName":"Albuquerque","searchUrl":"http:\/\/twitter.com\/search?q=%22Peyton+Manning%22","trendMapped":"Peyton+Manning","trendVolume":241912},{"stateName":"NM","trendName":"WAKE UP DIRECTIONERS","placeID":"2352824","placeName":"Albuquerque","searchUrl":"http:\/\/twitter.com\/search?q=%22WAKE+UP+DIRECTIONERS%22","trendMapped":"WAKE+UP+DIRECTIONERS","trendVolume":626101},{"stateName":"NM","trendName":"Warriors","placeID":"2352824","placeName":"Albuquerque","searchUrl":"http:\/\/twitter.com\/search?q=Warriors","trendMapped":"warriors","trendVolume":267497},{"stateName":"NV","trendName":"#DemDebate","placeID":"2436704","placeName":"Las Vegas","searchUrl":"http:\/\/twitter.com\/search?q=%23DemDebate","trendMapped":"dem+debate","trendVolume":825153},{"stateName":"NV","trendName":"#UFC196","placeID":"2436704","placeName":"Las Vegas","searchUrl":"http:\/\/twitter.com\/search?q=%23UFC196","trendMapped":"ufc196","trendVolume":881969},{"stateName":"NV","trendName":"Nancy Reagan","placeID":"2436704","placeName":"Las Vegas","searchUrl":"http:\/\/twitter.com\/search?q=%22Nancy+Reagan%22","trendMapped":"Nancy+Reagan","trendVolume":435894},{"stateName":"NV","trendName":"POWERVOTE FOR JAMES","placeID":"2436704","placeName":"Las Vegas","searchUrl":"http:\/\/twitter.com\/search?q=%22POWERVOTE+FOR+JAMES%22","trendMapped":"POWERVOTE+FOR+JAMES","trendVolume":845198},{"stateName":"NY","trendName":"#3DaysTilDangerousWoman","placeID":"2459115","placeName":"New York","searchUrl":"http:\/\/twitter.com\/search?q=%233DaysTilDangerousWoman","trendMapped":"3+days+til+dangerous+woman","trendVolume":114371},{"stateName":"NY","trendName":"#BTS1000DAYS","placeID":"2459115","placeName":"New York","searchUrl":"http:\/\/twitter.com\/search?q=%23BTS1000DAYS","trendMapped":"bts1000+days","trendVolume":341257},{"stateName":"NY","trendName":"#DemDebate","placeID":"2459115","placeName":"New York","searchUrl":"http:\/\/twitter.com\/search?q=%23DemDebate","trendMapped":"dem+debate","trendVolume":774883},{"stateName":"NY","trendName":"Nancy Reagan","placeID":"2459115","placeName":"New York","searchUrl":"http:\/\/twitter.com\/search?q=%22Nancy+Reagan%22","trendMapped":"Nancy+Reagan","trendVolume":488900},{"stateName":"NY","trendName":"POWERVOTE FOR JAMES","placeID":"2459115","placeName":"New York","searchUrl":"http:\/\/twitter.com\/search?q=%22POWERVOTE+FOR+JAMES%22","trendMapped":"POWERVOTE+FOR+JAMES","trendVolume":932163},{"stateName":"NY","trendName":"WAKE UP DIRECTIONERS","placeID":"2459115","placeName":"New York","searchUrl":"http:\/\/twitter.com\/search?q=%22WAKE+UP+DIRECTIONERS%22","trendMapped":"WAKE+UP+DIRECTIONERS","trendVolume":473730},{"stateName":"NY","trendName":"Warriors","placeID":"2459115","placeName":"New York","searchUrl":"http:\/\/twitter.com\/search?q=Warriors","trendMapped":"warriors","trendVolume":264585},{"stateName":"OH","trendName":"#DemDebate","placeID":"2383660","placeName":"Columbus","searchUrl":"http:\/\/twitter.com\/search?q=%23DemDebate","trendMapped":"dem+debate","trendVolume":827683},{"stateName":"OH","trendName":"#UFC196","placeID":"2380358","placeName":"Cincinnati","searchUrl":"http:\/\/twitter.com\/search?q=%23UFC196","trendMapped":"ufc196","trendVolume":882864},{"stateName":"OH","trendName":"Nancy Reagan","placeID":"2383660","placeName":"Columbus","searchUrl":"http:\/\/twitter.com\/search?q=%22Nancy+Reagan%22","trendMapped":"Nancy+Reagan","trendVolume":447991},{"stateName":"OH","trendName":"POWERVOTE FOR JAMES","placeID":"2383660","placeName":"Columbus","searchUrl":"http:\/\/twitter.com\/search?q=%22POWERVOTE+FOR+JAMES%22","trendMapped":"POWERVOTE+FOR+JAMES","trendVolume":914914},{"stateName":"OH","trendName":"Warriors","placeID":"2381475","placeName":"Cleveland","searchUrl":"http:\/\/twitter.com\/search?q=Warriors","trendMapped":"warriors","trendVolume":267497},{"stateName":"OK","trendName":"#DemDebate","placeID":"2464592","placeName":"Oklahoma City","searchUrl":"http:\/\/twitter.com\/search?q=%23DemDebate","trendMapped":"dem+debate","trendVolume":829544},{"stateName":"OK","trendName":"#UFC196","placeID":"2464592","placeName":"Oklahoma City","searchUrl":"http:\/\/twitter.com\/search?q=%23UFC196","trendMapped":"ufc196","trendVolume":884498},{"stateName":"OR","trendName":"#DemDebate","placeID":"2475687","placeName":"Portland","searchUrl":"http:\/\/twitter.com\/search?q=%23DemDebate","trendMapped":"dem+debate","trendVolume":826632},{"stateName":"OR","trendName":"Warriors","placeID":"2475687","placeName":"Portland","searchUrl":"http:\/\/twitter.com\/search?q=Warriors","trendMapped":"warriors","trendVolume":267497},{"stateName":"PA","trendName":"#3DaysTilDangerousWoman","placeID":"2471217","placeName":"Philadelphia","searchUrl":"http:\/\/twitter.com\/search?q=%233DaysTilDangerousWoman","trendMapped":"3+days+til+dangerous+woman","trendVolume":116057},{"stateName":"PA","trendName":"#BTS1000DAYS","placeID":"2471217","placeName":"Philadelphia","searchUrl":"http:\/\/twitter.com\/search?q=%23BTS1000DAYS","trendMapped":"bts1000+days","trendVolume":341257},{"stateName":"PA","trendName":"#DemDebate","placeID":"2473224","placeName":"Pittsburgh","searchUrl":"http:\/\/twitter.com\/search?q=%23DemDebate","trendMapped":"dem+debate","trendVolume":828976},{"stateName":"PA","trendName":"#UFC196","placeID":"2473224","placeName":"Pittsburgh","searchUrl":"http:\/\/twitter.com\/search?q=%23UFC196","trendMapped":"ufc196","trendVolume":700026},{"stateName":"PA","trendName":"Nancy Reagan","placeID":"2471217","placeName":"Philadelphia","searchUrl":"http:\/\/twitter.com\/search?q=%22Nancy+Reagan%22","trendMapped":"Nancy+Reagan","trendVolume":401027},{"stateName":"PA","trendName":"Peyton Manning","placeID":"2471217","placeName":"Philadelphia","searchUrl":"http:\/\/twitter.com\/search?q=%22Peyton+Manning%22","trendMapped":"Peyton+Manning","trendVolume":244383},{"stateName":"PA","trendName":"WAKE UP DIRECTIONERS","placeID":"2471217","placeName":"Philadelphia","searchUrl":"http:\/\/twitter.com\/search?q=%22WAKE+UP+DIRECTIONERS%22","trendMapped":"WAKE+UP+DIRECTIONERS","trendVolume":473730},{"stateName":"PA","trendName":"Warriors","placeID":"2473224","placeName":"Pittsburgh","searchUrl":"http:\/\/twitter.com\/search?q=Warriors","trendMapped":"warriors","trendVolume":267497},{"stateName":"RI","trendName":"#BTS1000DAYS","placeID":"2477058","placeName":"Providence","searchUrl":"http:\/\/twitter.com\/search?q=%23BTS1000DAYS","trendMapped":"bts1000+days","trendVolume":356125},{"stateName":"RI","trendName":"#DemDebate","placeID":"2477058","placeName":"Providence","searchUrl":"http:\/\/twitter.com\/search?q=%23DemDebate","trendMapped":"dem+debate","trendVolume":813560},{"stateName":"RI","trendName":"#UFC196","placeID":"2477058","placeName":"Providence","searchUrl":"http:\/\/twitter.com\/search?q=%23UFC196","trendMapped":"ufc196","trendVolume":881969},{"stateName":"RI","trendName":"Peyton Manning","placeID":"2477058","placeName":"Providence","searchUrl":"http:\/\/twitter.com\/search?q=%22Peyton+Manning%22","trendMapped":"Peyton+Manning","trendVolume":241912},{"stateName":"TN","trendName":"#DemDebate","placeID":"2457170","placeName":"Nashville","searchUrl":"http:\/\/twitter.com\/search?q=%23DemDebate","trendMapped":"dem+debate","trendVolume":827605},{"stateName":"TN","trendName":"#UFC196","placeID":"2457170","placeName":"Nashville","searchUrl":"http:\/\/twitter.com\/search?q=%23UFC196","trendMapped":"ufc196","trendVolume":884498},{"stateName":"TN","trendName":"Hillary","placeID":"2449323","placeName":"Memphis","searchUrl":"http:\/\/twitter.com\/search?q=Hillary","trendMapped":"hillary","trendVolume":489375},{"stateName":"TX","trendName":"#3DaysTilDangerousWoman","placeID":"2388929","placeName":"Dallas-Ft. Worth","searchUrl":"http:\/\/twitter.com\/search?q=%233DaysTilDangerousWoman","trendMapped":"3+days+til+dangerous+woman","trendVolume":116821},{"stateName":"TX","trendName":"#BTS1000DAYS","placeID":"2388929","placeName":"Dallas-Ft. Worth","searchUrl":"http:\/\/twitter.com\/search?q=%23BTS1000DAYS","trendMapped":"bts1000+days","trendVolume":344070},{"stateName":"TX","trendName":"#DemDebate","placeID":"2487796","placeName":"San Antonio","searchUrl":"http:\/\/twitter.com\/search?q=%23DemDebate","trendMapped":"dem+debate","trendVolume":828678},{"stateName":"TX","trendName":"#UFC196","placeID":"2487796","placeName":"San Antonio","searchUrl":"http:\/\/twitter.com\/search?q=%23UFC196","trendMapped":"ufc196","trendVolume":882864},{"stateName":"TX","trendName":"#demdebate","placeID":"2388929","placeName":"Dallas-Ft. Worth","searchUrl":"http:\/\/twitter.com\/search?q=%23demdebate","trendMapped":"demdebate","trendVolume":569952},{"stateName":"TX","trendName":"Bernie","placeID":"2397816","placeName":"El Paso","searchUrl":"http:\/\/twitter.com\/search?q=Bernie","trendMapped":"bernie","trendVolume":558183},{"stateName":"TX","trendName":"HARMONIZERS VOTING","placeID":"2397816","placeName":"El Paso","searchUrl":"http:\/\/twitter.com\/search?q=%22HARMONIZERS+VOTING%22","trendMapped":"HARMONIZERS+VOTING","trendVolume":513328},{"stateName":"TX","trendName":"Lakers","placeID":"2424766","placeName":"Houston","searchUrl":"http:\/\/twitter.com\/search?q=Lakers","trendMapped":"lakers","trendVolume":368699},{"stateName":"TX","trendName":"POWERVOTE FOR JAMES","placeID":"2487796","placeName":"San Antonio","searchUrl":"http:\/\/twitter.com\/search?q=%22POWERVOTE+FOR+JAMES%22","trendMapped":"POWERVOTE+FOR+JAMES","trendVolume":914914},{"stateName":"TX","trendName":"Warriors","placeID":"2397816","placeName":"El Paso","searchUrl":"http:\/\/twitter.com\/search?q=Warriors","trendMapped":"warriors","trendVolume":270759},{"stateName":"UT","trendName":"#DemDebate","placeID":"2487610","placeName":"Salt Lake City","searchUrl":"http:\/\/twitter.com\/search?q=%23DemDebate","trendMapped":"dem+debate","trendVolume":826926},{"stateName":"UT","trendName":"POWERVOTE FOR JAMES","placeID":"2487610","placeName":"Salt Lake City","searchUrl":"http:\/\/twitter.com\/search?q=%22POWERVOTE+FOR+JAMES%22","trendMapped":"POWERVOTE+FOR+JAMES","trendVolume":814027},{"stateName":"VA","trendName":"#3DaysTilDangerousWoman","placeID":"2512636","placeName":"Virginia Beach","searchUrl":"http:\/\/twitter.com\/search?q=%233DaysTilDangerousWoman","trendMapped":"3+days+til+dangerous+woman","trendVolume":116057},{"stateName":"VA","trendName":"#BTS1000DAYS","placeID":"2512636","placeName":"Virginia Beach","searchUrl":"http:\/\/twitter.com\/search?q=%23BTS1000DAYS","trendMapped":"bts1000+days","trendVolume":356125},{"stateName":"VA","trendName":"#DemDebate","placeID":"2512636","placeName":"Virginia Beach","searchUrl":"http:\/\/twitter.com\/search?q=%23DemDebate","trendMapped":"dem+debate","trendVolume":828133},{"stateName":"VA","trendName":"#UFC196","placeID":"2480894","placeName":"Richmond","searchUrl":"http:\/\/twitter.com\/search?q=%23UFC196","trendMapped":"ufc196","trendVolume":882864},{"stateName":"VA","trendName":"Nancy Reagan","placeID":"2512636","placeName":"Virginia Beach","searchUrl":"http:\/\/twitter.com\/search?q=%22Nancy+Reagan%22","trendMapped":"Nancy+Reagan","trendVolume":401027},{"stateName":"VA","trendName":"POWERVOTE FOR JAMES","placeID":"2512636","placeName":"Virginia Beach","searchUrl":"http:\/\/twitter.com\/search?q=%22POWERVOTE+FOR+JAMES%22","trendMapped":"POWERVOTE+FOR+JAMES","trendVolume":914914},{"stateName":"VA","trendName":"WAKE UP DIRECTIONERS","placeID":"2512636","placeName":"Virginia Beach","searchUrl":"http:\/\/twitter.com\/search?q=%22WAKE+UP+DIRECTIONERS%22","trendMapped":"WAKE+UP+DIRECTIONERS","trendVolume":626101},{"stateName":"WA","trendName":"#3DaysTilDangerousWoman","placeID":"2490383","placeName":"Seattle","searchUrl":"http:\/\/twitter.com\/search?q=%233DaysTilDangerousWoman","trendMapped":"3+days+til+dangerous+woman","trendVolume":116821},{"stateName":"WA","trendName":"#BTS1000DAYS","placeID":"2490383","placeName":"Seattle","searchUrl":"http:\/\/twitter.com\/search?q=%23BTS1000DAYS","trendMapped":"bts1000+days","trendVolume":359763},{"stateName":"WA","trendName":"#DemDebate","placeID":"2490383","placeName":"Seattle","searchUrl":"http:\/\/twitter.com\/search?q=%23DemDebate","trendMapped":"dem+debate","trendVolume":815042},{"stateName":"WA","trendName":"Peyton Manning","placeID":"2490383","placeName":"Seattle","searchUrl":"http:\/\/twitter.com\/search?q=%22Peyton+Manning%22","trendMapped":"Peyton+Manning","trendVolume":245649},{"stateName":"WI","trendName":"#DemDebate","placeID":"2451822","placeName":"Milwaukee","searchUrl":"http:\/\/twitter.com\/search?q=%23DemDebate","trendMapped":"dem+debate","trendVolume":828678},{"stateName":"WI","trendName":"#UFC196","placeID":"2451822","placeName":"Milwaukee","searchUrl":"http:\/\/twitter.com\/search?q=%23UFC196","trendMapped":"ufc196","trendVolume":884498},{"stateName":"WI","trendName":"POWERVOTE FOR JAMES","placeID":"2451822","placeName":"Milwaukee","searchUrl":"http:\/\/twitter.com\/search?q=%22POWERVOTE+FOR+JAMES%22","trendMapped":"POWERVOTE+FOR+JAMES","trendVolume":845198},{"stateName":"XX","trendName":"#3DaysTilDangerousWoman","placeID":"23424977","placeName":"United States","searchUrl":"http:\/\/twitter.com\/search?q=%233DaysTilDangerousWoman","trendMapped":"3+days+til+dangerous+woman","trendVolume":114371},{"stateName":"XX","trendName":"#BTS1000DAYS","placeID":"23424977","placeName":"United States","searchUrl":"http:\/\/twitter.com\/search?q=%23BTS1000DAYS","trendMapped":"bts1000+days","trendVolume":359763},{"stateName":"XX","trendName":"#DemDebate","placeID":"23424977","placeName":"United States","searchUrl":"http:\/\/twitter.com\/search?q=%23DemDebate","trendMapped":"dem+debate","trendVolume":759111},{"stateName":"XX","trendName":"Nancy Reagan","placeID":"23424977","placeName":"United States","searchUrl":"http:\/\/twitter.com\/search?q=%22Nancy+Reagan%22","trendMapped":"Nancy+Reagan","trendVolume":491515},{"stateName":"XX","trendName":"POWERVOTE FOR JAMES","placeID":"23424977","placeName":"United States","searchUrl":"http:\/\/twitter.com\/search?q=%22POWERVOTE+FOR+JAMES%22","trendMapped":"POWERVOTE+FOR+JAMES","trendVolume":798409},{"stateName":"XX","trendName":"Peyton Manning","placeID":"23424977","placeName":"United States","searchUrl":"http:\/\/twitter.com\/search?q=%22Peyton+Manning%22","trendMapped":"Peyton+Manning","trendVolume":245649},{"stateName":"XX","trendName":"WAKE UP DIRECTIONERS","placeID":"23424977","placeName":"United States","searchUrl":"http:\/\/twitter.com\/search?q=%22WAKE+UP+DIRECTIONERS%22","trendMapped":"WAKE+UP+DIRECTIONERS","trendVolume":626101},{"stateName":"XX","trendName":"Warriors","placeID":"23424977","placeName":"United States","searchUrl":"http:\/\/twitter.com\/search?q=Warriors","trendMapped":"warriors","trendVolume":261508}]