[{"stateName":"AL","trendName":"#DemDebate","placeID":"2364559","placeName":"Birmingham","searchUrl":"http:\/\/twitter.com\/search?q=%23DemDebate","trendMapped":"dem+debate","trendVolume":653258},{"stateName":"AL","trendName":"A-Day","placeID":"2364559","placeName":"Birmingham","searchUrl":"http:\/\/twitter.com\/search?q=A-Day","trendMapped":"a-+day","trendVolume":688402},{"stateName":"AL","trendName":"Coachella","placeID":"2364559","placeName":"Birmingham","searchUrl":"http:\/\/twitter.com\/search?q=Coachella","trendMapped":"coachella","trendVolume":1348578},{"stateName":"AL","trendName":"Japan","placeID":"2364559","placeName":"Birmingham","searchUrl":"http:\/\/twitter.com\/search?q=Japan","trendMapped":"japan","trendVolume":403455},{"stateName":"AL","trendName":"Kobe","placeID":"2364559","placeName":"Birmingham","searchUrl":"http:\/\/twitter.com\/search?q=Kobe","trendMapped":"kobe","trendVolume":343818},{"stateName":"AZ","trendName":"#BernieAtTheVatican","placeID":"2449808","placeName":"Mesa","searchUrl":"http:\/\/twitter.com\/search?q=%23BernieAtTheVatican","trendMapped":"bernie+at+the+vatican","trendVolume":74131},{"stateName":"AZ","trendName":"#CONGRATULATIONSHARRY","placeID":"2508428","placeName":"Tucson","searchUrl":"http:\/\/twitter.com\/search?q=%23CONGRATULATIONSHARRY","trendMapped":"congratulationsharry","trendVolume":143355},{"stateName":"AZ","trendName":"Aston Villa","placeID":"2449808","placeName":"Mesa","searchUrl":"http:\/\/twitter.com\/search?q=%22Aston+Villa%22","trendMapped":"Aston+Villa","trendVolume":112365},{"stateName":"AZ","trendName":"Coachella","placeID":"2471390","placeName":"Phoenix","searchUrl":"http:\/\/twitter.com\/search?q=Coachella","trendMapped":"coachella","trendVolume":1353220},{"stateName":"AZ","trendName":"Getafe","placeID":"2508428","placeName":"Tucson","searchUrl":"http:\/\/twitter.com\/search?q=Getafe","trendMapped":"getafe","trendVolume":137837},{"stateName":"AZ","trendName":"Japan","placeID":"2508428","placeName":"Tucson","searchUrl":"http:\/\/twitter.com\/search?q=Japan","trendMapped":"japan","trendVolume":409784},{"stateName":"AZ","trendName":"Kobe","placeID":"2471390","placeName":"Phoenix","searchUrl":"http:\/\/twitter.com\/search?q=Kobe","trendMapped":"kobe","trendVolume":469144},{"stateName":"AZ","trendName":"Lesbos","placeID":"2449808","placeName":"Mesa","searchUrl":"http:\/\/twitter.com\/search?q=Lesbos","trendMapped":"lesbos","trendVolume":65852},{"stateName":"AZ","trendName":"Prince","placeID":"2508428","placeName":"Tucson","searchUrl":"http:\/\/twitter.com\/search?q=Prince","trendMapped":"prince","trendVolume":124770},{"stateName":"CA","trendName":"#BernieAtTheVatican","placeID":"2442047","placeName":"Los Angeles","searchUrl":"http:\/\/twitter.com\/search?q=%23BernieAtTheVatican","trendMapped":"bernie+at+the+vatican","trendVolume":74131},{"stateName":"CA","trendName":"#CONGRATULATIONSHARRY","placeID":"2488042","placeName":"San Jose","searchUrl":"http:\/\/twitter.com\/search?q=%23CONGRATULATIONSHARRY","trendMapped":"congratulationsharry","trendVolume":144297},{"stateName":"CA","trendName":"#Coachella2016","placeID":"2487889","placeName":"San Diego","searchUrl":"http:\/\/twitter.com\/search?q=%23Coachella2016","trendMapped":"coachella2016","trendVolume":134353},{"stateName":"CA","trendName":"#DemDebate","placeID":"2486340","placeName":"Sacramento","searchUrl":"http:\/\/twitter.com\/search?q=%23DemDebate","trendMapped":"dem+debate","trendVolume":879641},{"stateName":"CA","trendName":"#NBAPlayoffs","placeID":"2488042","placeName":"San Jose","searchUrl":"http:\/\/twitter.com\/search?q=%23NBAPlayoffs","trendMapped":"nba+playoffs","trendVolume":125975},{"stateName":"CA","trendName":"Aston Villa","placeID":"2487956","placeName":"San Francisco","searchUrl":"http:\/\/twitter.com\/search?q=%22Aston+Villa%22","trendMapped":"Aston+Villa","trendVolume":113365},{"stateName":"CA","trendName":"Coachella","placeID":"2487956","placeName":"San Francisco","searchUrl":"http:\/\/twitter.com\/search?q=Coachella","trendMapped":"coachella","trendVolume":1384519},{"stateName":"CA","trendName":"Getafe","placeID":"2488042","placeName":"San Jose","searchUrl":"http:\/\/twitter.com\/search?q=Getafe","trendMapped":"getafe","trendVolume":138598},{"stateName":"CA","trendName":"Kobe","placeID":"2487889","placeName":"San Diego","searchUrl":"http:\/\/twitter.com\/search?q=Kobe","trendMapped":"kobe","trendVolume":373992},{"stateName":"CA","trendName":"Lesbos","placeID":"2488042","placeName":"San Jose","searchUrl":"http:\/\/twitter.com\/search?q=Lesbos","trendMapped":"lesbos","trendVolume":78221},{"stateName":"CA","trendName":"Prince","placeID":"2488042","placeName":"San Jose","searchUrl":"http:\/\/twitter.com\/search?q=Prince","trendMapped":"prince","trendVolume":130690},{"stateName":"CA","trendName":"aston villa","placeID":"2487956","placeName":"San Francisco","searchUrl":"http:\/\/twitter.com\/search?q=%22aston+villa%22","trendMapped":"aston+villa","trendVolume":110074},{"stateName":"CA","trendName":"getafe","placeID":"2488042","placeName":"San Jose","searchUrl":"http:\/\/twitter.com\/search?q=getafe","trendMapped":"getafe","trendVolume":127032},{"stateName":"CO","trendName":"#CONGRATULATIONSHARRY","placeID":"2391279","placeName":"Denver","searchUrl":"http:\/\/twitter.com\/search?q=%23CONGRATULATIONSHARRY","trendMapped":"congratulationsharry","trendVolume":137300},{"stateName":"CO","trendName":"Aston Villa","placeID":"2383489","placeName":"Colorado Springs","searchUrl":"http:\/\/twitter.com\/search?q=%22Aston+Villa%22","trendMapped":"Aston+Villa","trendVolume":107799},{"stateName":"CO","trendName":"Coachella","placeID":"2391279","placeName":"Denver","searchUrl":"http:\/\/twitter.com\/search?q=Coachella","trendMapped":"coachella","trendVolume":1419238},{"stateName":"CO","trendName":"House","placeID":"2391279","placeName":"Denver","searchUrl":"http:\/\/twitter.com\/search?q=House","trendMapped":"house","trendVolume":505298},{"stateName":"CO","trendName":"Japan","placeID":"2383489","placeName":"Colorado Springs","searchUrl":"http:\/\/twitter.com\/search?q=Japan","trendMapped":"japan","trendVolume":400396},{"stateName":"CO","trendName":"Lesbos","placeID":"2383489","placeName":"Colorado Springs","searchUrl":"http:\/\/twitter.com\/search?q=Lesbos","trendMapped":"lesbos","trendVolume":74890},{"stateName":"CO","trendName":"Prince","placeID":"2383489","placeName":"Colorado Springs","searchUrl":"http:\/\/twitter.com\/search?q=Prince","trendMapped":"prince","trendVolume":114672},{"stateName":"CO","trendName":"Warriors","placeID":"2391279","placeName":"Denver","searchUrl":"http:\/\/twitter.com\/search?q=Warriors","trendMapped":"warriors","trendVolume":181621},{"stateName":"CT","trendName":"#CONGRATULATIONSHARRY","placeID":"2458410","placeName":"New Haven","searchUrl":"http:\/\/twitter.com\/search?q=%23CONGRATULATIONSHARRY","trendMapped":"congratulationsharry","trendVolume":134891},{"stateName":"CT","trendName":"#DemDebate","placeID":"2458410","placeName":"New Haven","searchUrl":"http:\/\/twitter.com\/search?q=%23DemDebate","trendMapped":"dem+debate","trendVolume":879265},{"stateName":"CT","trendName":"Coachella","placeID":"2458410","placeName":"New Haven","searchUrl":"http:\/\/twitter.com\/search?q=Coachella","trendMapped":"coachella","trendVolume":1336113},{"stateName":"CT","trendName":"Japan","placeID":"2458410","placeName":"New Haven","searchUrl":"http:\/\/twitter.com\/search?q=Japan","trendMapped":"japan","trendVolume":409784},{"stateName":"DC","trendName":"#BernieAtTheVatican","placeID":"2514815","placeName":"Washington","searchUrl":"http:\/\/twitter.com\/search?q=%23BernieAtTheVatican","trendMapped":"bernie+at+the+vatican","trendVolume":74877},{"stateName":"DC","trendName":"#CONGRATULATIONSHARRY","placeID":"2514815","placeName":"Washington","searchUrl":"http:\/\/twitter.com\/search?q=%23CONGRATULATIONSHARRY","trendMapped":"congratulationsharry","trendVolume":144737},{"stateName":"DC","trendName":"#Coachella","placeID":"2514815","placeName":"Washington","searchUrl":"http:\/\/twitter.com\/search?q=%23Coachella","trendMapped":"coachella","trendVolume":110510},{"stateName":"DC","trendName":"#MUFC","placeID":"2514815","placeName":"Washington","searchUrl":"http:\/\/twitter.com\/search?q=%23MUFC","trendMapped":"mufc","trendVolume":79938},{"stateName":"DC","trendName":"Coachella","placeID":"2514815","placeName":"Washington","searchUrl":"http:\/\/twitter.com\/search?q=Coachella","trendMapped":"coachella","trendVolume":446677},{"stateName":"DC","trendName":"Getafe","placeID":"2514815","placeName":"Washington","searchUrl":"http:\/\/twitter.com\/search?q=Getafe","trendMapped":"getafe","trendVolume":136273},{"stateName":"DC","trendName":"Japan","placeID":"2514815","placeName":"Washington","searchUrl":"http:\/\/twitter.com\/search?q=Japan","trendMapped":"japan","trendVolume":409784},{"stateName":"DC","trendName":"Kobe","placeID":"2514815","placeName":"Washington","searchUrl":"http:\/\/twitter.com\/search?q=Kobe","trendMapped":"kobe","trendVolume":331754},{"stateName":"DC","trendName":"Pope","placeID":"2514815","placeName":"Washington","searchUrl":"http:\/\/twitter.com\/search?q=Pope","trendMapped":"pope","trendVolume":122138},{"stateName":"DC","trendName":"Prince","placeID":"2514815","placeName":"Washington","searchUrl":"http:\/\/twitter.com\/search?q=Prince","trendMapped":"prince","trendVolume":130221},{"stateName":"DC","trendName":"getafe","placeID":"2514815","placeName":"Washington","searchUrl":"http:\/\/twitter.com\/search?q=getafe","trendMapped":"getafe","trendVolume":127032},{"stateName":"FL","trendName":"#CONGRATULATIONSHARRY","placeID":"2503863","placeName":"Tampa","searchUrl":"http:\/\/twitter.com\/search?q=%23CONGRATULATIONSHARRY","trendMapped":"congratulationsharry","trendVolume":144297},{"stateName":"FL","trendName":"#DemDebate","placeID":"2503713","placeName":"Tallahassee","searchUrl":"http:\/\/twitter.com\/search?q=%23DemDebate","trendMapped":"dem+debate","trendVolume":900475},{"stateName":"FL","trendName":"#demdebate","placeID":"2466256","placeName":"Orlando","searchUrl":"http:\/\/twitter.com\/search?q=%23demdebate","trendMapped":"demdebate","trendVolume":655990},{"stateName":"FL","trendName":"Aston Villa","placeID":"2503713","placeName":"Tallahassee","searchUrl":"http:\/\/twitter.com\/search?q=%22Aston+Villa%22","trendMapped":"Aston+Villa","trendVolume":110919},{"stateName":"FL","trendName":"Beyonc\u00e9","placeID":"2503863","placeName":"Tampa","searchUrl":"http:\/\/twitter.com\/search?q=Beyonc%C3%A9","trendMapped":"beyonc\u00e9","trendVolume":152961},{"stateName":"FL","trendName":"Coachella","placeID":"2503863","placeName":"Tampa","searchUrl":"http:\/\/twitter.com\/search?q=Coachella","trendMapped":"coachella","trendVolume":1419153},{"stateName":"FL","trendName":"Getafe","placeID":"2503863","placeName":"Tampa","searchUrl":"http:\/\/twitter.com\/search?q=Getafe","trendMapped":"getafe","trendVolume":137837},{"stateName":"FL","trendName":"Kobe","placeID":"2466256","placeName":"Orlando","searchUrl":"http:\/\/twitter.com\/search?q=Kobe","trendMapped":"kobe","trendVolume":470072},{"stateName":"FL","trendName":"Prince","placeID":"2503863","placeName":"Tampa","searchUrl":"http:\/\/twitter.com\/search?q=Prince","trendMapped":"prince","trendVolume":129087},{"stateName":"FL","trendName":"Rockets","placeID":"2450022","placeName":"Miami","searchUrl":"http:\/\/twitter.com\/search?q=Rockets","trendMapped":"rockets","trendVolume":113992},{"stateName":"FL","trendName":"Trump","placeID":"2503713","placeName":"Tallahassee","searchUrl":"http:\/\/twitter.com\/search?q=Trump","trendMapped":"trump","trendVolume":542717},{"stateName":"FL","trendName":"Warriors","placeID":"2503713","placeName":"Tallahassee","searchUrl":"http:\/\/twitter.com\/search?q=Warriors","trendMapped":"warriors","trendVolume":139065},{"stateName":"FL","trendName":"White","placeID":"2503863","placeName":"Tampa","searchUrl":"http:\/\/twitter.com\/search?q=White","trendMapped":"white","trendVolume":591830},{"stateName":"FL","trendName":"getafe","placeID":"2503713","placeName":"Tallahassee","searchUrl":"http:\/\/twitter.com\/search?q=getafe","trendMapped":"getafe","trendVolume":127032},{"stateName":"GA","trendName":"#CONGRATULATIONSHARRY","placeID":"2357024","placeName":"Atlanta","searchUrl":"http:\/\/twitter.com\/search?q=%23CONGRATULATIONSHARRY","trendMapped":"congratulationsharry","trendVolume":114411},{"stateName":"GA","trendName":"#NBAPlayoffs","placeID":"2357024","placeName":"Atlanta","searchUrl":"http:\/\/twitter.com\/search?q=%23NBAPlayoffs","trendMapped":"nba+playoffs","trendVolume":126503},{"stateName":"GA","trendName":"Coachella","placeID":"2357024","placeName":"Atlanta","searchUrl":"http:\/\/twitter.com\/search?q=Coachella","trendMapped":"coachella","trendVolume":474027},{"stateName":"GA","trendName":"Getafe","placeID":"2357024","placeName":"Atlanta","searchUrl":"http:\/\/twitter.com\/search?q=Getafe","trendMapped":"getafe","trendVolume":131723},{"stateName":"GA","trendName":"Lil Uzi","placeID":"2357024","placeName":"Atlanta","searchUrl":"http:\/\/twitter.com\/search?q=%22Lil+Uzi%22","trendMapped":"Lil+Uzi","trendVolume":67062},{"stateName":"HI","trendName":"#DemDebate","placeID":"2423945","placeName":"Honolulu","searchUrl":"http:\/\/twitter.com\/search?q=%23DemDebate","trendMapped":"dem+debate","trendVolume":879265},{"stateName":"HI","trendName":"Coachella","placeID":"2423945","placeName":"Honolulu","searchUrl":"http:\/\/twitter.com\/search?q=Coachella","trendMapped":"coachella","trendVolume":1419238},{"stateName":"IL","trendName":"#BernieAtTheVatican","placeID":"2379574","placeName":"Chicago","searchUrl":"http:\/\/twitter.com\/search?q=%23BernieAtTheVatican","trendMapped":"bernie+at+the+vatican","trendVolume":75415},{"stateName":"IL","trendName":"#CONGRATULATIONSHARRY","placeID":"2379574","placeName":"Chicago","searchUrl":"http:\/\/twitter.com\/search?q=%23CONGRATULATIONSHARRY","trendMapped":"congratulationsharry","trendVolume":122620},{"stateName":"IL","trendName":"#Coachella","placeID":"2379574","placeName":"Chicago","searchUrl":"http:\/\/twitter.com\/search?q=%23Coachella","trendMapped":"coachella","trendVolume":119106},{"stateName":"IL","trendName":"Getafe","placeID":"2379574","placeName":"Chicago","searchUrl":"http:\/\/twitter.com\/search?q=Getafe","trendMapped":"getafe","trendVolume":139953},{"stateName":"IL","trendName":"Kobe","placeID":"2379574","placeName":"Chicago","searchUrl":"http:\/\/twitter.com\/search?q=Kobe","trendMapped":"kobe","trendVolume":343818},{"stateName":"IL","trendName":"Prince","placeID":"2379574","placeName":"Chicago","searchUrl":"http:\/\/twitter.com\/search?q=Prince","trendMapped":"prince","trendVolume":127947},{"stateName":"IN","trendName":"#CONGRATULATIONSHARRY","placeID":"2427032","placeName":"Indianapolis","searchUrl":"http:\/\/twitter.com\/search?q=%23CONGRATULATIONSHARRY","trendMapped":"congratulationsharry","trendVolume":140310},{"stateName":"IN","trendName":"#DemDebate","placeID":"2427032","placeName":"Indianapolis","searchUrl":"http:\/\/twitter.com\/search?q=%23DemDebate","trendMapped":"dem+debate","trendVolume":877001},{"stateName":"IN","trendName":"#NBAPlayoffs","placeID":"2427032","placeName":"Indianapolis","searchUrl":"http:\/\/twitter.com\/search?q=%23NBAPlayoffs","trendMapped":"nba+playoffs","trendVolume":123347},{"stateName":"IN","trendName":"Coachella","placeID":"2427032","placeName":"Indianapolis","searchUrl":"http:\/\/twitter.com\/search?q=Coachella","trendMapped":"coachella","trendVolume":1053247},{"stateName":"IN","trendName":"Getafe","placeID":"2427032","placeName":"Indianapolis","searchUrl":"http:\/\/twitter.com\/search?q=Getafe","trendMapped":"getafe","trendVolume":140116},{"stateName":"IN","trendName":"aston villa","placeID":"2427032","placeName":"Indianapolis","searchUrl":"http:\/\/twitter.com\/search?q=%22aston+villa%22","trendMapped":"aston+villa","trendVolume":110074},{"stateName":"KY","trendName":"#BernieAtTheVatican","placeID":"2442327","placeName":"Louisville","searchUrl":"http:\/\/twitter.com\/search?q=%23BernieAtTheVatican","trendMapped":"bernie+at+the+vatican","trendVolume":82903},{"stateName":"KY","trendName":"#CONGRATULATIONSHARRY","placeID":"2442327","placeName":"Louisville","searchUrl":"http:\/\/twitter.com\/search?q=%23CONGRATULATIONSHARRY","trendMapped":"congratulationsharry","trendVolume":142045},{"stateName":"KY","trendName":"#DemDebate","placeID":"2442327","placeName":"Louisville","searchUrl":"http:\/\/twitter.com\/search?q=%23DemDebate","trendMapped":"dem+debate","trendVolume":877757},{"stateName":"KY","trendName":"#NBAPlayoffs","placeID":"2442327","placeName":"Louisville","searchUrl":"http:\/\/twitter.com\/search?q=%23NBAPlayoffs","trendMapped":"nba+playoffs","trendVolume":123347},{"stateName":"KY","trendName":"Aston Villa","placeID":"2442327","placeName":"Louisville","searchUrl":"http:\/\/twitter.com\/search?q=%22Aston+Villa%22","trendMapped":"Aston+Villa","trendVolume":108653},{"stateName":"KY","trendName":"Getafe","placeID":"2442327","placeName":"Louisville","searchUrl":"http:\/\/twitter.com\/search?q=Getafe","trendMapped":"getafe","trendVolume":121357},{"stateName":"KY","trendName":"Japan","placeID":"2442327","placeName":"Louisville","searchUrl":"http:\/\/twitter.com\/search?q=Japan","trendMapped":"japan","trendVolume":407180},{"stateName":"KY","trendName":"Kobe","placeID":"2442327","placeName":"Louisville","searchUrl":"http:\/\/twitter.com\/search?q=Kobe","trendMapped":"kobe","trendVolume":419485},{"stateName":"KY","trendName":"aston villa","placeID":"2442327","placeName":"Louisville","searchUrl":"http:\/\/twitter.com\/search?q=%22aston+villa%22","trendMapped":"aston+villa","trendVolume":110074},{"stateName":"LA","trendName":"#DemDebate","placeID":"2359991","placeName":"Baton Rouge","searchUrl":"http:\/\/twitter.com\/search?q=%23DemDebate","trendMapped":"dem+debate","trendVolume":900133},{"stateName":"LA","trendName":"Coachella","placeID":"2458833","placeName":"New Orleans","searchUrl":"http:\/\/twitter.com\/search?q=Coachella","trendMapped":"coachella","trendVolume":1428849},{"stateName":"MA","trendName":"#CONGRATULATIONSHARRY","placeID":"2367105","placeName":"Boston","searchUrl":"http:\/\/twitter.com\/search?q=%23CONGRATULATIONSHARRY","trendMapped":"congratulationsharry","trendVolume":142045},{"stateName":"MA","trendName":"Coachella","placeID":"2367105","placeName":"Boston","searchUrl":"http:\/\/twitter.com\/search?q=Coachella","trendMapped":"coachella","trendVolume":984536},{"stateName":"MA","trendName":"Getafe","placeID":"2367105","placeName":"Boston","searchUrl":"http:\/\/twitter.com\/search?q=Getafe","trendMapped":"getafe","trendVolume":133149},{"stateName":"MA","trendName":"Prince","placeID":"2367105","placeName":"Boston","searchUrl":"http:\/\/twitter.com\/search?q=Prince","trendMapped":"prince","trendVolume":124869},{"stateName":"MA","trendName":"getafe","placeID":"2367105","placeName":"Boston","searchUrl":"http:\/\/twitter.com\/search?q=getafe","trendMapped":"getafe","trendVolume":127032},{"stateName":"MD","trendName":"Coachella","placeID":"2358820","placeName":"Baltimore","searchUrl":"http:\/\/twitter.com\/search?q=Coachella","trendMapped":"coachella","trendVolume":1386766},{"stateName":"MI","trendName":"#Coachella","placeID":"2391585","placeName":"Detroit","searchUrl":"http:\/\/twitter.com\/search?q=%23Coachella","trendMapped":"coachella","trendVolume":110510},{"stateName":"MI","trendName":"Coachella","placeID":"2391585","placeName":"Detroit","searchUrl":"http:\/\/twitter.com\/search?q=Coachella","trendMapped":"coachella","trendVolume":1315482},{"stateName":"MI","trendName":"Curry","placeID":"2391585","placeName":"Detroit","searchUrl":"http:\/\/twitter.com\/search?q=Curry","trendMapped":"curry","trendVolume":174235},{"stateName":"MI","trendName":"Japan","placeID":"2391585","placeName":"Detroit","searchUrl":"http:\/\/twitter.com\/search?q=Japan","trendMapped":"japan","trendVolume":400396},{"stateName":"MI","trendName":"Kobe","placeID":"2391585","placeName":"Detroit","searchUrl":"http:\/\/twitter.com\/search?q=Kobe","trendMapped":"kobe","trendVolume":342676},{"stateName":"MI","trendName":"Prince","placeID":"2391585","placeName":"Detroit","searchUrl":"http:\/\/twitter.com\/search?q=Prince","trendMapped":"prince","trendVolume":131115},{"stateName":"MN","trendName":"#Coachella","placeID":"2452078","placeName":"Minneapolis","searchUrl":"http:\/\/twitter.com\/search?q=%23Coachella","trendMapped":"coachella","trendVolume":121140},{"stateName":"MN","trendName":"#DemDebate","placeID":"2452078","placeName":"Minneapolis","searchUrl":"http:\/\/twitter.com\/search?q=%23DemDebate","trendMapped":"dem+debate","trendVolume":166426},{"stateName":"MN","trendName":"Coachella","placeID":"2452078","placeName":"Minneapolis","searchUrl":"http:\/\/twitter.com\/search?q=Coachella","trendMapped":"coachella","trendVolume":1412273},{"stateName":"MN","trendName":"Getafe","placeID":"2452078","placeName":"Minneapolis","searchUrl":"http:\/\/twitter.com\/search?q=Getafe","trendMapped":"getafe","trendVolume":133149},{"stateName":"MN","trendName":"Prince","placeID":"2452078","placeName":"Minneapolis","searchUrl":"http:\/\/twitter.com\/search?q=Prince","trendMapped":"prince","trendVolume":143941},{"stateName":"MO","trendName":"#CONGRATULATIONSHARRY","placeID":"2486982","placeName":"St. Louis","searchUrl":"http:\/\/twitter.com\/search?q=%23CONGRATULATIONSHARRY","trendMapped":"congratulationsharry","trendVolume":143355},{"stateName":"MO","trendName":"#ChineseGP","placeID":"2486982","placeName":"St. Louis","searchUrl":"http:\/\/twitter.com\/search?q=%23ChineseGP","trendMapped":"chinese+gp","trendVolume":72007},{"stateName":"MO","trendName":"#Coachella","placeID":"2430683","placeName":"Kansas City","searchUrl":"http:\/\/twitter.com\/search?q=%23Coachella","trendMapped":"coachella","trendVolume":136199},{"stateName":"MO","trendName":"#demdebate","placeID":"2430683","placeName":"Kansas City","searchUrl":"http:\/\/twitter.com\/search?q=%23demdebate","trendMapped":"demdebate","trendVolume":655990},{"stateName":"MO","trendName":"Aston Villa","placeID":"2486982","placeName":"St. Louis","searchUrl":"http:\/\/twitter.com\/search?q=%22Aston+Villa%22","trendMapped":"Aston+Villa","trendVolume":113365},{"stateName":"MO","trendName":"Coachella","placeID":"2430683","placeName":"Kansas City","searchUrl":"http:\/\/twitter.com\/search?q=Coachella","trendMapped":"coachella","trendVolume":1216389},{"stateName":"MO","trendName":"Getafe","placeID":"2486982","placeName":"St. Louis","searchUrl":"http:\/\/twitter.com\/search?q=Getafe","trendMapped":"getafe","trendVolume":123254},{"stateName":"MO","trendName":"Japan","placeID":"2486982","placeName":"St. Louis","searchUrl":"http:\/\/twitter.com\/search?q=Japan","trendMapped":"japan","trendVolume":405214},{"stateName":"MO","trendName":"Kobe","placeID":"2486982","placeName":"St. Louis","searchUrl":"http:\/\/twitter.com\/search?q=Kobe","trendMapped":"kobe","trendVolume":397159},{"stateName":"MO","trendName":"Lesbos","placeID":"2486982","placeName":"St. Louis","searchUrl":"http:\/\/twitter.com\/search?q=Lesbos","trendMapped":"lesbos","trendVolume":73428},{"stateName":"MO","trendName":"Pope","placeID":"2486982","placeName":"St. Louis","searchUrl":"http:\/\/twitter.com\/search?q=Pope","trendMapped":"pope","trendVolume":157303},{"stateName":"MO","trendName":"Prince","placeID":"2486982","placeName":"St. Louis","searchUrl":"http:\/\/twitter.com\/search?q=Prince","trendMapped":"prince","trendVolume":129694},{"stateName":"MS","trendName":"#CONGRATULATIONSHARRY","placeID":"2428184","placeName":"Jackson","searchUrl":"http:\/\/twitter.com\/search?q=%23CONGRATULATIONSHARRY","trendMapped":"congratulationsharry","trendVolume":129519},{"stateName":"MS","trendName":"#DemDebate","placeID":"2428184","placeName":"Jackson","searchUrl":"http:\/\/twitter.com\/search?q=%23DemDebate","trendMapped":"dem+debate","trendVolume":900133},{"stateName":"MS","trendName":"Beyonc\u00e9","placeID":"2428184","placeName":"Jackson","searchUrl":"http:\/\/twitter.com\/search?q=Beyonc%C3%A9","trendMapped":"beyonc\u00e9","trendVolume":164965},{"stateName":"MS","trendName":"Getafe","placeID":"2428184","placeName":"Jackson","searchUrl":"http:\/\/twitter.com\/search?q=Getafe","trendMapped":"getafe","trendVolume":123254},{"stateName":"MS","trendName":"Jordan","placeID":"2428184","placeName":"Jackson","searchUrl":"http:\/\/twitter.com\/search?q=Jordan","trendMapped":"jordan","trendVolume":132088},{"stateName":"MS","trendName":"Rihanna","placeID":"2428184","placeName":"Jackson","searchUrl":"http:\/\/twitter.com\/search?q=Rihanna","trendMapped":"rihanna","trendVolume":115380},{"stateName":"NC","trendName":"#CONGRATULATIONSHARRY","placeID":"2378426","placeName":"Charlotte","searchUrl":"http:\/\/twitter.com\/search?q=%23CONGRATULATIONSHARRY","trendMapped":"congratulationsharry","trendVolume":119850},{"stateName":"NC","trendName":"#DemDebate","placeID":"2478307","placeName":"Raleigh","searchUrl":"http:\/\/twitter.com\/search?q=%23DemDebate","trendMapped":"dem+debate","trendVolume":879641},{"stateName":"NC","trendName":"Coachella","placeID":"2478307","placeName":"Raleigh","searchUrl":"http:\/\/twitter.com\/search?q=Coachella","trendMapped":"coachella","trendVolume":1403201},{"stateName":"NC","trendName":"Kobe","placeID":"2414469","placeName":"Greensboro","searchUrl":"http:\/\/twitter.com\/search?q=Kobe","trendMapped":"kobe","trendVolume":403950},{"stateName":"NC","trendName":"Warriors","placeID":"2378426","placeName":"Charlotte","searchUrl":"http:\/\/twitter.com\/search?q=Warriors","trendMapped":"warriors","trendVolume":154561},{"stateName":"NE","trendName":"#DemDebate","placeID":"2465512","placeName":"Omaha","searchUrl":"http:\/\/twitter.com\/search?q=%23DemDebate","trendMapped":"dem+debate","trendVolume":900475},{"stateName":"NE","trendName":"America","placeID":"2465512","placeName":"Omaha","searchUrl":"http:\/\/twitter.com\/search?q=America","trendMapped":"america","trendVolume":270318},{"stateName":"NE","trendName":"Bernie","placeID":"2465512","placeName":"Omaha","searchUrl":"http:\/\/twitter.com\/search?q=Bernie","trendMapped":"bernie","trendVolume":332010},{"stateName":"NE","trendName":"Coachella","placeID":"2465512","placeName":"Omaha","searchUrl":"http:\/\/twitter.com\/search?q=Coachella","trendMapped":"coachella","trendVolume":1427724},{"stateName":"NE","trendName":"Japan","placeID":"2465512","placeName":"Omaha","searchUrl":"http:\/\/twitter.com\/search?q=Japan","trendMapped":"japan","trendVolume":405214},{"stateName":"NE","trendName":"Kobe","placeID":"2465512","placeName":"Omaha","searchUrl":"http:\/\/twitter.com\/search?q=Kobe","trendMapped":"kobe","trendVolume":424697},{"stateName":"NM","trendName":"#BernieAtTheVatican","placeID":"2352824","placeName":"Albuquerque","searchUrl":"http:\/\/twitter.com\/search?q=%23BernieAtTheVatican","trendMapped":"bernie+at+the+vatican","trendVolume":74131},{"stateName":"NM","trendName":"#CONGRATULATIONSHARRY","placeID":"2352824","placeName":"Albuquerque","searchUrl":"http:\/\/twitter.com\/search?q=%23CONGRATULATIONSHARRY","trendMapped":"congratulationsharry","trendVolume":144297},{"stateName":"NM","trendName":"Aston Villa","placeID":"2352824","placeName":"Albuquerque","searchUrl":"http:\/\/twitter.com\/search?q=%22Aston+Villa%22","trendMapped":"Aston+Villa","trendVolume":111285},{"stateName":"NM","trendName":"Japan","placeID":"2352824","placeName":"Albuquerque","searchUrl":"http:\/\/twitter.com\/search?q=Japan","trendMapped":"japan","trendVolume":400396},{"stateName":"NM","trendName":"Prince","placeID":"2352824","placeName":"Albuquerque","searchUrl":"http:\/\/twitter.com\/search?q=Prince","trendMapped":"prince","trendVolume":129694},{"stateName":"NV","trendName":"#CONGRATULATIONSHARRY","placeID":"2436704","placeName":"Las Vegas","searchUrl":"http:\/\/twitter.com\/search?q=%23CONGRATULATIONSHARRY","trendMapped":"congratulationsharry","trendVolume":143355},{"stateName":"NV","trendName":"#DemDebate","placeID":"2436704","placeName":"Las Vegas","searchUrl":"http:\/\/twitter.com\/search?q=%23DemDebate","trendMapped":"dem+debate","trendVolume":877757},{"stateName":"NV","trendName":"Coachella","placeID":"2436704","placeName":"Las Vegas","searchUrl":"http:\/\/twitter.com\/search?q=Coachella","trendMapped":"coachella","trendVolume":1415197},{"stateName":"NY","trendName":"#BernieAtTheVatican","placeID":"2459115","placeName":"New York","searchUrl":"http:\/\/twitter.com\/search?q=%23BernieAtTheVatican","trendMapped":"bernie+at+the+vatican","trendVolume":73366},{"stateName":"NY","trendName":"#CONGRATULATIONSHARRY","placeID":"2459115","placeName":"New York","searchUrl":"http:\/\/twitter.com\/search?q=%23CONGRATULATIONSHARRY","trendMapped":"congratulationsharry","trendVolume":138555},{"stateName":"NY","trendName":"#MUFC","placeID":"2459115","placeName":"New York","searchUrl":"http:\/\/twitter.com\/search?q=%23MUFC","trendMapped":"mufc","trendVolume":85335},{"stateName":"NY","trendName":"#NBAPlayoffs","placeID":"2459115","placeName":"New York","searchUrl":"http:\/\/twitter.com\/search?q=%23NBAPlayoffs","trendMapped":"nba+playoffs","trendVolume":125010},{"stateName":"NY","trendName":"Aston Villa","placeID":"2459115","placeName":"New York","searchUrl":"http:\/\/twitter.com\/search?q=%22Aston+Villa%22","trendMapped":"Aston+Villa","trendVolume":110919},{"stateName":"NY","trendName":"Coachella","placeID":"2459115","placeName":"New York","searchUrl":"http:\/\/twitter.com\/search?q=Coachella","trendMapped":"coachella","trendVolume":970491},{"stateName":"NY","trendName":"Getafe","placeID":"2459115","placeName":"New York","searchUrl":"http:\/\/twitter.com\/search?q=Getafe","trendMapped":"getafe","trendVolume":133149},{"stateName":"NY","trendName":"Kobe","placeID":"2459115","placeName":"New York","searchUrl":"http:\/\/twitter.com\/search?q=Kobe","trendMapped":"kobe","trendVolume":332199},{"stateName":"NY","trendName":"Lesbos","placeID":"2459115","placeName":"New York","searchUrl":"http:\/\/twitter.com\/search?q=Lesbos","trendMapped":"lesbos","trendVolume":69666},{"stateName":"NY","trendName":"Prince","placeID":"2459115","placeName":"New York","searchUrl":"http:\/\/twitter.com\/search?q=Prince","trendMapped":"prince","trendVolume":127027},{"stateName":"OH","trendName":"#CONGRATULATIONSHARRY","placeID":"2383660","placeName":"Columbus","searchUrl":"http:\/\/twitter.com\/search?q=%23CONGRATULATIONSHARRY","trendMapped":"congratulationsharry","trendVolume":144297},{"stateName":"OH","trendName":"#DemDebate","placeID":"2383660","placeName":"Columbus","searchUrl":"http:\/\/twitter.com\/search?q=%23DemDebate","trendMapped":"dem+debate","trendVolume":878667},{"stateName":"OH","trendName":"Aston Villa","placeID":"2383660","placeName":"Columbus","searchUrl":"http:\/\/twitter.com\/search?q=%22Aston+Villa%22","trendMapped":"Aston+Villa","trendVolume":112365},{"stateName":"OH","trendName":"Beyonc\u00e9","placeID":"2381475","placeName":"Cleveland","searchUrl":"http:\/\/twitter.com\/search?q=Beyonc%C3%A9","trendMapped":"beyonc\u00e9","trendVolume":154833},{"stateName":"OH","trendName":"Coachella","placeID":"2383660","placeName":"Columbus","searchUrl":"http:\/\/twitter.com\/search?q=Coachella","trendMapped":"coachella","trendVolume":1320013},{"stateName":"OH","trendName":"Rockets","placeID":"2381475","placeName":"Cleveland","searchUrl":"http:\/\/twitter.com\/search?q=Rockets","trendMapped":"rockets","trendVolume":115467},{"stateName":"OK","trendName":"#CONGRATULATIONSHARRY","placeID":"2464592","placeName":"Oklahoma City","searchUrl":"http:\/\/twitter.com\/search?q=%23CONGRATULATIONSHARRY","trendMapped":"congratulationsharry","trendVolume":144297},{"stateName":"OK","trendName":"Coachella","placeID":"2464592","placeName":"Oklahoma City","searchUrl":"http:\/\/twitter.com\/search?q=Coachella","trendMapped":"coachella","trendVolume":1380800},{"stateName":"OR","trendName":"Coachella","placeID":"2475687","placeName":"Portland","searchUrl":"http:\/\/twitter.com\/search?q=Coachella","trendMapped":"coachella","trendVolume":1403345},{"stateName":"PA","trendName":"#BernieAtTheVatican","placeID":"2471217","placeName":"Philadelphia","searchUrl":"http:\/\/twitter.com\/search?q=%23BernieAtTheVatican","trendMapped":"bernie+at+the+vatican","trendVolume":74131},{"stateName":"PA","trendName":"#CONGRATULATIONSHARRY","placeID":"2473224","placeName":"Pittsburgh","searchUrl":"http:\/\/twitter.com\/search?q=%23CONGRATULATIONSHARRY","trendMapped":"congratulationsharry","trendVolume":141658},{"stateName":"PA","trendName":"#DemDebate","placeID":"2473224","placeName":"Pittsburgh","searchUrl":"http:\/\/twitter.com\/search?q=%23DemDebate","trendMapped":"dem+debate","trendVolume":877001},{"stateName":"PA","trendName":"#N1CanalFiesta16","placeID":"2471217","placeName":"Philadelphia","searchUrl":"http:\/\/twitter.com\/search?q=%23N1CanalFiesta16","trendMapped":"n1+canal+fiesta16","trendVolume":62402},{"stateName":"PA","trendName":"#NBAPlayoffs","placeID":"2473224","placeName":"Pittsburgh","searchUrl":"http:\/\/twitter.com\/search?q=%23NBAPlayoffs","trendMapped":"nba+playoffs","trendVolume":126503},{"stateName":"PA","trendName":"Aston Villa","placeID":"2471217","placeName":"Philadelphia","searchUrl":"http:\/\/twitter.com\/search?q=%22Aston+Villa%22","trendMapped":"Aston+Villa","trendVolume":113365},{"stateName":"PA","trendName":"Coachella","placeID":"2473224","placeName":"Pittsburgh","searchUrl":"http:\/\/twitter.com\/search?q=Coachella","trendMapped":"coachella","trendVolume":1368715},{"stateName":"PA","trendName":"Getafe","placeID":"2471217","placeName":"Philadelphia","searchUrl":"http:\/\/twitter.com\/search?q=Getafe","trendMapped":"getafe","trendVolume":138598},{"stateName":"PA","trendName":"Lesbos","placeID":"2471217","placeName":"Philadelphia","searchUrl":"http:\/\/twitter.com\/search?q=Lesbos","trendMapped":"lesbos","trendVolume":76017},{"stateName":"PA","trendName":"Prince","placeID":"2471217","placeName":"Philadelphia","searchUrl":"http:\/\/twitter.com\/search?q=Prince","trendMapped":"prince","trendVolume":124869},{"stateName":"RI","trendName":"#CONGRATULATIONSHARRY","placeID":"2477058","placeName":"Providence","searchUrl":"http:\/\/twitter.com\/search?q=%23CONGRATULATIONSHARRY","trendMapped":"congratulationsharry","trendVolume":142916},{"stateName":"RI","trendName":"#DemDebate","placeID":"2477058","placeName":"Providence","searchUrl":"http:\/\/twitter.com\/search?q=%23DemDebate","trendMapped":"dem+debate","trendVolume":878667},{"stateName":"RI","trendName":"#NBAPlayoffs","placeID":"2477058","placeName":"Providence","searchUrl":"http:\/\/twitter.com\/search?q=%23NBAPlayoffs","trendMapped":"nba+playoffs","trendVolume":125010},{"stateName":"RI","trendName":"Coachella","placeID":"2477058","placeName":"Providence","searchUrl":"http:\/\/twitter.com\/search?q=Coachella","trendMapped":"coachella","trendVolume":1277916},{"stateName":"TN","trendName":"#DemDebate","placeID":"2457170","placeName":"Nashville","searchUrl":"http:\/\/twitter.com\/search?q=%23DemDebate","trendMapped":"dem+debate","trendVolume":878140},{"stateName":"TN","trendName":"Aston Villa","placeID":"2449323","placeName":"Memphis","searchUrl":"http:\/\/twitter.com\/search?q=%22Aston+Villa%22","trendMapped":"Aston+Villa","trendVolume":108653},{"stateName":"TN","trendName":"Coachella","placeID":"2457170","placeName":"Nashville","searchUrl":"http:\/\/twitter.com\/search?q=Coachella","trendMapped":"coachella","trendVolume":1419153},{"stateName":"TN","trendName":"Getafe","placeID":"2449323","placeName":"Memphis","searchUrl":"http:\/\/twitter.com\/search?q=Getafe","trendMapped":"getafe","trendVolume":81055},{"stateName":"TN","trendName":"Japan","placeID":"2449323","placeName":"Memphis","searchUrl":"http:\/\/twitter.com\/search?q=Japan","trendMapped":"japan","trendVolume":400396},{"stateName":"TN","trendName":"Kobe","placeID":"2457170","placeName":"Nashville","searchUrl":"http:\/\/twitter.com\/search?q=Kobe","trendMapped":"kobe","trendVolume":343818},{"stateName":"TN","trendName":"Lesbos","placeID":"2457170","placeName":"Nashville","searchUrl":"http:\/\/twitter.com\/search?q=Lesbos","trendMapped":"lesbos","trendVolume":74890},{"stateName":"TN","trendName":"aston villa","placeID":"2449323","placeName":"Memphis","searchUrl":"http:\/\/twitter.com\/search?q=%22aston+villa%22","trendMapped":"aston+villa","trendVolume":110074},{"stateName":"TN","trendName":"coachella","placeID":"2457170","placeName":"Nashville","searchUrl":"http:\/\/twitter.com\/search?q=coachella","trendMapped":"coachella","trendVolume":1410180},{"stateName":"TX","trendName":"#CONGRATULATIONSHARRY","placeID":"2424766","placeName":"Houston","searchUrl":"http:\/\/twitter.com\/search?q=%23CONGRATULATIONSHARRY","trendMapped":"congratulationsharry","trendVolume":141658},{"stateName":"TX","trendName":"#Coachella","placeID":"2487796","placeName":"San Antonio","searchUrl":"http:\/\/twitter.com\/search?q=%23Coachella","trendMapped":"coachella","trendVolume":121788},{"stateName":"TX","trendName":"#DemDebate","placeID":"2487796","placeName":"San Antonio","searchUrl":"http:\/\/twitter.com\/search?q=%23DemDebate","trendMapped":"dem+debate","trendVolume":879265},{"stateName":"TX","trendName":"Aston Villa","placeID":"2357536","placeName":"Austin","searchUrl":"http:\/\/twitter.com\/search?q=%22Aston+Villa%22","trendMapped":"Aston+Villa","trendVolume":113365},{"stateName":"TX","trendName":"Bernie","placeID":"2397816","placeName":"El Paso","searchUrl":"http:\/\/twitter.com\/search?q=Bernie","trendMapped":"bernie","trendVolume":323183},{"stateName":"TX","trendName":"Coachella","placeID":"2487796","placeName":"San Antonio","searchUrl":"http:\/\/twitter.com\/search?q=Coachella","trendMapped":"coachella","trendVolume":1419238},{"stateName":"TX","trendName":"Getafe","placeID":"2487796","placeName":"San Antonio","searchUrl":"http:\/\/twitter.com\/search?q=Getafe","trendMapped":"getafe","trendVolume":136273},{"stateName":"TX","trendName":"Japan","placeID":"2487796","placeName":"San Antonio","searchUrl":"http:\/\/twitter.com\/search?q=Japan","trendMapped":"japan","trendVolume":403455},{"stateName":"TX","trendName":"Kobe","placeID":"2487796","placeName":"San Antonio","searchUrl":"http:\/\/twitter.com\/search?q=Kobe","trendMapped":"kobe","trendVolume":373992},{"stateName":"TX","trendName":"Rockets","placeID":"2388929","placeName":"Dallas-Ft. Worth","searchUrl":"http:\/\/twitter.com\/search?q=Rockets","trendMapped":"rockets","trendVolume":115467},{"stateName":"UT","trendName":"#DemDebate","placeID":"2487610","placeName":"Salt Lake City","searchUrl":"http:\/\/twitter.com\/search?q=%23DemDebate","trendMapped":"dem+debate","trendVolume":878667},{"stateName":"UT","trendName":"Coachella","placeID":"2487610","placeName":"Salt Lake City","searchUrl":"http:\/\/twitter.com\/search?q=Coachella","trendMapped":"coachella","trendVolume":1428849},{"stateName":"UT","trendName":"coachella","placeID":"2487610","placeName":"Salt Lake City","searchUrl":"http:\/\/twitter.com\/search?q=coachella","trendMapped":"coachella","trendVolume":1410180},{"stateName":"VA","trendName":"#CONGRATULATIONSHARRY","placeID":"2512636","placeName":"Virginia Beach","searchUrl":"http:\/\/twitter.com\/search?q=%23CONGRATULATIONSHARRY","trendMapped":"congratulationsharry","trendVolume":142916},{"stateName":"VA","trendName":"#ChineseGP","placeID":"2512636","placeName":"Virginia Beach","searchUrl":"http:\/\/twitter.com\/search?q=%23ChineseGP","trendMapped":"chinese+gp","trendVolume":72007},{"stateName":"VA","trendName":"#DemDebate","placeID":"2480894","placeName":"Richmond","searchUrl":"http:\/\/twitter.com\/search?q=%23DemDebate","trendMapped":"dem+debate","trendVolume":654376},{"stateName":"VA","trendName":"#FeelTheBern","placeID":"2480894","placeName":"Richmond","searchUrl":"http:\/\/twitter.com\/search?q=%23FeelTheBern","trendMapped":"feel+the+bern","trendVolume":76949},{"stateName":"VA","trendName":"Aston Villa","placeID":"2512636","placeName":"Virginia Beach","searchUrl":"http:\/\/twitter.com\/search?q=%22Aston+Villa%22","trendMapped":"Aston+Villa","trendVolume":111285},{"stateName":"VA","trendName":"Bernie Sanders","placeID":"2480894","placeName":"Richmond","searchUrl":"http:\/\/twitter.com\/search?q=%22Bernie+Sanders%22","trendMapped":"Bernie+Sanders","trendVolume":160858},{"stateName":"VA","trendName":"Blues","placeID":"2480894","placeName":"Richmond","searchUrl":"http:\/\/twitter.com\/search?q=Blues","trendMapped":"blues","trendVolume":62343},{"stateName":"VA","trendName":"Coachella","placeID":"2460389","placeName":"Norfolk","searchUrl":"http:\/\/twitter.com\/search?q=Coachella","trendMapped":"coachella","trendVolume":1412273},{"stateName":"VA","trendName":"Kobe","placeID":"2480894","placeName":"Richmond","searchUrl":"http:\/\/twitter.com\/search?q=Kobe","trendMapped":"kobe","trendVolume":343818},{"stateName":"VA","trendName":"Lesbos","placeID":"2512636","placeName":"Virginia Beach","searchUrl":"http:\/\/twitter.com\/search?q=Lesbos","trendMapped":"lesbos","trendVolume":69666},{"stateName":"VA","trendName":"Prince","placeID":"2512636","placeName":"Virginia Beach","searchUrl":"http:\/\/twitter.com\/search?q=Prince","trendMapped":"prince","trendVolume":127027},{"stateName":"WA","trendName":"#Coachella2016","placeID":"2490383","placeName":"Seattle","searchUrl":"http:\/\/twitter.com\/search?q=%23Coachella2016","trendMapped":"coachella2016","trendVolume":107740},{"stateName":"WA","trendName":"#FridayFeeling","placeID":"2490383","placeName":"Seattle","searchUrl":"http:\/\/twitter.com\/search?q=%23FridayFeeling","trendMapped":"friday+feeling","trendVolume":106911},{"stateName":"WA","trendName":"Coachella","placeID":"2490383","placeName":"Seattle","searchUrl":"http:\/\/twitter.com\/search?q=Coachella","trendMapped":"coachella","trendVolume":1261595},{"stateName":"WA","trendName":"Prince","placeID":"2490383","placeName":"Seattle","searchUrl":"http:\/\/twitter.com\/search?q=Prince","trendMapped":"prince","trendVolume":129694},{"stateName":"WI","trendName":"#DemDebate","placeID":"2451822","placeName":"Milwaukee","searchUrl":"http:\/\/twitter.com\/search?q=%23DemDebate","trendMapped":"dem+debate","trendVolume":193889},{"stateName":"WI","trendName":"Coachella","placeID":"2451822","placeName":"Milwaukee","searchUrl":"http:\/\/twitter.com\/search?q=Coachella","trendMapped":"coachella","trendVolume":1419153},{"stateName":"XX","trendName":"#BernieAtTheVatican","placeID":"23424977","placeName":"United States","searchUrl":"http:\/\/twitter.com\/search?q=%23BernieAtTheVatican","trendMapped":"bernie+at+the+vatican","trendVolume":75415},{"stateName":"XX","trendName":"#N1CanalFiesta16","placeID":"23424977","placeName":"United States","searchUrl":"http:\/\/twitter.com\/search?q=%23N1CanalFiesta16","trendMapped":"n1+canal+fiesta16","trendVolume":62454},{"stateName":"XX","trendName":"Lesbos","placeID":"23424977","placeName":"United States","searchUrl":"http:\/\/twitter.com\/search?q=Lesbos","trendMapped":"lesbos","trendVolume":68572},{"stateName":"XX","trendName":"Prince","placeID":"23424977","placeName":"United States","searchUrl":"http:\/\/twitter.com\/search?q=Prince","trendMapped":"prince","trendVolume":128557},{"stateName":"XX","trendName":"aston villa","placeID":"23424977","placeName":"United States","searchUrl":"http:\/\/twitter.com\/search?q=%22aston+villa%22","trendMapped":"aston+villa","trendVolume":110074}]