[{"stateName":"AL","trendName":"#CruzSexScandal","placeID":"2364559","placeName":"Birmingham","searchUrl":"http:\/\/twitter.com\/search?q=%23CruzSexScandal","trendMapped":"cruz+sex+scandal","trendVolume":655190},{"stateName":"AL","trendName":"5SOS FAM SPAM","placeID":"2364559","placeName":"Birmingham","searchUrl":"http:\/\/twitter.com\/search?q=%225SOS+FAM+SPAM%22","trendMapped":"5SOS+FAM+SPAM","trendVolume":563251},{"stateName":"AL","trendName":"Easter","placeID":"2364559","placeName":"Birmingham","searchUrl":"http:\/\/twitter.com\/search?q=Easter","trendMapped":"easter","trendVolume":964092},{"stateName":"AL","trendName":"GO HARMONIZERS","placeID":"2364559","placeName":"Birmingham","searchUrl":"http:\/\/twitter.com\/search?q=%22GO+HARMONIZERS%22","trendMapped":"GO+HARMONIZERS","trendVolume":1055632},{"stateName":"AZ","trendName":"#CamilaIsOurPrincess","placeID":"2508428","placeName":"Tucson","searchUrl":"http:\/\/twitter.com\/search?q=%23CamilaIsOurPrincess","trendMapped":"camila+is+our+princess","trendVolume":159220},{"stateName":"AZ","trendName":"#CruzSexScandal","placeID":"2471390","placeName":"Phoenix","searchUrl":"http:\/\/twitter.com\/search?q=%23CruzSexScandal","trendMapped":"cruz+sex+scandal","trendVolume":615952},{"stateName":"AZ","trendName":"#Happy20thQueenKATH","placeID":"2508428","placeName":"Tucson","searchUrl":"http:\/\/twitter.com\/search?q=%23Happy20thQueenKATH","trendMapped":"happy20th+queen+kath","trendVolume":377163},{"stateName":"AZ","trendName":"5SOS FAM SPAM","placeID":"2508428","placeName":"Tucson","searchUrl":"http:\/\/twitter.com\/search?q=%225SOS+FAM+SPAM%22","trendMapped":"5SOS+FAM+SPAM","trendVolume":654713},{"stateName":"AZ","trendName":"Easter","placeID":"2508428","placeName":"Tucson","searchUrl":"http:\/\/twitter.com\/search?q=Easter","trendMapped":"easter","trendVolume":958753},{"stateName":"AZ","trendName":"England","placeID":"2508428","placeName":"Tucson","searchUrl":"http:\/\/twitter.com\/search?q=England","trendMapped":"england","trendVolume":464421},{"stateName":"AZ","trendName":"GO HARMONIZERS","placeID":"2508428","placeName":"Tucson","searchUrl":"http:\/\/twitter.com\/search?q=%22GO+HARMONIZERS%22","trendMapped":"GO+HARMONIZERS","trendVolume":1219031},{"stateName":"AZ","trendName":"Uruguay","placeID":"2508428","placeName":"Tucson","searchUrl":"http:\/\/twitter.com\/search?q=Uruguay","trendMapped":"uruguay","trendVolume":255054},{"stateName":"AZ","trendName":"WIN FOR 5SOS","placeID":"2508428","placeName":"Tucson","searchUrl":"http:\/\/twitter.com\/search?q=%22WIN+FOR+5SOS%22","trendMapped":"WIN+FOR+5SOS","trendVolume":508010},{"stateName":"CA","trendName":"#CamilaIsOurPrincess","placeID":"2488042","placeName":"San Jose","searchUrl":"http:\/\/twitter.com\/search?q=%23CamilaIsOurPrincess","trendMapped":"camila+is+our+princess","trendVolume":159220},{"stateName":"CA","trendName":"#CruzSexScandal","placeID":"2487889","placeName":"San Diego","searchUrl":"http:\/\/twitter.com\/search?q=%23CruzSexScandal","trendMapped":"cruz+sex+scandal","trendVolume":654379},{"stateName":"CA","trendName":"#GoodFriday","placeID":"2487956","placeName":"San Francisco","searchUrl":"http:\/\/twitter.com\/search?q=%23GoodFriday","trendMapped":"good+friday","trendVolume":336728},{"stateName":"CA","trendName":"#Happy20thQueenKATH","placeID":"2488042","placeName":"San Jose","searchUrl":"http:\/\/twitter.com\/search?q=%23Happy20thQueenKATH","trendMapped":"happy20th+queen+kath","trendVolume":383587},{"stateName":"CA","trendName":"#MindOfMine","placeID":"2487889","placeName":"San Diego","searchUrl":"http:\/\/twitter.com\/search?q=%23MindOfMine","trendMapped":"mind+of+mine","trendVolume":854039},{"stateName":"CA","trendName":"5SOS FAM SPAM","placeID":"2488042","placeName":"San Jose","searchUrl":"http:\/\/twitter.com\/search?q=%225SOS+FAM+SPAM%22","trendMapped":"5SOS+FAM+SPAM","trendVolume":613391},{"stateName":"CA","trendName":"Easter","placeID":"2488042","placeName":"San Jose","searchUrl":"http:\/\/twitter.com\/search?q=Easter","trendMapped":"easter","trendVolume":1044821},{"stateName":"CA","trendName":"England","placeID":"2487956","placeName":"San Francisco","searchUrl":"http:\/\/twitter.com\/search?q=England","trendMapped":"england","trendVolume":464421},{"stateName":"CA","trendName":"GO HARMONIZERS","placeID":"2488042","placeName":"San Jose","searchUrl":"http:\/\/twitter.com\/search?q=%22GO+HARMONIZERS%22","trendMapped":"GO+HARMONIZERS","trendVolume":1323273},{"stateName":"CA","trendName":"Uruguay","placeID":"2488042","placeName":"San Jose","searchUrl":"http:\/\/twitter.com\/search?q=Uruguay","trendMapped":"uruguay","trendVolume":256845},{"stateName":"CA","trendName":"WIN FOR 5SOS","placeID":"2488042","placeName":"San Jose","searchUrl":"http:\/\/twitter.com\/search?q=%22WIN+FOR+5SOS%22","trendMapped":"WIN+FOR+5SOS","trendVolume":434532},{"stateName":"CO","trendName":"#BestFanArmy","placeID":"2391279","placeName":"Denver","searchUrl":"http:\/\/twitter.com\/search?q=%23BestFanArmy","trendMapped":"best+fan+army","trendVolume":7543895},{"stateName":"CO","trendName":"#CamilaIsOurPrincess","placeID":"2383489","placeName":"Colorado Springs","searchUrl":"http:\/\/twitter.com\/search?q=%23CamilaIsOurPrincess","trendMapped":"camila+is+our+princess","trendVolume":135490},{"stateName":"CO","trendName":"#Happy20thQueenKATH","placeID":"2383489","placeName":"Colorado Springs","searchUrl":"http:\/\/twitter.com\/search?q=%23Happy20thQueenKATH","trendMapped":"happy20th+queen+kath","trendVolume":354320},{"stateName":"CO","trendName":"#MindOfMine","placeID":"2391279","placeName":"Denver","searchUrl":"http:\/\/twitter.com\/search?q=%23MindOfMine","trendMapped":"mind+of+mine","trendVolume":939895},{"stateName":"CO","trendName":"5SOS FAM SPAM","placeID":"2383489","placeName":"Colorado Springs","searchUrl":"http:\/\/twitter.com\/search?q=%225SOS+FAM+SPAM%22","trendMapped":"5SOS+FAM+SPAM","trendVolume":631100},{"stateName":"CO","trendName":"Easter","placeID":"2391279","placeName":"Denver","searchUrl":"http:\/\/twitter.com\/search?q=Easter","trendMapped":"easter","trendVolume":958753},{"stateName":"CO","trendName":"England","placeID":"2383489","placeName":"Colorado Springs","searchUrl":"http:\/\/twitter.com\/search?q=England","trendMapped":"england","trendVolume":462696},{"stateName":"CO","trendName":"GO HARMONIZERS","placeID":"2391279","placeName":"Denver","searchUrl":"http:\/\/twitter.com\/search?q=%22GO+HARMONIZERS%22","trendMapped":"GO+HARMONIZERS","trendVolume":1269459},{"stateName":"CO","trendName":"Uruguay","placeID":"2391279","placeName":"Denver","searchUrl":"http:\/\/twitter.com\/search?q=Uruguay","trendMapped":"uruguay","trendVolume":255855},{"stateName":"CO","trendName":"WIN FOR 5SOS","placeID":"2383489","placeName":"Colorado Springs","searchUrl":"http:\/\/twitter.com\/search?q=%22WIN+FOR+5SOS%22","trendMapped":"WIN+FOR+5SOS","trendVolume":389576},{"stateName":"CT","trendName":"#Happy20thQueenKATH","placeID":"2458410","placeName":"New Haven","searchUrl":"http:\/\/twitter.com\/search?q=%23Happy20thQueenKATH","trendMapped":"happy20th+queen+kath","trendVolume":381509},{"stateName":"CT","trendName":"5SOS FAM SPAM","placeID":"2458410","placeName":"New Haven","searchUrl":"http:\/\/twitter.com\/search?q=%225SOS+FAM+SPAM%22","trendMapped":"5SOS+FAM+SPAM","trendVolume":453118},{"stateName":"CT","trendName":"Easter","placeID":"2458410","placeName":"New Haven","searchUrl":"http:\/\/twitter.com\/search?q=Easter","trendMapped":"easter","trendVolume":1077652},{"stateName":"CT","trendName":"GO HARMONIZERS","placeID":"2458410","placeName":"New Haven","searchUrl":"http:\/\/twitter.com\/search?q=%22GO+HARMONIZERS%22","trendMapped":"GO+HARMONIZERS","trendVolume":1086779},{"stateName":"DC","trendName":"#CamilaIsOurPrincess","placeID":"2514815","placeName":"Washington","searchUrl":"http:\/\/twitter.com\/search?q=%23CamilaIsOurPrincess","trendMapped":"camila+is+our+princess","trendVolume":153852},{"stateName":"DC","trendName":"#CruzSexScandal","placeID":"2514815","placeName":"Washington","searchUrl":"http:\/\/twitter.com\/search?q=%23CruzSexScandal","trendMapped":"cruz+sex+scandal","trendVolume":395292},{"stateName":"DC","trendName":"#Happy20thQueenKATH","placeID":"2514815","placeName":"Washington","searchUrl":"http:\/\/twitter.com\/search?q=%23Happy20thQueenKATH","trendMapped":"happy20th+queen+kath","trendVolume":383587},{"stateName":"DC","trendName":"Easter","placeID":"2514815","placeName":"Washington","searchUrl":"http:\/\/twitter.com\/search?q=Easter","trendMapped":"easter","trendVolume":900276},{"stateName":"DC","trendName":"England","placeID":"2514815","placeName":"Washington","searchUrl":"http:\/\/twitter.com\/search?q=England","trendMapped":"england","trendVolume":446857},{"stateName":"DC","trendName":"GO HARMONIZERS","placeID":"2514815","placeName":"Washington","searchUrl":"http:\/\/twitter.com\/search?q=%22GO+HARMONIZERS%22","trendMapped":"GO+HARMONIZERS","trendVolume":1178382},{"stateName":"DC","trendName":"Uruguay","placeID":"2514815","placeName":"Washington","searchUrl":"http:\/\/twitter.com\/search?q=Uruguay","trendMapped":"uruguay","trendVolume":257544},{"stateName":"FL","trendName":"#CamilaIsOurPrincess","placeID":"2503863","placeName":"Tampa","searchUrl":"http:\/\/twitter.com\/search?q=%23CamilaIsOurPrincess","trendMapped":"camila+is+our+princess","trendVolume":157618},{"stateName":"FL","trendName":"#CruzSexScandal","placeID":"2466256","placeName":"Orlando","searchUrl":"http:\/\/twitter.com\/search?q=%23CruzSexScandal","trendMapped":"cruz+sex+scandal","trendVolume":652412},{"stateName":"FL","trendName":"#GoodFriday","placeID":"2503863","placeName":"Tampa","searchUrl":"http:\/\/twitter.com\/search?q=%23GoodFriday","trendMapped":"good+friday","trendVolume":353485},{"stateName":"FL","trendName":"#Happy20thQueenKATH","placeID":"2503863","placeName":"Tampa","searchUrl":"http:\/\/twitter.com\/search?q=%23Happy20thQueenKATH","trendMapped":"happy20th+queen+kath","trendVolume":377163},{"stateName":"FL","trendName":"#MindOfMine","placeID":"2466256","placeName":"Orlando","searchUrl":"http:\/\/twitter.com\/search?q=%23MindOfMine","trendMapped":"mind+of+mine","trendVolume":940281},{"stateName":"FL","trendName":"5SOS FAM SPAM","placeID":"2450022","placeName":"Miami","searchUrl":"http:\/\/twitter.com\/search?q=%225SOS+FAM+SPAM%22","trendMapped":"5SOS+FAM+SPAM","trendVolume":631100},{"stateName":"FL","trendName":"Easter","placeID":"2503863","placeName":"Tampa","searchUrl":"http:\/\/twitter.com\/search?q=Easter","trendMapped":"easter","trendVolume":1057652},{"stateName":"FL","trendName":"GO HARMONIZERS","placeID":"2503863","placeName":"Tampa","searchUrl":"http:\/\/twitter.com\/search?q=%22GO+HARMONIZERS%22","trendMapped":"GO+HARMONIZERS","trendVolume":1288810},{"stateName":"FL","trendName":"Uruguay","placeID":"2503863","placeName":"Tampa","searchUrl":"http:\/\/twitter.com\/search?q=Uruguay","trendMapped":"uruguay","trendVolume":256705},{"stateName":"GA","trendName":"#CamilaIsOurPrincess","placeID":"2357024","placeName":"Atlanta","searchUrl":"http:\/\/twitter.com\/search?q=%23CamilaIsOurPrincess","trendMapped":"camila+is+our+princess","trendVolume":98311},{"stateName":"GA","trendName":"Easter","placeID":"2357024","placeName":"Atlanta","searchUrl":"http:\/\/twitter.com\/search?q=Easter","trendMapped":"easter","trendVolume":1017603},{"stateName":"GA","trendName":"GO HARMONIZERS","placeID":"2357024","placeName":"Atlanta","searchUrl":"http:\/\/twitter.com\/search?q=%22GO+HARMONIZERS%22","trendMapped":"GO+HARMONIZERS","trendVolume":896607},{"stateName":"GA","trendName":"Uruguay","placeID":"2357024","placeName":"Atlanta","searchUrl":"http:\/\/twitter.com\/search?q=Uruguay","trendMapped":"uruguay","trendVolume":255054},{"stateName":"HI","trendName":"#CruzSexScandal","placeID":"2423945","placeName":"Honolulu","searchUrl":"http:\/\/twitter.com\/search?q=%23CruzSexScandal","trendMapped":"cruz+sex+scandal","trendVolume":455433},{"stateName":"HI","trendName":"Easter","placeID":"2423945","placeName":"Honolulu","searchUrl":"http:\/\/twitter.com\/search?q=Easter","trendMapped":"easter","trendVolume":948785},{"stateName":"HI","trendName":"England","placeID":"2423945","placeName":"Honolulu","searchUrl":"http:\/\/twitter.com\/search?q=England","trendMapped":"england","trendVolume":457567},{"stateName":"HI","trendName":"GO HARMONIZERS","placeID":"2423945","placeName":"Honolulu","searchUrl":"http:\/\/twitter.com\/search?q=%22GO+HARMONIZERS%22","trendMapped":"GO+HARMONIZERS","trendVolume":1086779},{"stateName":"IL","trendName":"#GoodFriday","placeID":"2379574","placeName":"Chicago","searchUrl":"http:\/\/twitter.com\/search?q=%23GoodFriday","trendMapped":"good+friday","trendVolume":342201},{"stateName":"IL","trendName":"#Happy20thQueenKATH","placeID":"2379574","placeName":"Chicago","searchUrl":"http:\/\/twitter.com\/search?q=%23Happy20thQueenKATH","trendMapped":"happy20th+queen+kath","trendVolume":368198},{"stateName":"IL","trendName":"Easter","placeID":"2379574","placeName":"Chicago","searchUrl":"http:\/\/twitter.com\/search?q=Easter","trendMapped":"easter","trendVolume":900276},{"stateName":"IL","trendName":"England","placeID":"2379574","placeName":"Chicago","searchUrl":"http:\/\/twitter.com\/search?q=England","trendMapped":"england","trendVolume":459239},{"stateName":"IL","trendName":"GO HARMONIZERS","placeID":"2379574","placeName":"Chicago","searchUrl":"http:\/\/twitter.com\/search?q=%22GO+HARMONIZERS%22","trendMapped":"GO+HARMONIZERS","trendVolume":1269459},{"stateName":"IL","trendName":"Uruguay","placeID":"2379574","placeName":"Chicago","searchUrl":"http:\/\/twitter.com\/search?q=Uruguay","trendMapped":"uruguay","trendVolume":257544},{"stateName":"IN","trendName":"#BatmanvSuperman","placeID":"2427032","placeName":"Indianapolis","searchUrl":"http:\/\/twitter.com\/search?q=%23BatmanvSuperman","trendMapped":"batmanv+superman","trendVolume":172397},{"stateName":"IN","trendName":"#CruzSexScandal","placeID":"2427032","placeName":"Indianapolis","searchUrl":"http:\/\/twitter.com\/search?q=%23CruzSexScandal","trendMapped":"cruz+sex+scandal","trendVolume":636845},{"stateName":"IN","trendName":"#MindOfMine","placeID":"2427032","placeName":"Indianapolis","searchUrl":"http:\/\/twitter.com\/search?q=%23MindOfMine","trendMapped":"mind+of+mine","trendVolume":894387},{"stateName":"IN","trendName":"Easter","placeID":"2427032","placeName":"Indianapolis","searchUrl":"http:\/\/twitter.com\/search?q=Easter","trendMapped":"easter","trendVolume":900046},{"stateName":"IN","trendName":"England","placeID":"2427032","placeName":"Indianapolis","searchUrl":"http:\/\/twitter.com\/search?q=England","trendMapped":"england","trendVolume":393340},{"stateName":"IN","trendName":"GO HARMONIZERS","placeID":"2427032","placeName":"Indianapolis","searchUrl":"http:\/\/twitter.com\/search?q=%22GO+HARMONIZERS%22","trendMapped":"GO+HARMONIZERS","trendVolume":1125662},{"stateName":"IN","trendName":"Uruguay","placeID":"2427032","placeName":"Indianapolis","searchUrl":"http:\/\/twitter.com\/search?q=Uruguay","trendMapped":"uruguay","trendVolume":256705},{"stateName":"KY","trendName":"#CruzSexScandal","placeID":"2442327","placeName":"Louisville","searchUrl":"http:\/\/twitter.com\/search?q=%23CruzSexScandal","trendMapped":"cruz+sex+scandal","trendVolume":610293},{"stateName":"KY","trendName":"#MindOfMine","placeID":"2442327","placeName":"Louisville","searchUrl":"http:\/\/twitter.com\/search?q=%23MindOfMine","trendMapped":"mind+of+mine","trendVolume":939381},{"stateName":"KY","trendName":"5SOS FAM SPAM","placeID":"2442327","placeName":"Louisville","searchUrl":"http:\/\/twitter.com\/search?q=%225SOS+FAM+SPAM%22","trendMapped":"5SOS+FAM+SPAM","trendVolume":591907},{"stateName":"KY","trendName":"Easter","placeID":"2442327","placeName":"Louisville","searchUrl":"http:\/\/twitter.com\/search?q=Easter","trendMapped":"easter","trendVolume":949721},{"stateName":"KY","trendName":"GO HARMONIZERS","placeID":"2442327","placeName":"Louisville","searchUrl":"http:\/\/twitter.com\/search?q=%22GO+HARMONIZERS%22","trendMapped":"GO+HARMONIZERS","trendVolume":1055632},{"stateName":"LA","trendName":"Easter","placeID":"2458833","placeName":"New Orleans","searchUrl":"http:\/\/twitter.com\/search?q=Easter","trendMapped":"easter","trendVolume":1071346},{"stateName":"LA","trendName":"GO HARMONIZERS","placeID":"2458833","placeName":"New Orleans","searchUrl":"http:\/\/twitter.com\/search?q=%22GO+HARMONIZERS%22","trendMapped":"GO+HARMONIZERS","trendVolume":1257374},{"stateName":"MA","trendName":"#BestCover","placeID":"2367105","placeName":"Boston","searchUrl":"http:\/\/twitter.com\/search?q=%23BestCover","trendMapped":"best+cover","trendVolume":3169311},{"stateName":"MA","trendName":"#GoodFriday","placeID":"2367105","placeName":"Boston","searchUrl":"http:\/\/twitter.com\/search?q=%23GoodFriday","trendMapped":"good+friday","trendVolume":354218},{"stateName":"MA","trendName":"#MindOfMine","placeID":"2367105","placeName":"Boston","searchUrl":"http:\/\/twitter.com\/search?q=%23MindOfMine","trendMapped":"mind+of+mine","trendVolume":934685},{"stateName":"MA","trendName":"Easter","placeID":"2367105","placeName":"Boston","searchUrl":"http:\/\/twitter.com\/search?q=Easter","trendMapped":"easter","trendVolume":933638},{"stateName":"MA","trendName":"Uruguay","placeID":"2367105","placeName":"Boston","searchUrl":"http:\/\/twitter.com\/search?q=Uruguay","trendMapped":"uruguay","trendVolume":255855},{"stateName":"MD","trendName":"Easter","placeID":"2358820","placeName":"Baltimore","searchUrl":"http:\/\/twitter.com\/search?q=Easter","trendMapped":"easter","trendVolume":948785},{"stateName":"MD","trendName":"GO HARMONIZERS","placeID":"2358820","placeName":"Baltimore","searchUrl":"http:\/\/twitter.com\/search?q=%22GO+HARMONIZERS%22","trendMapped":"GO+HARMONIZERS","trendVolume":1055632},{"stateName":"MI","trendName":"#CruzSexScandal","placeID":"2391585","placeName":"Detroit","searchUrl":"http:\/\/twitter.com\/search?q=%23CruzSexScandal","trendMapped":"cruz+sex+scandal","trendVolume":636532},{"stateName":"MI","trendName":"#MindOfMine","placeID":"2391585","placeName":"Detroit","searchUrl":"http:\/\/twitter.com\/search?q=%23MindOfMine","trendMapped":"mind+of+mine","trendVolume":939381},{"stateName":"MI","trendName":"5SOS FAM SPAM","placeID":"2391585","placeName":"Detroit","searchUrl":"http:\/\/twitter.com\/search?q=%225SOS+FAM+SPAM%22","trendMapped":"5SOS+FAM+SPAM","trendVolume":514058},{"stateName":"MI","trendName":"Easter","placeID":"2391585","placeName":"Detroit","searchUrl":"http:\/\/twitter.com\/search?q=Easter","trendMapped":"easter","trendVolume":948785},{"stateName":"MI","trendName":"GO HARMONIZERS","placeID":"2391585","placeName":"Detroit","searchUrl":"http:\/\/twitter.com\/search?q=%22GO+HARMONIZERS%22","trendMapped":"GO+HARMONIZERS","trendVolume":1086779},{"stateName":"MN","trendName":"#GoodFriday","placeID":"2452078","placeName":"Minneapolis","searchUrl":"http:\/\/twitter.com\/search?q=%23GoodFriday","trendMapped":"good+friday","trendVolume":360416},{"stateName":"MN","trendName":"#MindOfMine","placeID":"2452078","placeName":"Minneapolis","searchUrl":"http:\/\/twitter.com\/search?q=%23MindOfMine","trendMapped":"mind+of+mine","trendVolume":934685},{"stateName":"MN","trendName":"Easter","placeID":"2452078","placeName":"Minneapolis","searchUrl":"http:\/\/twitter.com\/search?q=Easter","trendMapped":"easter","trendVolume":943151},{"stateName":"MN","trendName":"England","placeID":"2452078","placeName":"Minneapolis","searchUrl":"http:\/\/twitter.com\/search?q=England","trendMapped":"england","trendVolume":451220},{"stateName":"MN","trendName":"GO HARMONIZERS","placeID":"2452078","placeName":"Minneapolis","searchUrl":"http:\/\/twitter.com\/search?q=%22GO+HARMONIZERS%22","trendMapped":"GO+HARMONIZERS","trendVolume":1257374},{"stateName":"MN","trendName":"Uruguay","placeID":"2452078","placeName":"Minneapolis","searchUrl":"http:\/\/twitter.com\/search?q=Uruguay","trendMapped":"uruguay","trendVolume":177305},{"stateName":"MO","trendName":"#CruzSexScandal","placeID":"2486982","placeName":"St. Louis","searchUrl":"http:\/\/twitter.com\/search?q=%23CruzSexScandal","trendMapped":"cruz+sex+scandal","trendVolume":659866},{"stateName":"MO","trendName":"#MindOfMine","placeID":"2486982","placeName":"St. Louis","searchUrl":"http:\/\/twitter.com\/search?q=%23MindOfMine","trendMapped":"mind+of+mine","trendVolume":933818},{"stateName":"MO","trendName":"5SOS FAM SPAM","placeID":"2486982","placeName":"St. Louis","searchUrl":"http:\/\/twitter.com\/search?q=%225SOS+FAM+SPAM%22","trendMapped":"5SOS+FAM+SPAM","trendVolume":591907},{"stateName":"MO","trendName":"Easter","placeID":"2486982","placeName":"St. Louis","searchUrl":"http:\/\/twitter.com\/search?q=Easter","trendMapped":"easter","trendVolume":1051252},{"stateName":"MO","trendName":"GO HARMONIZERS","placeID":"2486982","placeName":"St. Louis","searchUrl":"http:\/\/twitter.com\/search?q=%22GO+HARMONIZERS%22","trendMapped":"GO+HARMONIZERS","trendVolume":1309239},{"stateName":"MS","trendName":"5SOS FAM SPAM","placeID":"2428184","placeName":"Jackson","searchUrl":"http:\/\/twitter.com\/search?q=%225SOS+FAM+SPAM%22","trendMapped":"5SOS+FAM+SPAM","trendVolume":640306},{"stateName":"MS","trendName":"Easter","placeID":"2428184","placeName":"Jackson","searchUrl":"http:\/\/twitter.com\/search?q=Easter","trendMapped":"easter","trendVolume":1071346},{"stateName":"MS","trendName":"GO HARMONIZERS","placeID":"2428184","placeName":"Jackson","searchUrl":"http:\/\/twitter.com\/search?q=%22GO+HARMONIZERS%22","trendMapped":"GO+HARMONIZERS","trendVolume":1275113},{"stateName":"MS","trendName":"Good Friday","placeID":"2428184","placeName":"Jackson","searchUrl":"http:\/\/twitter.com\/search?q=%22Good+Friday%22","trendMapped":"Good+Friday","trendVolume":401256},{"stateName":"NC","trendName":"#CruzSexScandal","placeID":"2478307","placeName":"Raleigh","searchUrl":"http:\/\/twitter.com\/search?q=%23CruzSexScandal","trendMapped":"cruz+sex+scandal","trendVolume":659866},{"stateName":"NC","trendName":"#GoodFriday","placeID":"2414469","placeName":"Greensboro","searchUrl":"http:\/\/twitter.com\/search?q=%23GoodFriday","trendMapped":"good+friday","trendVolume":357816},{"stateName":"NC","trendName":"#Happy20thQueenKATH","placeID":"2478307","placeName":"Raleigh","searchUrl":"http:\/\/twitter.com\/search?q=%23Happy20thQueenKATH","trendMapped":"happy20th+queen+kath","trendVolume":370495},{"stateName":"NC","trendName":"#MindOfMine","placeID":"2478307","placeName":"Raleigh","searchUrl":"http:\/\/twitter.com\/search?q=%23MindOfMine","trendMapped":"mind+of+mine","trendVolume":939381},{"stateName":"NC","trendName":"5SOS FAM SPAM","placeID":"2478307","placeName":"Raleigh","searchUrl":"http:\/\/twitter.com\/search?q=%225SOS+FAM+SPAM%22","trendMapped":"5SOS+FAM+SPAM","trendVolume":631100},{"stateName":"NC","trendName":"Easter","placeID":"2478307","placeName":"Raleigh","searchUrl":"http:\/\/twitter.com\/search?q=Easter","trendMapped":"easter","trendVolume":1057652},{"stateName":"NC","trendName":"GO HARMONIZERS","placeID":"2478307","placeName":"Raleigh","searchUrl":"http:\/\/twitter.com\/search?q=%22GO+HARMONIZERS%22","trendMapped":"GO+HARMONIZERS","trendVolume":1309239},{"stateName":"NC","trendName":"Uruguay","placeID":"2478307","placeName":"Raleigh","searchUrl":"http:\/\/twitter.com\/search?q=Uruguay","trendMapped":"uruguay","trendVolume":257743},{"stateName":"NC","trendName":"WIN FOR 5SOS","placeID":"2478307","placeName":"Raleigh","searchUrl":"http:\/\/twitter.com\/search?q=%22WIN+FOR+5SOS%22","trendMapped":"WIN+FOR+5SOS","trendVolume":409685},{"stateName":"NE","trendName":"#CruzSexScandal","placeID":"2465512","placeName":"Omaha","searchUrl":"http:\/\/twitter.com\/search?q=%23CruzSexScandal","trendMapped":"cruz+sex+scandal","trendVolume":653480},{"stateName":"NE","trendName":"#MindOfMine","placeID":"2465512","placeName":"Omaha","searchUrl":"http:\/\/twitter.com\/search?q=%23MindOfMine","trendMapped":"mind+of+mine","trendVolume":894387},{"stateName":"NE","trendName":"Easter","placeID":"2465512","placeName":"Omaha","searchUrl":"http:\/\/twitter.com\/search?q=Easter","trendMapped":"easter","trendVolume":901334},{"stateName":"NE","trendName":"GO HARMONIZERS","placeID":"2465512","placeName":"Omaha","searchUrl":"http:\/\/twitter.com\/search?q=%22GO+HARMONIZERS%22","trendMapped":"GO+HARMONIZERS","trendVolume":1288810},{"stateName":"NM","trendName":"#CamilaIsOurPrincess","placeID":"2352824","placeName":"Albuquerque","searchUrl":"http:\/\/twitter.com\/search?q=%23CamilaIsOurPrincess","trendMapped":"camila+is+our+princess","trendVolume":153852},{"stateName":"NM","trendName":"#GoodFriday","placeID":"2352824","placeName":"Albuquerque","searchUrl":"http:\/\/twitter.com\/search?q=%23GoodFriday","trendMapped":"good+friday","trendVolume":353485},{"stateName":"NM","trendName":"#Happy20thQueenKATH","placeID":"2352824","placeName":"Albuquerque","searchUrl":"http:\/\/twitter.com\/search?q=%23Happy20thQueenKATH","trendMapped":"happy20th+queen+kath","trendVolume":383587},{"stateName":"NM","trendName":"5SOS FAM SPAM","placeID":"2352824","placeName":"Albuquerque","searchUrl":"http:\/\/twitter.com\/search?q=%225SOS+FAM+SPAM%22","trendMapped":"5SOS+FAM+SPAM","trendVolume":453118},{"stateName":"NM","trendName":"Easter","placeID":"2352824","placeName":"Albuquerque","searchUrl":"http:\/\/twitter.com\/search?q=Easter","trendMapped":"easter","trendVolume":883851},{"stateName":"NM","trendName":"England","placeID":"2352824","placeName":"Albuquerque","searchUrl":"http:\/\/twitter.com\/search?q=England","trendMapped":"england","trendVolume":451220},{"stateName":"NM","trendName":"GO HARMONIZERS","placeID":"2352824","placeName":"Albuquerque","searchUrl":"http:\/\/twitter.com\/search?q=%22GO+HARMONIZERS%22","trendMapped":"GO+HARMONIZERS","trendVolume":556196},{"stateName":"NM","trendName":"Uruguay","placeID":"2352824","placeName":"Albuquerque","searchUrl":"http:\/\/twitter.com\/search?q=Uruguay","trendMapped":"uruguay","trendVolume":255855},{"stateName":"NV","trendName":"#CruzSexScandal","placeID":"2436704","placeName":"Las Vegas","searchUrl":"http:\/\/twitter.com\/search?q=%23CruzSexScandal","trendMapped":"cruz+sex+scandal","trendVolume":455433},{"stateName":"NV","trendName":"#GoodFriday","placeID":"2436704","placeName":"Las Vegas","searchUrl":"http:\/\/twitter.com\/search?q=%23GoodFriday","trendMapped":"good+friday","trendVolume":357816},{"stateName":"NV","trendName":"#MindOfMine","placeID":"2436704","placeName":"Las Vegas","searchUrl":"http:\/\/twitter.com\/search?q=%23MindOfMine","trendMapped":"mind+of+mine","trendVolume":933818},{"stateName":"NV","trendName":"Easter","placeID":"2436704","placeName":"Las Vegas","searchUrl":"http:\/\/twitter.com\/search?q=Easter","trendMapped":"easter","trendVolume":1077652},{"stateName":"NV","trendName":"England","placeID":"2436704","placeName":"Las Vegas","searchUrl":"http:\/\/twitter.com\/search?q=England","trendMapped":"england","trendVolume":444839},{"stateName":"NV","trendName":"GO HARMONIZERS","placeID":"2436704","placeName":"Las Vegas","searchUrl":"http:\/\/twitter.com\/search?q=%22GO+HARMONIZERS%22","trendMapped":"GO+HARMONIZERS","trendVolume":1086779},{"stateName":"NY","trendName":"#CamilaIsOurPrincess","placeID":"2459115","placeName":"New York","searchUrl":"http:\/\/twitter.com\/search?q=%23CamilaIsOurPrincess","trendMapped":"camila+is+our+princess","trendVolume":120851},{"stateName":"NY","trendName":"#Happy20thQueenKATH","placeID":"2459115","placeName":"New York","searchUrl":"http:\/\/twitter.com\/search?q=%23Happy20thQueenKATH","trendMapped":"happy20th+queen+kath","trendVolume":368198},{"stateName":"NY","trendName":"Easter","placeID":"2459115","placeName":"New York","searchUrl":"http:\/\/twitter.com\/search?q=Easter","trendMapped":"easter","trendVolume":900046},{"stateName":"NY","trendName":"England","placeID":"2459115","placeName":"New York","searchUrl":"http:\/\/twitter.com\/search?q=England","trendMapped":"england","trendVolume":459239},{"stateName":"NY","trendName":"GO HARMONIZERS","placeID":"2459115","placeName":"New York","searchUrl":"http:\/\/twitter.com\/search?q=%22GO+HARMONIZERS%22","trendMapped":"GO+HARMONIZERS","trendVolume":1302471},{"stateName":"NY","trendName":"Uruguay","placeID":"2459115","placeName":"New York","searchUrl":"http:\/\/twitter.com\/search?q=Uruguay","trendMapped":"uruguay","trendVolume":253950},{"stateName":"NY","trendName":"WIN FOR 5SOS","placeID":"2459115","placeName":"New York","searchUrl":"http:\/\/twitter.com\/search?q=%22WIN+FOR+5SOS%22","trendMapped":"WIN+FOR+5SOS","trendVolume":416421},{"stateName":"OH","trendName":"#5SOSFam","placeID":"2380358","placeName":"Cincinnati","searchUrl":"http:\/\/twitter.com\/search?q=%235SOSFam","trendMapped":"5+sos+fam","trendVolume":2932657},{"stateName":"OH","trendName":"#CruzSexScandal","placeID":"2383660","placeName":"Columbus","searchUrl":"http:\/\/twitter.com\/search?q=%23CruzSexScandal","trendMapped":"cruz+sex+scandal","trendVolume":612392},{"stateName":"OH","trendName":"#GoodFriday","placeID":"2383660","placeName":"Columbus","searchUrl":"http:\/\/twitter.com\/search?q=%23GoodFriday","trendMapped":"good+friday","trendVolume":359260},{"stateName":"OH","trendName":"#Happy20thQueenKATH","placeID":"2381475","placeName":"Cleveland","searchUrl":"http:\/\/twitter.com\/search?q=%23Happy20thQueenKATH","trendMapped":"happy20th+queen+kath","trendVolume":383587},{"stateName":"OH","trendName":"#MindOfMine","placeID":"2383660","placeName":"Columbus","searchUrl":"http:\/\/twitter.com\/search?q=%23MindOfMine","trendMapped":"mind+of+mine","trendVolume":939381},{"stateName":"OH","trendName":"5SOS FAM SPAM","placeID":"2381475","placeName":"Cleveland","searchUrl":"http:\/\/twitter.com\/search?q=%225SOS+FAM+SPAM%22","trendMapped":"5SOS+FAM+SPAM","trendVolume":646198},{"stateName":"OH","trendName":"Easter","placeID":"2383660","placeName":"Columbus","searchUrl":"http:\/\/twitter.com\/search?q=Easter","trendMapped":"easter","trendVolume":1051252},{"stateName":"OH","trendName":"GO HARMONIZERS","placeID":"2381475","placeName":"Cleveland","searchUrl":"http:\/\/twitter.com\/search?q=%22GO+HARMONIZERS%22","trendMapped":"GO+HARMONIZERS","trendVolume":1159125},{"stateName":"OH","trendName":"Uruguay","placeID":"2381475","placeName":"Cleveland","searchUrl":"http:\/\/twitter.com\/search?q=Uruguay","trendMapped":"uruguay","trendVolume":257544},{"stateName":"OK","trendName":"#CruzSexScandal","placeID":"2464592","placeName":"Oklahoma City","searchUrl":"http:\/\/twitter.com\/search?q=%23CruzSexScandal","trendMapped":"cruz+sex+scandal","trendVolume":648313},{"stateName":"OK","trendName":"#GoodFriday","placeID":"2464592","placeName":"Oklahoma City","searchUrl":"http:\/\/twitter.com\/search?q=%23GoodFriday","trendMapped":"good+friday","trendVolume":360759},{"stateName":"OK","trendName":"Easter","placeID":"2464592","placeName":"Oklahoma City","searchUrl":"http:\/\/twitter.com\/search?q=Easter","trendMapped":"easter","trendVolume":948283},{"stateName":"OK","trendName":"GO HARMONIZERS","placeID":"2464592","placeName":"Oklahoma City","searchUrl":"http:\/\/twitter.com\/search?q=%22GO+HARMONIZERS%22","trendMapped":"GO+HARMONIZERS","trendVolume":1323273},{"stateName":"OR","trendName":"#GoodFriday","placeID":"2475687","placeName":"Portland","searchUrl":"http:\/\/twitter.com\/search?q=%23GoodFriday","trendMapped":"good+friday","trendVolume":360416},{"stateName":"OR","trendName":"Easter","placeID":"2475687","placeName":"Portland","searchUrl":"http:\/\/twitter.com\/search?q=Easter","trendMapped":"easter","trendVolume":1077652},{"stateName":"OR","trendName":"GO HARMONIZERS","placeID":"2475687","placeName":"Portland","searchUrl":"http:\/\/twitter.com\/search?q=%22GO+HARMONIZERS%22","trendMapped":"GO+HARMONIZERS","trendVolume":1147112},{"stateName":"PA","trendName":"#CamilaIsOurPrincess","placeID":"2471217","placeName":"Philadelphia","searchUrl":"http:\/\/twitter.com\/search?q=%23CamilaIsOurPrincess","trendMapped":"camila+is+our+princess","trendVolume":135490},{"stateName":"PA","trendName":"#Happy20thQueenKATH","placeID":"2471217","placeName":"Philadelphia","searchUrl":"http:\/\/twitter.com\/search?q=%23Happy20thQueenKATH","trendMapped":"happy20th+queen+kath","trendVolume":363513},{"stateName":"PA","trendName":"#MindOfMine","placeID":"2473224","placeName":"Pittsburgh","searchUrl":"http:\/\/twitter.com\/search?q=%23MindOfMine","trendMapped":"mind+of+mine","trendVolume":939381},{"stateName":"PA","trendName":"Easter","placeID":"2473224","placeName":"Pittsburgh","searchUrl":"http:\/\/twitter.com\/search?q=Easter","trendMapped":"easter","trendVolume":1077652},{"stateName":"PA","trendName":"England","placeID":"2471217","placeName":"Philadelphia","searchUrl":"http:\/\/twitter.com\/search?q=England","trendMapped":"england","trendVolume":441877},{"stateName":"PA","trendName":"GO HARMONIZERS","placeID":"2473224","placeName":"Pittsburgh","searchUrl":"http:\/\/twitter.com\/search?q=%22GO+HARMONIZERS%22","trendMapped":"GO+HARMONIZERS","trendVolume":1206031},{"stateName":"PA","trendName":"Uruguay","placeID":"2471217","placeName":"Philadelphia","searchUrl":"http:\/\/twitter.com\/search?q=Uruguay","trendMapped":"uruguay","trendVolume":257743},{"stateName":"PA","trendName":"WIN FOR 5SOS","placeID":"2471217","placeName":"Philadelphia","searchUrl":"http:\/\/twitter.com\/search?q=%22WIN+FOR+5SOS%22","trendMapped":"WIN+FOR+5SOS","trendVolume":424884},{"stateName":"RI","trendName":"#CruzSexScandal","placeID":"2477058","placeName":"Providence","searchUrl":"http:\/\/twitter.com\/search?q=%23CruzSexScandal","trendMapped":"cruz+sex+scandal","trendVolume":659866},{"stateName":"RI","trendName":"Easter","placeID":"2477058","placeName":"Providence","searchUrl":"http:\/\/twitter.com\/search?q=Easter","trendMapped":"easter","trendVolume":923439},{"stateName":"TN","trendName":"#BestFanArmy","placeID":"2449323","placeName":"Memphis","searchUrl":"http:\/\/twitter.com\/search?q=%23BestFanArmy","trendMapped":"best+fan+army","trendVolume":7632418},{"stateName":"TN","trendName":"Easter","placeID":"2457170","placeName":"Nashville","searchUrl":"http:\/\/twitter.com\/search?q=Easter","trendMapped":"easter","trendVolume":903628},{"stateName":"TN","trendName":"England","placeID":"2457170","placeName":"Nashville","searchUrl":"http:\/\/twitter.com\/search?q=England","trendMapped":"england","trendVolume":459239},{"stateName":"TN","trendName":"GO HARMONIZERS","placeID":"2457170","placeName":"Nashville","searchUrl":"http:\/\/twitter.com\/search?q=%22GO+HARMONIZERS%22","trendMapped":"GO+HARMONIZERS","trendVolume":614549},{"stateName":"TX","trendName":"#CamilaIsOurPrincess","placeID":"2388929","placeName":"Dallas-Ft. Worth","searchUrl":"http:\/\/twitter.com\/search?q=%23CamilaIsOurPrincess","trendMapped":"camila+is+our+princess","trendVolume":159220},{"stateName":"TX","trendName":"#CruzSexScandal","placeID":"2357536","placeName":"Austin","searchUrl":"http:\/\/twitter.com\/search?q=%23CruzSexScandal","trendMapped":"cruz+sex+scandal","trendVolume":653480},{"stateName":"TX","trendName":"#GoodFriday","placeID":"2487796","placeName":"San Antonio","searchUrl":"http:\/\/twitter.com\/search?q=%23GoodFriday","trendMapped":"good+friday","trendVolume":357298},{"stateName":"TX","trendName":"#Happy20thQueenKATH","placeID":"2487796","placeName":"San Antonio","searchUrl":"http:\/\/twitter.com\/search?q=%23Happy20thQueenKATH","trendMapped":"happy20th+queen+kath","trendVolume":377163},{"stateName":"TX","trendName":"#MindOfMine","placeID":"2487796","placeName":"San Antonio","searchUrl":"http:\/\/twitter.com\/search?q=%23MindOfMine","trendMapped":"mind+of+mine","trendVolume":975615},{"stateName":"TX","trendName":"5SOS FAM SPAM","placeID":"2388929","placeName":"Dallas-Ft. Worth","searchUrl":"http:\/\/twitter.com\/search?q=%225SOS+FAM+SPAM%22","trendMapped":"5SOS+FAM+SPAM","trendVolume":533465},{"stateName":"TX","trendName":"Easter","placeID":"2487796","placeName":"San Antonio","searchUrl":"http:\/\/twitter.com\/search?q=Easter","trendMapped":"easter","trendVolume":1038202},{"stateName":"TX","trendName":"England","placeID":"2388929","placeName":"Dallas-Ft. Worth","searchUrl":"http:\/\/twitter.com\/search?q=England","trendMapped":"england","trendVolume":459239},{"stateName":"TX","trendName":"GO HARMONIZERS","placeID":"2487796","placeName":"San Antonio","searchUrl":"http:\/\/twitter.com\/search?q=%22GO+HARMONIZERS%22","trendMapped":"GO+HARMONIZERS","trendVolume":1302471},{"stateName":"TX","trendName":"M\u00e9xico","placeID":"2424766","placeName":"Houston","searchUrl":"http:\/\/twitter.com\/search?q=M%C3%A9xico","trendMapped":"m\u00e9xico","trendVolume":260105},{"stateName":"TX","trendName":"Uruguay","placeID":"2388929","placeName":"Dallas-Ft. Worth","searchUrl":"http:\/\/twitter.com\/search?q=Uruguay","trendMapped":"uruguay","trendVolume":256705},{"stateName":"UT","trendName":"#CruzSexScandal","placeID":"2487610","placeName":"Salt Lake City","searchUrl":"http:\/\/twitter.com\/search?q=%23CruzSexScandal","trendMapped":"cruz+sex+scandal","trendVolume":602136},{"stateName":"UT","trendName":"#GoodFriday","placeID":"2487610","placeName":"Salt Lake City","searchUrl":"http:\/\/twitter.com\/search?q=%23GoodFriday","trendMapped":"good+friday","trendVolume":355216},{"stateName":"UT","trendName":"#MindOfMine","placeID":"2487610","placeName":"Salt Lake City","searchUrl":"http:\/\/twitter.com\/search?q=%23MindOfMine","trendMapped":"mind+of+mine","trendVolume":939381},{"stateName":"UT","trendName":"Easter","placeID":"2487610","placeName":"Salt Lake City","searchUrl":"http:\/\/twitter.com\/search?q=Easter","trendMapped":"easter","trendVolume":1071346},{"stateName":"UT","trendName":"GO HARMONIZERS","placeID":"2487610","placeName":"Salt Lake City","searchUrl":"http:\/\/twitter.com\/search?q=%22GO+HARMONIZERS%22","trendMapped":"GO+HARMONIZERS","trendVolume":1112996},{"stateName":"UT","trendName":"Uruguay","placeID":"2487610","placeName":"Salt Lake City","searchUrl":"http:\/\/twitter.com\/search?q=Uruguay","trendMapped":"uruguay","trendVolume":255054},{"stateName":"VA","trendName":"#BestFanArmy","placeID":"2460389","placeName":"Norfolk","searchUrl":"http:\/\/twitter.com\/search?q=%23BestFanArmy","trendMapped":"best+fan+army","trendVolume":6034196},{"stateName":"VA","trendName":"#CruzSexScandal","placeID":"2480894","placeName":"Richmond","searchUrl":"http:\/\/twitter.com\/search?q=%23CruzSexScandal","trendMapped":"cruz+sex+scandal","trendVolume":660778},{"stateName":"VA","trendName":"#Happy20thQueenKATH","placeID":"2512636","placeName":"Virginia Beach","searchUrl":"http:\/\/twitter.com\/search?q=%23Happy20thQueenKATH","trendMapped":"happy20th+queen+kath","trendVolume":354320},{"stateName":"VA","trendName":"5SOS FAM SPAM","placeID":"2512636","placeName":"Virginia Beach","searchUrl":"http:\/\/twitter.com\/search?q=%225SOS+FAM+SPAM%22","trendMapped":"5SOS+FAM+SPAM","trendVolume":646198},{"stateName":"VA","trendName":"Easter","placeID":"2512636","placeName":"Virginia Beach","searchUrl":"http:\/\/twitter.com\/search?q=Easter","trendMapped":"easter","trendVolume":1071346},{"stateName":"VA","trendName":"GO HARMONIZERS","placeID":"2512636","placeName":"Virginia Beach","searchUrl":"http:\/\/twitter.com\/search?q=%22GO+HARMONIZERS%22","trendMapped":"GO+HARMONIZERS","trendVolume":1309239},{"stateName":"VA","trendName":"Uruguay","placeID":"2512636","placeName":"Virginia Beach","searchUrl":"http:\/\/twitter.com\/search?q=Uruguay","trendMapped":"uruguay","trendVolume":255855},{"stateName":"WA","trendName":"#CruzSexScandal","placeID":"2490383","placeName":"Seattle","searchUrl":"http:\/\/twitter.com\/search?q=%23CruzSexScandal","trendMapped":"cruz+sex+scandal","trendVolume":615952},{"stateName":"WA","trendName":"#Happy20thQueenKATH","placeID":"2490383","placeName":"Seattle","searchUrl":"http:\/\/twitter.com\/search?q=%23Happy20thQueenKATH","trendMapped":"happy20th+queen+kath","trendVolume":383587},{"stateName":"WA","trendName":"Easter","placeID":"2490383","placeName":"Seattle","searchUrl":"http:\/\/twitter.com\/search?q=Easter","trendMapped":"easter","trendVolume":873461},{"stateName":"WA","trendName":"England","placeID":"2490383","placeName":"Seattle","searchUrl":"http:\/\/twitter.com\/search?q=England","trendMapped":"england","trendVolume":464421},{"stateName":"WA","trendName":"GO HARMONIZERS","placeID":"2490383","placeName":"Seattle","searchUrl":"http:\/\/twitter.com\/search?q=%22GO+HARMONIZERS%22","trendMapped":"GO+HARMONIZERS","trendVolume":671939},{"stateName":"WA","trendName":"Uruguay","placeID":"2490383","placeName":"Seattle","searchUrl":"http:\/\/twitter.com\/search?q=Uruguay","trendMapped":"uruguay","trendVolume":255855},{"stateName":"WA","trendName":"WIN FOR 5SOS","placeID":"2490383","placeName":"Seattle","searchUrl":"http:\/\/twitter.com\/search?q=%22WIN+FOR+5SOS%22","trendMapped":"WIN+FOR+5SOS","trendVolume":409685},{"stateName":"WI","trendName":"#CruzSexScandal","placeID":"2451822","placeName":"Milwaukee","searchUrl":"http:\/\/twitter.com\/search?q=%23CruzSexScandal","trendMapped":"cruz+sex+scandal","trendVolume":633956},{"stateName":"WI","trendName":"#GoodFriday","placeID":"2451822","placeName":"Milwaukee","searchUrl":"http:\/\/twitter.com\/search?q=%23GoodFriday","trendMapped":"good+friday","trendVolume":357901},{"stateName":"WI","trendName":"#MindOfMine","placeID":"2451822","placeName":"Milwaukee","searchUrl":"http:\/\/twitter.com\/search?q=%23MindOfMine","trendMapped":"mind+of+mine","trendVolume":893568},{"stateName":"WI","trendName":"Easter","placeID":"2451822","placeName":"Milwaukee","searchUrl":"http:\/\/twitter.com\/search?q=Easter","trendMapped":"easter","trendVolume":995221},{"stateName":"WI","trendName":"GO HARMONIZERS","placeID":"2451822","placeName":"Milwaukee","searchUrl":"http:\/\/twitter.com\/search?q=%22GO+HARMONIZERS%22","trendMapped":"GO+HARMONIZERS","trendVolume":980730},{"stateName":"WI","trendName":"Uruguay","placeID":"2451822","placeName":"Milwaukee","searchUrl":"http:\/\/twitter.com\/search?q=Uruguay","trendMapped":"uruguay","trendVolume":162551},{"stateName":"XX","trendName":"#CamilaIsOurPrincess","placeID":"23424977","placeName":"United States","searchUrl":"http:\/\/twitter.com\/search?q=%23CamilaIsOurPrincess","trendMapped":"camila+is+our+princess","trendVolume":145399},{"stateName":"XX","trendName":"5SOS FAM SPAM","placeID":"23424977","placeName":"United States","searchUrl":"http:\/\/twitter.com\/search?q=%225SOS+FAM+SPAM%22","trendMapped":"5SOS+FAM+SPAM","trendVolume":654713},{"stateName":"XX","trendName":"Easter","placeID":"23424977","placeName":"United States","searchUrl":"http:\/\/twitter.com\/search?q=Easter","trendMapped":"easter","trendVolume":893732},{"stateName":"XX","trendName":"England","placeID":"23424977","placeName":"United States","searchUrl":"http:\/\/twitter.com\/search?q=England","trendMapped":"england","trendVolume":444839},{"stateName":"XX","trendName":"GO HARMONIZERS","placeID":"23424977","placeName":"United States","searchUrl":"http:\/\/twitter.com\/search?q=%22GO+HARMONIZERS%22","trendMapped":"GO+HARMONIZERS","trendVolume":1309239},{"stateName":"XX","trendName":"Uruguay","placeID":"23424977","placeName":"United States","searchUrl":"http:\/\/twitter.com\/search?q=Uruguay","trendMapped":"uruguay","trendVolume":257544}]