[{"stateName":"AL","trendName":"#BuyWorkFromHomeOniTunes","placeID":"2364559","placeName":"Birmingham","searchUrl":"http:\/\/twitter.com\/search?q=%23BuyWorkFromHomeOniTunes","trendMapped":"buy+work+from+home+oni+tunes","trendVolume":590265},{"stateName":"AL","trendName":"#StPatricksDay","placeID":"2364559","placeName":"Birmingham","searchUrl":"http:\/\/twitter.com\/search?q=%23StPatricksDay","trendMapped":"st+patricks+day","trendVolume":799949},{"stateName":"AL","trendName":"Go-Go","placeID":"2364559","placeName":"Birmingham","searchUrl":"http:\/\/twitter.com\/search?q=Go-Go","trendMapped":"go-+go","trendVolume":3600210},{"stateName":"AZ","trendName":"#BuyWorkFromHomeOniTunes","placeID":"2508428","placeName":"Tucson","searchUrl":"http:\/\/twitter.com\/search?q=%23BuyWorkFromHomeOniTunes","trendMapped":"buy+work+from+home+oni+tunes","trendVolume":594687},{"stateName":"AZ","trendName":"#StPatricksDay","placeID":"2508428","placeName":"Tucson","searchUrl":"http:\/\/twitter.com\/search?q=%23StPatricksDay","trendMapped":"st+patricks+day","trendVolume":822587},{"stateName":"AZ","trendName":"Arsenal","placeID":"2471390","placeName":"Phoenix","searchUrl":"http:\/\/twitter.com\/search?q=Arsenal","trendMapped":"arsenal","trendVolume":677016},{"stateName":"AZ","trendName":"Bayern","placeID":"2508428","placeName":"Tucson","searchUrl":"http:\/\/twitter.com\/search?q=Bayern","trendMapped":"bayern","trendVolume":679048},{"stateName":"AZ","trendName":"Duke","placeID":"2508428","placeName":"Tucson","searchUrl":"http:\/\/twitter.com\/search?q=Duke","trendMapped":"duke","trendVolume":148383},{"stateName":"AZ","trendName":"Yale","placeID":"2508428","placeName":"Tucson","searchUrl":"http:\/\/twitter.com\/search?q=Yale","trendMapped":"yale","trendVolume":208239},{"stateName":"CA","trendName":"#BuyWorkFromHomeOniTunes","placeID":"2488042","placeName":"San Jose","searchUrl":"http:\/\/twitter.com\/search?q=%23BuyWorkFromHomeOniTunes","trendMapped":"buy+work+from+home+oni+tunes","trendVolume":593475},{"stateName":"CA","trendName":"#StPatricksDay","placeID":"2488042","placeName":"San Jose","searchUrl":"http:\/\/twitter.com\/search?q=%23StPatricksDay","trendMapped":"st+patricks+day","trendVolume":829920},{"stateName":"CA","trendName":"Arsenal","placeID":"2487956","placeName":"San Francisco","searchUrl":"http:\/\/twitter.com\/search?q=Arsenal","trendMapped":"arsenal","trendVolume":680021},{"stateName":"CA","trendName":"Bayern","placeID":"2488042","placeName":"San Jose","searchUrl":"http:\/\/twitter.com\/search?q=Bayern","trendMapped":"bayern","trendVolume":684116},{"stateName":"CA","trendName":"Duke","placeID":"2441472","placeName":"Long Beach","searchUrl":"http:\/\/twitter.com\/search?q=Duke","trendMapped":"duke","trendVolume":169839},{"stateName":"CA","trendName":"Go-Go","placeID":"2487956","placeName":"San Francisco","searchUrl":"http:\/\/twitter.com\/search?q=Go-Go","trendMapped":"go-+go","trendVolume":3600210},{"stateName":"CA","trendName":"Yale","placeID":"2488042","placeName":"San Jose","searchUrl":"http:\/\/twitter.com\/search?q=Yale","trendMapped":"yale","trendVolume":208239},{"stateName":"CO","trendName":"#BuyWorkFromHomeOniTunes","placeID":"2391279","placeName":"Denver","searchUrl":"http:\/\/twitter.com\/search?q=%23BuyWorkFromHomeOniTunes","trendMapped":"buy+work+from+home+oni+tunes","trendVolume":588946},{"stateName":"CO","trendName":"#StPatricksDay","placeID":"2391279","placeName":"Denver","searchUrl":"http:\/\/twitter.com\/search?q=%23StPatricksDay","trendMapped":"st+patricks+day","trendVolume":748106},{"stateName":"CO","trendName":"Arsenal","placeID":"2391279","placeName":"Denver","searchUrl":"http:\/\/twitter.com\/search?q=Arsenal","trendMapped":"arsenal","trendVolume":675097},{"stateName":"CO","trendName":"Bayern","placeID":"2391279","placeName":"Denver","searchUrl":"http:\/\/twitter.com\/search?q=Bayern","trendMapped":"bayern","trendVolume":685003},{"stateName":"CO","trendName":"Duke","placeID":"2383489","placeName":"Colorado Springs","searchUrl":"http:\/\/twitter.com\/search?q=Duke","trendMapped":"duke","trendVolume":148383},{"stateName":"CO","trendName":"Go-Go","placeID":"2391279","placeName":"Denver","searchUrl":"http:\/\/twitter.com\/search?q=Go-Go","trendMapped":"go-+go","trendVolume":3626638},{"stateName":"CO","trendName":"Yale","placeID":"2391279","placeName":"Denver","searchUrl":"http:\/\/twitter.com\/search?q=Yale","trendMapped":"yale","trendVolume":200862},{"stateName":"CT","trendName":"#BuyWorkFromHomeOniTunes","placeID":"2458410","placeName":"New Haven","searchUrl":"http:\/\/twitter.com\/search?q=%23BuyWorkFromHomeOniTunes","trendMapped":"buy+work+from+home+oni+tunes","trendVolume":589674},{"stateName":"CT","trendName":"#StPatricksDay","placeID":"2458410","placeName":"New Haven","searchUrl":"http:\/\/twitter.com\/search?q=%23StPatricksDay","trendMapped":"st+patricks+day","trendVolume":558839},{"stateName":"CT","trendName":"Arsenal","placeID":"2458410","placeName":"New Haven","searchUrl":"http:\/\/twitter.com\/search?q=Arsenal","trendMapped":"arsenal","trendVolume":668815},{"stateName":"CT","trendName":"Bayern","placeID":"2458410","placeName":"New Haven","searchUrl":"http:\/\/twitter.com\/search?q=Bayern","trendMapped":"bayern","trendVolume":681674},{"stateName":"CT","trendName":"Duke","placeID":"2458410","placeName":"New Haven","searchUrl":"http:\/\/twitter.com\/search?q=Duke","trendMapped":"duke","trendVolume":171126},{"stateName":"CT","trendName":"Go-Go","placeID":"2458410","placeName":"New Haven","searchUrl":"http:\/\/twitter.com\/search?q=Go-Go","trendMapped":"go-+go","trendVolume":3568655},{"stateName":"CT","trendName":"Merrick Garland","placeID":"2458410","placeName":"New Haven","searchUrl":"http:\/\/twitter.com\/search?q=%22Merrick+Garland%22","trendMapped":"Merrick+Garland","trendVolume":218322},{"stateName":"CT","trendName":"Yale","placeID":"2458410","placeName":"New Haven","searchUrl":"http:\/\/twitter.com\/search?q=Yale","trendMapped":"yale","trendVolume":190604},{"stateName":"DC","trendName":"#BuyWorkFromHomeOniTunes","placeID":"2514815","placeName":"Washington","searchUrl":"http:\/\/twitter.com\/search?q=%23BuyWorkFromHomeOniTunes","trendMapped":"buy+work+from+home+oni+tunes","trendVolume":590265},{"stateName":"DC","trendName":"#StPatricksDay","placeID":"2514815","placeName":"Washington","searchUrl":"http:\/\/twitter.com\/search?q=%23StPatricksDay","trendMapped":"st+patricks+day","trendVolume":691728},{"stateName":"DC","trendName":"Bayern","placeID":"2514815","placeName":"Washington","searchUrl":"http:\/\/twitter.com\/search?q=Bayern","trendMapped":"bayern","trendVolume":681674},{"stateName":"DC","trendName":"Baylor","placeID":"2514815","placeName":"Washington","searchUrl":"http:\/\/twitter.com\/search?q=Baylor","trendMapped":"baylor","trendVolume":162824},{"stateName":"DC","trendName":"Duke","placeID":"2514815","placeName":"Washington","searchUrl":"http:\/\/twitter.com\/search?q=Duke","trendMapped":"duke","trendVolume":167785},{"stateName":"DC","trendName":"Yale","placeID":"2514815","placeName":"Washington","searchUrl":"http:\/\/twitter.com\/search?q=Yale","trendMapped":"yale","trendVolume":200862},{"stateName":"FL","trendName":"#BuyWorkFromHomeOniTunes","placeID":"2503863","placeName":"Tampa","searchUrl":"http:\/\/twitter.com\/search?q=%23BuyWorkFromHomeOniTunes","trendMapped":"buy+work+from+home+oni+tunes","trendVolume":590265},{"stateName":"FL","trendName":"#StPatricksDay","placeID":"2503863","placeName":"Tampa","searchUrl":"http:\/\/twitter.com\/search?q=%23StPatricksDay","trendMapped":"st+patricks+day","trendVolume":835656},{"stateName":"FL","trendName":"Arsenal","placeID":"2503863","placeName":"Tampa","searchUrl":"http:\/\/twitter.com\/search?q=Arsenal","trendMapped":"arsenal","trendVolume":682631},{"stateName":"FL","trendName":"Bayern","placeID":"2503863","placeName":"Tampa","searchUrl":"http:\/\/twitter.com\/search?q=Bayern","trendMapped":"bayern","trendVolume":692728},{"stateName":"FL","trendName":"Go-Go","placeID":"2503863","placeName":"Tampa","searchUrl":"http:\/\/twitter.com\/search?q=Go-Go","trendMapped":"go-+go","trendVolume":3600210},{"stateName":"FL","trendName":"Lula","placeID":"2450022","placeName":"Miami","searchUrl":"http:\/\/twitter.com\/search?q=Lula","trendMapped":"lula","trendVolume":1492538},{"stateName":"FL","trendName":"St Patrick's Day","placeID":"2466256","placeName":"Orlando","searchUrl":"http:\/\/twitter.com\/search?q=%22St+Patrick%27s+Day%22","trendMapped":"St+Patrick's+Day","trendVolume":901417},{"stateName":"GA","trendName":"#BuyWorkFromHomeOniTunes","placeID":"2357024","placeName":"Atlanta","searchUrl":"http:\/\/twitter.com\/search?q=%23BuyWorkFromHomeOniTunes","trendMapped":"buy+work+from+home+oni+tunes","trendVolume":587089},{"stateName":"GA","trendName":"#StPatricksDay","placeID":"2357024","placeName":"Atlanta","searchUrl":"http:\/\/twitter.com\/search?q=%23StPatricksDay","trendMapped":"st+patricks+day","trendVolume":605958},{"stateName":"GA","trendName":"Duke","placeID":"2357024","placeName":"Atlanta","searchUrl":"http:\/\/twitter.com\/search?q=Duke","trendMapped":"duke","trendVolume":171126},{"stateName":"GA","trendName":"Go-Go","placeID":"2357024","placeName":"Atlanta","searchUrl":"http:\/\/twitter.com\/search?q=Go-Go","trendMapped":"go-+go","trendVolume":3568655},{"stateName":"GA","trendName":"Lula","placeID":"2357024","placeName":"Atlanta","searchUrl":"http:\/\/twitter.com\/search?q=Lula","trendMapped":"lula","trendVolume":1080960},{"stateName":"GA","trendName":"Yale","placeID":"2357024","placeName":"Atlanta","searchUrl":"http:\/\/twitter.com\/search?q=Yale","trendMapped":"yale","trendVolume":208239},{"stateName":"HI","trendName":"#BestFanArmy","placeID":"2423945","placeName":"Honolulu","searchUrl":"http:\/\/twitter.com\/search?q=%23BestFanArmy","trendMapped":"best+fan+army","trendVolume":3570052},{"stateName":"HI","trendName":"#BuyWorkFromHomeOniTunes","placeID":"2423945","placeName":"Honolulu","searchUrl":"http:\/\/twitter.com\/search?q=%23BuyWorkFromHomeOniTunes","trendMapped":"buy+work+from+home+oni+tunes","trendVolume":583375},{"stateName":"HI","trendName":"#StPatricksDay","placeID":"2423945","placeName":"Honolulu","searchUrl":"http:\/\/twitter.com\/search?q=%23StPatricksDay","trendMapped":"st+patricks+day","trendVolume":358574},{"stateName":"HI","trendName":"Arsenal","placeID":"2423945","placeName":"Honolulu","searchUrl":"http:\/\/twitter.com\/search?q=Arsenal","trendMapped":"arsenal","trendVolume":668815},{"stateName":"IL","trendName":"#BuyWorkFromHomeOniTunes","placeID":"2379574","placeName":"Chicago","searchUrl":"http:\/\/twitter.com\/search?q=%23BuyWorkFromHomeOniTunes","trendMapped":"buy+work+from+home+oni+tunes","trendVolume":589674},{"stateName":"IL","trendName":"#StPatricksDay","placeID":"2379574","placeName":"Chicago","searchUrl":"http:\/\/twitter.com\/search?q=%23StPatricksDay","trendMapped":"st+patricks+day","trendVolume":690736},{"stateName":"IL","trendName":"Arsenal","placeID":"2379574","placeName":"Chicago","searchUrl":"http:\/\/twitter.com\/search?q=Arsenal","trendMapped":"arsenal","trendVolume":677761},{"stateName":"IL","trendName":"Duke","placeID":"2379574","placeName":"Chicago","searchUrl":"http:\/\/twitter.com\/search?q=Duke","trendMapped":"duke","trendVolume":159904},{"stateName":"IL","trendName":"Yale","placeID":"2379574","placeName":"Chicago","searchUrl":"http:\/\/twitter.com\/search?q=Yale","trendMapped":"yale","trendVolume":200862},{"stateName":"IN","trendName":"#BuyWorkFromHomeOniTunes","placeID":"2427032","placeName":"Indianapolis","searchUrl":"http:\/\/twitter.com\/search?q=%23BuyWorkFromHomeOniTunes","trendMapped":"buy+work+from+home+oni+tunes","trendVolume":590265},{"stateName":"IN","trendName":"#StPatricksDay","placeID":"2427032","placeName":"Indianapolis","searchUrl":"http:\/\/twitter.com\/search?q=%23StPatricksDay","trendMapped":"st+patricks+day","trendVolume":752666},{"stateName":"IN","trendName":"Coutinho","placeID":"2427032","placeName":"Indianapolis","searchUrl":"http:\/\/twitter.com\/search?q=Coutinho","trendMapped":"coutinho","trendVolume":156372},{"stateName":"IN","trendName":"Go-Go","placeID":"2427032","placeName":"Indianapolis","searchUrl":"http:\/\/twitter.com\/search?q=Go-Go","trendMapped":"go-+go","trendVolume":3594794},{"stateName":"KY","trendName":"#BuyWorkFromHomeOniTunes","placeID":"2442327","placeName":"Louisville","searchUrl":"http:\/\/twitter.com\/search?q=%23BuyWorkFromHomeOniTunes","trendMapped":"buy+work+from+home+oni+tunes","trendVolume":588946},{"stateName":"KY","trendName":"#StPatricksDay","placeID":"2442327","placeName":"Louisville","searchUrl":"http:\/\/twitter.com\/search?q=%23StPatricksDay","trendMapped":"st+patricks+day","trendVolume":852817},{"stateName":"KY","trendName":"Bayern","placeID":"2442327","placeName":"Louisville","searchUrl":"http:\/\/twitter.com\/search?q=Bayern","trendMapped":"bayern","trendVolume":681674},{"stateName":"LA","trendName":"#BuyWorkFromHomeOniTunes","placeID":"2458833","placeName":"New Orleans","searchUrl":"http:\/\/twitter.com\/search?q=%23BuyWorkFromHomeOniTunes","trendMapped":"buy+work+from+home+oni+tunes","trendVolume":588552},{"stateName":"LA","trendName":"#StPatricksDay","placeID":"2458833","placeName":"New Orleans","searchUrl":"http:\/\/twitter.com\/search?q=%23StPatricksDay","trendMapped":"st+patricks+day","trendVolume":835656},{"stateName":"LA","trendName":"Arsenal","placeID":"2359991","placeName":"Baton Rouge","searchUrl":"http:\/\/twitter.com\/search?q=Arsenal","trendMapped":"arsenal","trendVolume":667722},{"stateName":"LA","trendName":"Bayern","placeID":"2458833","placeName":"New Orleans","searchUrl":"http:\/\/twitter.com\/search?q=Bayern","trendMapped":"bayern","trendVolume":679048},{"stateName":"LA","trendName":"Go-Go","placeID":"2458833","placeName":"New Orleans","searchUrl":"http:\/\/twitter.com\/search?q=Go-Go","trendMapped":"go-+go","trendVolume":3600210},{"stateName":"LA","trendName":"St. Patrick's Day","placeID":"2359991","placeName":"Baton Rouge","searchUrl":"http:\/\/twitter.com\/search?q=%22St.+Patrick%27s+Day%22","trendMapped":"St.+Patrick's+Day","trendVolume":374117},{"stateName":"MA","trendName":"#BuyWorkFromHomeOniTunes","placeID":"2367105","placeName":"Boston","searchUrl":"http:\/\/twitter.com\/search?q=%23BuyWorkFromHomeOniTunes","trendMapped":"buy+work+from+home+oni+tunes","trendVolume":593596},{"stateName":"MA","trendName":"#StPatricksDay","placeID":"2367105","placeName":"Boston","searchUrl":"http:\/\/twitter.com\/search?q=%23StPatricksDay","trendMapped":"st+patricks+day","trendVolume":727685},{"stateName":"MA","trendName":"Bayern","placeID":"2367105","placeName":"Boston","searchUrl":"http:\/\/twitter.com\/search?q=Bayern","trendMapped":"bayern","trendVolume":677952},{"stateName":"MD","trendName":"#BuyWorkFromHomeOniTunes","placeID":"2358820","placeName":"Baltimore","searchUrl":"http:\/\/twitter.com\/search?q=%23BuyWorkFromHomeOniTunes","trendMapped":"buy+work+from+home+oni+tunes","trendVolume":588552},{"stateName":"MD","trendName":"#StPatricksDay","placeID":"2358820","placeName":"Baltimore","searchUrl":"http:\/\/twitter.com\/search?q=%23StPatricksDay","trendMapped":"st+patricks+day","trendVolume":472950},{"stateName":"MD","trendName":"Arsenal","placeID":"2358820","placeName":"Baltimore","searchUrl":"http:\/\/twitter.com\/search?q=Arsenal","trendMapped":"arsenal","trendVolume":667144},{"stateName":"MD","trendName":"St. Patrick's Day","placeID":"2358820","placeName":"Baltimore","searchUrl":"http:\/\/twitter.com\/search?q=%22St.+Patrick%27s+Day%22","trendMapped":"St.+Patrick's+Day","trendVolume":878062},{"stateName":"MI","trendName":"#BuyWorkFromHomeOniTunes","placeID":"2391585","placeName":"Detroit","searchUrl":"http:\/\/twitter.com\/search?q=%23BuyWorkFromHomeOniTunes","trendMapped":"buy+work+from+home+oni+tunes","trendVolume":590265},{"stateName":"MI","trendName":"#StPatricksDay","placeID":"2391585","placeName":"Detroit","searchUrl":"http:\/\/twitter.com\/search?q=%23StPatricksDay","trendMapped":"st+patricks+day","trendVolume":807600},{"stateName":"MI","trendName":"Arsenal","placeID":"2391585","placeName":"Detroit","searchUrl":"http:\/\/twitter.com\/search?q=Arsenal","trendMapped":"arsenal","trendVolume":677016},{"stateName":"MI","trendName":"Bayern","placeID":"2391585","placeName":"Detroit","searchUrl":"http:\/\/twitter.com\/search?q=Bayern","trendMapped":"bayern","trendVolume":675775},{"stateName":"MN","trendName":"#BuyWorkFromHomeOniTunes","placeID":"2452078","placeName":"Minneapolis","searchUrl":"http:\/\/twitter.com\/search?q=%23BuyWorkFromHomeOniTunes","trendMapped":"buy+work+from+home+oni+tunes","trendVolume":588394},{"stateName":"MN","trendName":"#StPatricksDay","placeID":"2452078","placeName":"Minneapolis","searchUrl":"http:\/\/twitter.com\/search?q=%23StPatricksDay","trendMapped":"st+patricks+day","trendVolume":855868},{"stateName":"MN","trendName":"#StillSanders","placeID":"2452078","placeName":"Minneapolis","searchUrl":"http:\/\/twitter.com\/search?q=%23StillSanders","trendMapped":"still+sanders","trendVolume":204923},{"stateName":"MN","trendName":"Bayern","placeID":"2452078","placeName":"Minneapolis","searchUrl":"http:\/\/twitter.com\/search?q=Bayern","trendMapped":"bayern","trendVolume":677372},{"stateName":"MO","trendName":"#BuyWorkFromHomeOniTunes","placeID":"2430683","placeName":"Kansas City","searchUrl":"http:\/\/twitter.com\/search?q=%23BuyWorkFromHomeOniTunes","trendMapped":"buy+work+from+home+oni+tunes","trendVolume":589674},{"stateName":"MO","trendName":"#StPatricksDay","placeID":"2486982","placeName":"St. Louis","searchUrl":"http:\/\/twitter.com\/search?q=%23StPatricksDay","trendMapped":"st+patricks+day","trendVolume":727685},{"stateName":"MO","trendName":"Bayern","placeID":"2486982","placeName":"St. Louis","searchUrl":"http:\/\/twitter.com\/search?q=Bayern","trendMapped":"bayern","trendVolume":677952},{"stateName":"MO","trendName":"Baylor","placeID":"2430683","placeName":"Kansas City","searchUrl":"http:\/\/twitter.com\/search?q=Baylor","trendMapped":"baylor","trendVolume":162824},{"stateName":"MO","trendName":"Coutinho","placeID":"2430683","placeName":"Kansas City","searchUrl":"http:\/\/twitter.com\/search?q=Coutinho","trendMapped":"coutinho","trendVolume":156372},{"stateName":"MO","trendName":"Garland","placeID":"2486982","placeName":"St. Louis","searchUrl":"http:\/\/twitter.com\/search?q=Garland","trendMapped":"garland","trendVolume":321264},{"stateName":"MO","trendName":"Go-Go","placeID":"2486982","placeName":"St. Louis","searchUrl":"http:\/\/twitter.com\/search?q=Go-Go","trendMapped":"go-+go","trendVolume":3626638},{"stateName":"MO","trendName":"Supreme Court","placeID":"2430683","placeName":"Kansas City","searchUrl":"http:\/\/twitter.com\/search?q=%22Supreme+Court%22","trendMapped":"Supreme+Court","trendVolume":232662},{"stateName":"MS","trendName":"#BuyWorkFromHomeOniTunes","placeID":"2428184","placeName":"Jackson","searchUrl":"http:\/\/twitter.com\/search?q=%23BuyWorkFromHomeOniTunes","trendMapped":"buy+work+from+home+oni+tunes","trendVolume":586812},{"stateName":"MS","trendName":"#StPatricksDay","placeID":"2428184","placeName":"Jackson","searchUrl":"http:\/\/twitter.com\/search?q=%23StPatricksDay","trendMapped":"st+patricks+day","trendVolume":790968},{"stateName":"MS","trendName":"Arsenal","placeID":"2428184","placeName":"Jackson","searchUrl":"http:\/\/twitter.com\/search?q=Arsenal","trendMapped":"arsenal","trendVolume":679051},{"stateName":"MS","trendName":"Bayern","placeID":"2428184","placeName":"Jackson","searchUrl":"http:\/\/twitter.com\/search?q=Bayern","trendMapped":"bayern","trendVolume":684116},{"stateName":"NC","trendName":"#BuyWorkFromHomeOniTunes","placeID":"2478307","placeName":"Raleigh","searchUrl":"http:\/\/twitter.com\/search?q=%23BuyWorkFromHomeOniTunes","trendMapped":"buy+work+from+home+oni+tunes","trendVolume":590265},{"stateName":"NC","trendName":"#StPatricksDay","placeID":"2478307","placeName":"Raleigh","searchUrl":"http:\/\/twitter.com\/search?q=%23StPatricksDay","trendMapped":"st+patricks+day","trendVolume":742963},{"stateName":"NC","trendName":"Arsenal","placeID":"2478307","placeName":"Raleigh","searchUrl":"http:\/\/twitter.com\/search?q=Arsenal","trendMapped":"arsenal","trendVolume":677016},{"stateName":"NC","trendName":"Bayern","placeID":"2478307","placeName":"Raleigh","searchUrl":"http:\/\/twitter.com\/search?q=Bayern","trendMapped":"bayern","trendVolume":681674},{"stateName":"NC","trendName":"Go-Go","placeID":"2378426","placeName":"Charlotte","searchUrl":"http:\/\/twitter.com\/search?q=Go-Go","trendMapped":"go-+go","trendVolume":3600210},{"stateName":"NC","trendName":"St. Patrick","placeID":"2378426","placeName":"Charlotte","searchUrl":"http:\/\/twitter.com\/search?q=%22St.+Patrick%22","trendMapped":"St.+Patrick","trendVolume":888971},{"stateName":"NC","trendName":"Yale","placeID":"2478307","placeName":"Raleigh","searchUrl":"http:\/\/twitter.com\/search?q=Yale","trendMapped":"yale","trendVolume":208239},{"stateName":"NE","trendName":"#StPatricksDay","placeID":"2465512","placeName":"Omaha","searchUrl":"http:\/\/twitter.com\/search?q=%23StPatricksDay","trendMapped":"st+patricks+day","trendVolume":795764},{"stateName":"NE","trendName":"Arsenal","placeID":"2465512","placeName":"Omaha","searchUrl":"http:\/\/twitter.com\/search?q=Arsenal","trendMapped":"arsenal","trendVolume":679051},{"stateName":"NE","trendName":"Bayern","placeID":"2465512","placeName":"Omaha","searchUrl":"http:\/\/twitter.com\/search?q=Bayern","trendMapped":"bayern","trendVolume":685003},{"stateName":"NE","trendName":"Go-Go","placeID":"2465512","placeName":"Omaha","searchUrl":"http:\/\/twitter.com\/search?q=Go-Go","trendMapped":"go-+go","trendVolume":3613051},{"stateName":"NE","trendName":"President","placeID":"2465512","placeName":"Omaha","searchUrl":"http:\/\/twitter.com\/search?q=President","trendMapped":"president","trendVolume":456196},{"stateName":"NM","trendName":"#BuyWorkFromHomeOniTunes","placeID":"2352824","placeName":"Albuquerque","searchUrl":"http:\/\/twitter.com\/search?q=%23BuyWorkFromHomeOniTunes","trendMapped":"buy+work+from+home+oni+tunes","trendVolume":587939},{"stateName":"NM","trendName":"#StPatricksDay","placeID":"2352824","placeName":"Albuquerque","searchUrl":"http:\/\/twitter.com\/search?q=%23StPatricksDay","trendMapped":"st+patricks+day","trendVolume":742963},{"stateName":"NM","trendName":"Arsenal","placeID":"2352824","placeName":"Albuquerque","searchUrl":"http:\/\/twitter.com\/search?q=Arsenal","trendMapped":"arsenal","trendVolume":680021},{"stateName":"NM","trendName":"Duke","placeID":"2352824","placeName":"Albuquerque","searchUrl":"http:\/\/twitter.com\/search?q=Duke","trendMapped":"duke","trendVolume":171126},{"stateName":"NV","trendName":"#BuyWorkFromHomeOniTunes","placeID":"2436704","placeName":"Las Vegas","searchUrl":"http:\/\/twitter.com\/search?q=%23BuyWorkFromHomeOniTunes","trendMapped":"buy+work+from+home+oni+tunes","trendVolume":589674},{"stateName":"NV","trendName":"#StPatricksDay","placeID":"2436704","placeName":"Las Vegas","searchUrl":"http:\/\/twitter.com\/search?q=%23StPatricksDay","trendMapped":"st+patricks+day","trendVolume":678178},{"stateName":"NV","trendName":"Arsenal","placeID":"2436704","placeName":"Las Vegas","searchUrl":"http:\/\/twitter.com\/search?q=Arsenal","trendMapped":"arsenal","trendVolume":680021},{"stateName":"NV","trendName":"Bayern","placeID":"2436704","placeName":"Las Vegas","searchUrl":"http:\/\/twitter.com\/search?q=Bayern","trendMapped":"bayern","trendVolume":678170},{"stateName":"NV","trendName":"Go-Go","placeID":"2436704","placeName":"Las Vegas","searchUrl":"http:\/\/twitter.com\/search?q=Go-Go","trendMapped":"go-+go","trendVolume":3600210},{"stateName":"NV","trendName":"St. Patrick's Day","placeID":"2436704","placeName":"Las Vegas","searchUrl":"http:\/\/twitter.com\/search?q=%22St.+Patrick%27s+Day%22","trendMapped":"St.+Patrick's+Day","trendVolume":976185},{"stateName":"NY","trendName":"#BuyWorkFromHomeOniTunes","placeID":"2459115","placeName":"New York","searchUrl":"http:\/\/twitter.com\/search?q=%23BuyWorkFromHomeOniTunes","trendMapped":"buy+work+from+home+oni+tunes","trendVolume":588552},{"stateName":"NY","trendName":"#StPatricksDay","placeID":"2459115","placeName":"New York","searchUrl":"http:\/\/twitter.com\/search?q=%23StPatricksDay","trendMapped":"st+patricks+day","trendVolume":727685},{"stateName":"NY","trendName":"Arsenal","placeID":"2459115","placeName":"New York","searchUrl":"http:\/\/twitter.com\/search?q=Arsenal","trendMapped":"arsenal","trendVolume":680021},{"stateName":"NY","trendName":"Duke","placeID":"2459115","placeName":"New York","searchUrl":"http:\/\/twitter.com\/search?q=Duke","trendMapped":"duke","trendVolume":159904},{"stateName":"NY","trendName":"Yale","placeID":"2459115","placeName":"New York","searchUrl":"http:\/\/twitter.com\/search?q=Yale","trendMapped":"yale","trendVolume":200862},{"stateName":"OH","trendName":"#BuyWorkFromHomeOniTunes","placeID":"2383660","placeName":"Columbus","searchUrl":"http:\/\/twitter.com\/search?q=%23BuyWorkFromHomeOniTunes","trendMapped":"buy+work+from+home+oni+tunes","trendVolume":593596},{"stateName":"OH","trendName":"#StPatricksDay","placeID":"2383660","placeName":"Columbus","searchUrl":"http:\/\/twitter.com\/search?q=%23StPatricksDay","trendMapped":"st+patricks+day","trendVolume":855868},{"stateName":"OH","trendName":"Arsenal","placeID":"2381475","placeName":"Cleveland","searchUrl":"http:\/\/twitter.com\/search?q=Arsenal","trendMapped":"arsenal","trendVolume":676839},{"stateName":"OH","trendName":"Bayern","placeID":"2383660","placeName":"Columbus","searchUrl":"http:\/\/twitter.com\/search?q=Bayern","trendMapped":"bayern","trendVolume":684116},{"stateName":"OK","trendName":"#BuyWorkFromHomeOniTunes","placeID":"2464592","placeName":"Oklahoma City","searchUrl":"http:\/\/twitter.com\/search?q=%23BuyWorkFromHomeOniTunes","trendMapped":"buy+work+from+home+oni+tunes","trendVolume":586623},{"stateName":"OK","trendName":"#StPatricksDay","placeID":"2464592","placeName":"Oklahoma City","searchUrl":"http:\/\/twitter.com\/search?q=%23StPatricksDay","trendMapped":"st+patricks+day","trendVolume":761401},{"stateName":"OK","trendName":"Arsenal","placeID":"2464592","placeName":"Oklahoma City","searchUrl":"http:\/\/twitter.com\/search?q=Arsenal","trendMapped":"arsenal","trendVolume":677761},{"stateName":"OK","trendName":"Bayern","placeID":"2464592","placeName":"Oklahoma City","searchUrl":"http:\/\/twitter.com\/search?q=Bayern","trendMapped":"bayern","trendVolume":679048},{"stateName":"OR","trendName":"#BuyWorkFromHomeOniTunes","placeID":"2475687","placeName":"Portland","searchUrl":"http:\/\/twitter.com\/search?q=%23BuyWorkFromHomeOniTunes","trendMapped":"buy+work+from+home+oni+tunes","trendVolume":586623},{"stateName":"OR","trendName":"#StPatricksDay","placeID":"2475687","placeName":"Portland","searchUrl":"http:\/\/twitter.com\/search?q=%23StPatricksDay","trendMapped":"st+patricks+day","trendVolume":835656},{"stateName":"OR","trendName":"#StillSanders","placeID":"2475687","placeName":"Portland","searchUrl":"http:\/\/twitter.com\/search?q=%23StillSanders","trendMapped":"still+sanders","trendVolume":203838},{"stateName":"OR","trendName":"Arsenal","placeID":"2475687","placeName":"Portland","searchUrl":"http:\/\/twitter.com\/search?q=Arsenal","trendMapped":"arsenal","trendVolume":677761},{"stateName":"PA","trendName":"#BuyWorkFromHomeOniTunes","placeID":"2473224","placeName":"Pittsburgh","searchUrl":"http:\/\/twitter.com\/search?q=%23BuyWorkFromHomeOniTunes","trendMapped":"buy+work+from+home+oni+tunes","trendVolume":588946},{"stateName":"PA","trendName":"#StPatricksDay","placeID":"2473224","placeName":"Pittsburgh","searchUrl":"http:\/\/twitter.com\/search?q=%23StPatricksDay","trendMapped":"st+patricks+day","trendVolume":844627},{"stateName":"PA","trendName":"Arsenal","placeID":"2473224","placeName":"Pittsburgh","searchUrl":"http:\/\/twitter.com\/search?q=Arsenal","trendMapped":"arsenal","trendVolume":677761},{"stateName":"PA","trendName":"Bayern","placeID":"2473224","placeName":"Pittsburgh","searchUrl":"http:\/\/twitter.com\/search?q=Bayern","trendMapped":"bayern","trendVolume":684116},{"stateName":"PA","trendName":"Go-Go","placeID":"2473224","placeName":"Pittsburgh","searchUrl":"http:\/\/twitter.com\/search?q=Go-Go","trendMapped":"go-+go","trendVolume":3594794},{"stateName":"PA","trendName":"House","placeID":"2418046","placeName":"Harrisburg","searchUrl":"http:\/\/twitter.com\/search?q=House","trendMapped":"house","trendVolume":530588},{"stateName":"PA","trendName":"Yale","placeID":"2471217","placeName":"Philadelphia","searchUrl":"http:\/\/twitter.com\/search?q=Yale","trendMapped":"yale","trendVolume":183331},{"stateName":"RI","trendName":"#BuyWorkFromHomeOniTunes","placeID":"2477058","placeName":"Providence","searchUrl":"http:\/\/twitter.com\/search?q=%23BuyWorkFromHomeOniTunes","trendMapped":"buy+work+from+home+oni+tunes","trendVolume":586818},{"stateName":"RI","trendName":"#StPatricksDay","placeID":"2477058","placeName":"Providence","searchUrl":"http:\/\/twitter.com\/search?q=%23StPatricksDay","trendMapped":"st+patricks+day","trendVolume":852817},{"stateName":"RI","trendName":"Arsenal","placeID":"2477058","placeName":"Providence","searchUrl":"http:\/\/twitter.com\/search?q=Arsenal","trendMapped":"arsenal","trendVolume":680021},{"stateName":"RI","trendName":"Bayern","placeID":"2477058","placeName":"Providence","searchUrl":"http:\/\/twitter.com\/search?q=Bayern","trendMapped":"bayern","trendVolume":678170},{"stateName":"TN","trendName":"#BuyWorkFromHomeOniTunes","placeID":"2457170","placeName":"Nashville","searchUrl":"http:\/\/twitter.com\/search?q=%23BuyWorkFromHomeOniTunes","trendMapped":"buy+work+from+home+oni+tunes","trendVolume":590265},{"stateName":"TN","trendName":"#StPatricksDay","placeID":"2457170","placeName":"Nashville","searchUrl":"http:\/\/twitter.com\/search?q=%23StPatricksDay","trendMapped":"st+patricks+day","trendVolume":752666},{"stateName":"TN","trendName":"Arsenal","placeID":"2449323","placeName":"Memphis","searchUrl":"http:\/\/twitter.com\/search?q=Arsenal","trendMapped":"arsenal","trendVolume":675097},{"stateName":"TX","trendName":"#BuyWorkFromHomeOniTunes","placeID":"2487796","placeName":"San Antonio","searchUrl":"http:\/\/twitter.com\/search?q=%23BuyWorkFromHomeOniTunes","trendMapped":"buy+work+from+home+oni+tunes","trendVolume":594654},{"stateName":"TX","trendName":"#MarchMadness","placeID":"2357536","placeName":"Austin","searchUrl":"http:\/\/twitter.com\/search?q=%23MarchMadness","trendMapped":"march+madness","trendVolume":289164},{"stateName":"TX","trendName":"#StPatricksDay","placeID":"2487796","placeName":"San Antonio","searchUrl":"http:\/\/twitter.com\/search?q=%23StPatricksDay","trendMapped":"st+patricks+day","trendVolume":852817},{"stateName":"TX","trendName":"Arsenal","placeID":"2487796","placeName":"San Antonio","searchUrl":"http:\/\/twitter.com\/search?q=Arsenal","trendMapped":"arsenal","trendVolume":677761},{"stateName":"TX","trendName":"Bayern","placeID":"2397816","placeName":"El Paso","searchUrl":"http:\/\/twitter.com\/search?q=Bayern","trendMapped":"bayern","trendVolume":682404},{"stateName":"TX","trendName":"Coutinho","placeID":"2424766","placeName":"Houston","searchUrl":"http:\/\/twitter.com\/search?q=Coutinho","trendMapped":"coutinho","trendVolume":156372},{"stateName":"TX","trendName":"Go-Go","placeID":"2487796","placeName":"San Antonio","searchUrl":"http:\/\/twitter.com\/search?q=Go-Go","trendMapped":"go-+go","trendVolume":3626638},{"stateName":"TX","trendName":"People","placeID":"2424766","placeName":"Houston","searchUrl":"http:\/\/twitter.com\/search?q=People","trendMapped":"people","trendVolume":2663888},{"stateName":"UT","trendName":"#BuyWorkFromHomeOniTunes","placeID":"2487610","placeName":"Salt Lake City","searchUrl":"http:\/\/twitter.com\/search?q=%23BuyWorkFromHomeOniTunes","trendMapped":"buy+work+from+home+oni+tunes","trendVolume":588946},{"stateName":"UT","trendName":"#StPatricksDay","placeID":"2487610","placeName":"Salt Lake City","searchUrl":"http:\/\/twitter.com\/search?q=%23StPatricksDay","trendMapped":"st+patricks+day","trendVolume":844627},{"stateName":"UT","trendName":"Bayern","placeID":"2487610","placeName":"Salt Lake City","searchUrl":"http:\/\/twitter.com\/search?q=Bayern","trendMapped":"bayern","trendVolume":681674},{"stateName":"VA","trendName":"#BuyWorkFromHomeOniTunes","placeID":"2512636","placeName":"Virginia Beach","searchUrl":"http:\/\/twitter.com\/search?q=%23BuyWorkFromHomeOniTunes","trendMapped":"buy+work+from+home+oni+tunes","trendVolume":589159},{"stateName":"VA","trendName":"#StPatricksDay","placeID":"2512636","placeName":"Virginia Beach","searchUrl":"http:\/\/twitter.com\/search?q=%23StPatricksDay","trendMapped":"st+patricks+day","trendVolume":852817},{"stateName":"VA","trendName":"Arsenal","placeID":"2512636","placeName":"Virginia Beach","searchUrl":"http:\/\/twitter.com\/search?q=Arsenal","trendMapped":"arsenal","trendVolume":680021},{"stateName":"VA","trendName":"Bayern","placeID":"2512636","placeName":"Virginia Beach","searchUrl":"http:\/\/twitter.com\/search?q=Bayern","trendMapped":"bayern","trendVolume":684116},{"stateName":"VA","trendName":"Go-Go","placeID":"2480894","placeName":"Richmond","searchUrl":"http:\/\/twitter.com\/search?q=Go-Go","trendMapped":"go-+go","trendVolume":3600210},{"stateName":"VA","trendName":"Yale","placeID":"2512636","placeName":"Virginia Beach","searchUrl":"http:\/\/twitter.com\/search?q=Yale","trendMapped":"yale","trendVolume":200862},{"stateName":"WA","trendName":"#BuyWorkFromHomeOniTunes","placeID":"2490383","placeName":"Seattle","searchUrl":"http:\/\/twitter.com\/search?q=%23BuyWorkFromHomeOniTunes","trendMapped":"buy+work+from+home+oni+tunes","trendVolume":589674},{"stateName":"WA","trendName":"#StPatricksDay","placeID":"2490383","placeName":"Seattle","searchUrl":"http:\/\/twitter.com\/search?q=%23StPatricksDay","trendMapped":"st+patricks+day","trendVolume":818980},{"stateName":"WA","trendName":"Arsenal","placeID":"2490383","placeName":"Seattle","searchUrl":"http:\/\/twitter.com\/search?q=Arsenal","trendMapped":"arsenal","trendVolume":675097},{"stateName":"WA","trendName":"Bayern","placeID":"2490383","placeName":"Seattle","searchUrl":"http:\/\/twitter.com\/search?q=Bayern","trendMapped":"bayern","trendVolume":675775},{"stateName":"WI","trendName":"#BuyWorkFromHomeOniTunes","placeID":"2451822","placeName":"Milwaukee","searchUrl":"http:\/\/twitter.com\/search?q=%23BuyWorkFromHomeOniTunes","trendMapped":"buy+work+from+home+oni+tunes","trendVolume":581386},{"stateName":"WI","trendName":"#StPatricksDay","placeID":"2451822","placeName":"Milwaukee","searchUrl":"http:\/\/twitter.com\/search?q=%23StPatricksDay","trendMapped":"st+patricks+day","trendVolume":829920},{"stateName":"WI","trendName":"Arsenal","placeID":"2451822","placeName":"Milwaukee","searchUrl":"http:\/\/twitter.com\/search?q=Arsenal","trendMapped":"arsenal","trendVolume":675097},{"stateName":"WI","trendName":"Go-Go","placeID":"2451822","placeName":"Milwaukee","searchUrl":"http:\/\/twitter.com\/search?q=Go-Go","trendMapped":"go-+go","trendVolume":3600210},{"stateName":"WI","trendName":"Merrick Garland","placeID":"2451822","placeName":"Milwaukee","searchUrl":"http:\/\/twitter.com\/search?q=%22Merrick+Garland%22","trendMapped":"Merrick+Garland","trendVolume":220472},{"stateName":"XX","trendName":"#BuyWorkFromHomeOniTunes","placeID":"23424977","placeName":"United States","searchUrl":"http:\/\/twitter.com\/search?q=%23BuyWorkFromHomeOniTunes","trendMapped":"buy+work+from+home+oni+tunes","trendVolume":589159},{"stateName":"XX","trendName":"#StPatricksDay","placeID":"23424977","placeName":"United States","searchUrl":"http:\/\/twitter.com\/search?q=%23StPatricksDay","trendMapped":"st+patricks+day","trendVolume":756975},{"stateName":"XX","trendName":"Arsenal","placeID":"23424977","placeName":"United States","searchUrl":"http:\/\/twitter.com\/search?q=Arsenal","trendMapped":"arsenal","trendVolume":677761}]