[{"stateName":"AL","trendName":"#DemDebate","placeID":"2364559","placeName":"Birmingham","searchUrl":"http:\/\/twitter.com\/search?q=%23DemDebate","trendMapped":"dem+debate","trendVolume":580251},{"stateName":"AL","trendName":"#InternationalWomensDay","placeID":"2364559","placeName":"Birmingham","searchUrl":"http:\/\/twitter.com\/search?q=%23InternationalWomensDay","trendMapped":"international+womens+day","trendVolume":466724},{"stateName":"AL","trendName":"#TeamCap","placeID":"2364559","placeName":"Birmingham","searchUrl":"http:\/\/twitter.com\/search?q=%23TeamCap","trendMapped":"team+cap","trendVolume":211618},{"stateName":"AL","trendName":"Chelsea","placeID":"2364559","placeName":"Birmingham","searchUrl":"http:\/\/twitter.com\/search?q=Chelsea","trendMapped":"chelsea","trendVolume":484680},{"stateName":"AL","trendName":"Marvel","placeID":"2364559","placeName":"Birmingham","searchUrl":"http:\/\/twitter.com\/search?q=Marvel","trendMapped":"marvel","trendVolume":159751},{"stateName":"AZ","trendName":"#DangerousWomanTonight","placeID":"2508428","placeName":"Tucson","searchUrl":"http:\/\/twitter.com\/search?q=%23DangerousWomanTonight","trendMapped":"dangerous+woman+tonight","trendVolume":208919},{"stateName":"AZ","trendName":"#DemDebate","placeID":"2508428","placeName":"Tucson","searchUrl":"http:\/\/twitter.com\/search?q=%23DemDebate","trendMapped":"dem+debate","trendVolume":585711},{"stateName":"AZ","trendName":"#DolceAmoreFallingForYou","placeID":"2508428","placeName":"Tucson","searchUrl":"http:\/\/twitter.com\/search?q=%23DolceAmoreFallingForYou","trendMapped":"dolce+amore+falling+for+you","trendVolume":337129},{"stateName":"AZ","trendName":"#LikeIWould","placeID":"2508428","placeName":"Tucson","searchUrl":"http:\/\/twitter.com\/search?q=%23LikeIWould","trendMapped":"like+i+would","trendVolume":111133},{"stateName":"AZ","trendName":"#PurposeTourSeattle","placeID":"2471390","placeName":"Phoenix","searchUrl":"http:\/\/twitter.com\/search?q=%23PurposeTourSeattle","trendMapped":"purpose+tour+seattle","trendVolume":716338},{"stateName":"AZ","trendName":"Chelsea","placeID":"2508428","placeName":"Tucson","searchUrl":"http:\/\/twitter.com\/search?q=Chelsea","trendMapped":"chelsea","trendVolume":485580},{"stateName":"AZ","trendName":"Civil War","placeID":"2471390","placeName":"Phoenix","searchUrl":"http:\/\/twitter.com\/search?q=%22Civil+War%22","trendMapped":"Civil+War","trendVolume":319925},{"stateName":"AZ","trendName":"Like I Would","placeID":"2508428","placeName":"Tucson","searchUrl":"http:\/\/twitter.com\/search?q=%22Like+I+Would%22","trendMapped":"Like+I+Would","trendVolume":255270},{"stateName":"AZ","trendName":"Marvel","placeID":"2508428","placeName":"Tucson","searchUrl":"http:\/\/twitter.com\/search?q=Marvel","trendMapped":"marvel","trendVolume":151861},{"stateName":"AZ","trendName":"OLLG","placeID":"2449808","placeName":"Mesa","searchUrl":"http:\/\/twitter.com\/search?q=OLLG","trendMapped":"ollg","trendVolume":75229},{"stateName":"CA","trendName":"#DangerousWomanTonight","placeID":"2488042","placeName":"San Jose","searchUrl":"http:\/\/twitter.com\/search?q=%23DangerousWomanTonight","trendMapped":"dangerous+woman+tonight","trendVolume":206859},{"stateName":"CA","trendName":"#DemDebate","placeID":"2488042","placeName":"San Jose","searchUrl":"http:\/\/twitter.com\/search?q=%23DemDebate","trendMapped":"dem+debate","trendVolume":580281},{"stateName":"CA","trendName":"#DolceAmoreFallingForYou","placeID":"2488042","placeName":"San Jose","searchUrl":"http:\/\/twitter.com\/search?q=%23DolceAmoreFallingForYou","trendMapped":"dolce+amore+falling+for+you","trendVolume":292465},{"stateName":"CA","trendName":"#InternationalWomensDay","placeID":"2488042","placeName":"San Jose","searchUrl":"http:\/\/twitter.com\/search?q=%23InternationalWomensDay","trendMapped":"international+womens+day","trendVolume":572974},{"stateName":"CA","trendName":"#LikeIWould","placeID":"2488042","placeName":"San Jose","searchUrl":"http:\/\/twitter.com\/search?q=%23LikeIWould","trendMapped":"like+i+would","trendVolume":113775},{"stateName":"CA","trendName":"#PURPOSETOUR","placeID":"2486340","placeName":"Sacramento","searchUrl":"http:\/\/twitter.com\/search?q=%23PURPOSETOUR","trendMapped":"purposetour","trendVolume":741760},{"stateName":"CA","trendName":"#PurposeTourSeattle","placeID":"2487956","placeName":"San Francisco","searchUrl":"http:\/\/twitter.com\/search?q=%23PurposeTourSeattle","trendMapped":"purpose+tour+seattle","trendVolume":511555},{"stateName":"CA","trendName":"Chelsea","placeID":"2488042","placeName":"San Jose","searchUrl":"http:\/\/twitter.com\/search?q=Chelsea","trendMapped":"chelsea","trendVolume":485871},{"stateName":"CA","trendName":"Civil War","placeID":"2487956","placeName":"San Francisco","searchUrl":"http:\/\/twitter.com\/search?q=%22Civil+War%22","trendMapped":"Civil+War","trendVolume":128736},{"stateName":"CA","trendName":"Like I Would","placeID":"2407517","placeName":"Fresno","searchUrl":"http:\/\/twitter.com\/search?q=%22Like+I+Would%22","trendMapped":"Like+I+Would","trendVolume":252969},{"stateName":"CA","trendName":"Marvel","placeID":"2488042","placeName":"San Jose","searchUrl":"http:\/\/twitter.com\/search?q=Marvel","trendMapped":"marvel","trendVolume":166421},{"stateName":"CA","trendName":"OLLG","placeID":"2488042","placeName":"San Jose","searchUrl":"http:\/\/twitter.com\/search?q=OLLG","trendMapped":"ollg","trendVolume":85167},{"stateName":"CO","trendName":"#DangerousWomanTonight","placeID":"2391279","placeName":"Denver","searchUrl":"http:\/\/twitter.com\/search?q=%23DangerousWomanTonight","trendMapped":"dangerous+woman+tonight","trendVolume":200156},{"stateName":"CO","trendName":"#DemDebate","placeID":"2391279","placeName":"Denver","searchUrl":"http:\/\/twitter.com\/search?q=%23DemDebate","trendMapped":"dem+debate","trendVolume":586084},{"stateName":"CO","trendName":"#DolceAmoreFallingForYou","placeID":"2383489","placeName":"Colorado Springs","searchUrl":"http:\/\/twitter.com\/search?q=%23DolceAmoreFallingForYou","trendMapped":"dolce+amore+falling+for+you","trendVolume":337129},{"stateName":"CO","trendName":"#InternationalWomensDay","placeID":"2391279","placeName":"Denver","searchUrl":"http:\/\/twitter.com\/search?q=%23InternationalWomensDay","trendMapped":"international+womens+day","trendVolume":385769},{"stateName":"CO","trendName":"#LikeIWould","placeID":"2383489","placeName":"Colorado Springs","searchUrl":"http:\/\/twitter.com\/search?q=%23LikeIWould","trendMapped":"like+i+would","trendVolume":115813},{"stateName":"CO","trendName":"#PURPOSETOUR","placeID":"2391279","placeName":"Denver","searchUrl":"http:\/\/twitter.com\/search?q=%23PURPOSETOUR","trendMapped":"purposetour","trendVolume":703114},{"stateName":"CO","trendName":"#PurposeTourSeattle","placeID":"2383489","placeName":"Colorado Springs","searchUrl":"http:\/\/twitter.com\/search?q=%23PurposeTourSeattle","trendMapped":"purpose+tour+seattle","trendVolume":185061},{"stateName":"CO","trendName":"Chelsea","placeID":"2391279","placeName":"Denver","searchUrl":"http:\/\/twitter.com\/search?q=Chelsea","trendMapped":"chelsea","trendVolume":485580},{"stateName":"CO","trendName":"Giants","placeID":"2391279","placeName":"Denver","searchUrl":"http:\/\/twitter.com\/search?q=Giants","trendMapped":"giants","trendVolume":146036},{"stateName":"CO","trendName":"Like I Would","placeID":"2383489","placeName":"Colorado Springs","searchUrl":"http:\/\/twitter.com\/search?q=%22Like+I+Would%22","trendMapped":"Like+I+Would","trendVolume":252969},{"stateName":"CO","trendName":"Marvel","placeID":"2383489","placeName":"Colorado Springs","searchUrl":"http:\/\/twitter.com\/search?q=Marvel","trendMapped":"marvel","trendVolume":151861},{"stateName":"CO","trendName":"OLLG","placeID":"2383489","placeName":"Colorado Springs","searchUrl":"http:\/\/twitter.com\/search?q=OLLG","trendMapped":"ollg","trendVolume":85545},{"stateName":"CT","trendName":"#DemDebate","placeID":"2458410","placeName":"New Haven","searchUrl":"http:\/\/twitter.com\/search?q=%23DemDebate","trendMapped":"dem+debate","trendVolume":581058},{"stateName":"CT","trendName":"#InternationalWomensDay","placeID":"2458410","placeName":"New Haven","searchUrl":"http:\/\/twitter.com\/search?q=%23InternationalWomensDay","trendMapped":"international+womens+day","trendVolume":466724},{"stateName":"CT","trendName":"Chelsea","placeID":"2458410","placeName":"New Haven","searchUrl":"http:\/\/twitter.com\/search?q=Chelsea","trendMapped":"chelsea","trendVolume":480059},{"stateName":"DC","trendName":"#DangerousWomanTonight","placeID":"2514815","placeName":"Washington","searchUrl":"http:\/\/twitter.com\/search?q=%23DangerousWomanTonight","trendMapped":"dangerous+woman+tonight","trendVolume":174495},{"stateName":"DC","trendName":"#DemDebate","placeID":"2514815","placeName":"Washington","searchUrl":"http:\/\/twitter.com\/search?q=%23DemDebate","trendMapped":"dem+debate","trendVolume":540970},{"stateName":"DC","trendName":"#LikeIWould","placeID":"2514815","placeName":"Washington","searchUrl":"http:\/\/twitter.com\/search?q=%23LikeIWould","trendMapped":"like+i+would","trendVolume":107444},{"stateName":"DC","trendName":"Giants","placeID":"2514815","placeName":"Washington","searchUrl":"http:\/\/twitter.com\/search?q=Giants","trendMapped":"giants","trendVolume":145232},{"stateName":"DC","trendName":"Like I Would","placeID":"2514815","placeName":"Washington","searchUrl":"http:\/\/twitter.com\/search?q=%22Like+I+Would%22","trendMapped":"Like+I+Would","trendVolume":253744},{"stateName":"FL","trendName":"#DemDebate","placeID":"2503863","placeName":"Tampa","searchUrl":"http:\/\/twitter.com\/search?q=%23DemDebate","trendMapped":"dem+debate","trendVolume":583944},{"stateName":"FL","trendName":"#IWD2016","placeID":"2503713","placeName":"Tallahassee","searchUrl":"http:\/\/twitter.com\/search?q=%23IWD2016","trendMapped":"iwd2016","trendVolume":198804},{"stateName":"FL","trendName":"#InternationalWomensDay","placeID":"2503863","placeName":"Tampa","searchUrl":"http:\/\/twitter.com\/search?q=%23InternationalWomensDay","trendMapped":"international+womens+day","trendVolume":573984},{"stateName":"FL","trendName":"#LikeIWould","placeID":"2450022","placeName":"Miami","searchUrl":"http:\/\/twitter.com\/search?q=%23LikeIWould","trendMapped":"like+i+would","trendVolume":115813},{"stateName":"FL","trendName":"#PURPOSETOUR","placeID":"2466256","placeName":"Orlando","searchUrl":"http:\/\/twitter.com\/search?q=%23PURPOSETOUR","trendMapped":"purposetour","trendVolume":756018},{"stateName":"FL","trendName":"#PurposeTourSeattle","placeID":"2450022","placeName":"Miami","searchUrl":"http:\/\/twitter.com\/search?q=%23PurposeTourSeattle","trendMapped":"purpose+tour+seattle","trendVolume":564208},{"stateName":"FL","trendName":"#TeamIronMan","placeID":"2450022","placeName":"Miami","searchUrl":"http:\/\/twitter.com\/search?q=%23TeamIronMan","trendMapped":"team+iron+man","trendVolume":134740},{"stateName":"FL","trendName":"Bernie","placeID":"2503713","placeName":"Tallahassee","searchUrl":"http:\/\/twitter.com\/search?q=Bernie","trendMapped":"bernie","trendVolume":446328},{"stateName":"FL","trendName":"Civil War","placeID":"2466256","placeName":"Orlando","searchUrl":"http:\/\/twitter.com\/search?q=%22Civil+War%22","trendMapped":"Civil+War","trendVolume":234766},{"stateName":"FL","trendName":"Like I Would","placeID":"2466256","placeName":"Orlando","searchUrl":"http:\/\/twitter.com\/search?q=%22Like+I+Would%22","trendMapped":"Like+I+Would","trendVolume":255270},{"stateName":"FL","trendName":"Marvel","placeID":"2503863","placeName":"Tampa","searchUrl":"http:\/\/twitter.com\/search?q=Marvel","trendMapped":"marvel","trendVolume":163048},{"stateName":"GA","trendName":"#DemDebate","placeID":"2357024","placeName":"Atlanta","searchUrl":"http:\/\/twitter.com\/search?q=%23DemDebate","trendMapped":"dem+debate","trendVolume":572881},{"stateName":"GA","trendName":"#PurposeTourSeattle","placeID":"2357024","placeName":"Atlanta","searchUrl":"http:\/\/twitter.com\/search?q=%23PurposeTourSeattle","trendMapped":"purpose+tour+seattle","trendVolume":147088},{"stateName":"GA","trendName":"Civil War","placeID":"2357024","placeName":"Atlanta","searchUrl":"http:\/\/twitter.com\/search?q=%22Civil+War%22","trendMapped":"Civil+War","trendVolume":308789},{"stateName":"GA","trendName":"United","placeID":"2357024","placeName":"Atlanta","searchUrl":"http:\/\/twitter.com\/search?q=United","trendMapped":"united","trendVolume":538988},{"stateName":"HI","trendName":"#DemDebate","placeID":"2423945","placeName":"Honolulu","searchUrl":"http:\/\/twitter.com\/search?q=%23DemDebate","trendMapped":"dem+debate","trendVolume":585511},{"stateName":"HI","trendName":"#IWD2016","placeID":"2423945","placeName":"Honolulu","searchUrl":"http:\/\/twitter.com\/search?q=%23IWD2016","trendMapped":"iwd2016","trendVolume":198972},{"stateName":"HI","trendName":"Chelsea","placeID":"2423945","placeName":"Honolulu","searchUrl":"http:\/\/twitter.com\/search?q=Chelsea","trendMapped":"chelsea","trendVolume":486532},{"stateName":"IL","trendName":"#DemDebate","placeID":"2379574","placeName":"Chicago","searchUrl":"http:\/\/twitter.com\/search?q=%23DemDebate","trendMapped":"dem+debate","trendVolume":573844},{"stateName":"IL","trendName":"#LikeIWould","placeID":"2379574","placeName":"Chicago","searchUrl":"http:\/\/twitter.com\/search?q=%23LikeIWould","trendMapped":"like+i+would","trendVolume":115112},{"stateName":"IL","trendName":"Chelsea","placeID":"2379574","placeName":"Chicago","searchUrl":"http:\/\/twitter.com\/search?q=Chelsea","trendMapped":"chelsea","trendVolume":485871},{"stateName":"IL","trendName":"Civil War","placeID":"2379574","placeName":"Chicago","searchUrl":"http:\/\/twitter.com\/search?q=%22Civil+War%22","trendMapped":"Civil+War","trendVolume":313846},{"stateName":"IN","trendName":"#DemDebate","placeID":"2427032","placeName":"Indianapolis","searchUrl":"http:\/\/twitter.com\/search?q=%23DemDebate","trendMapped":"dem+debate","trendVolume":584644},{"stateName":"IN","trendName":"#InternationalWomensDay","placeID":"2427032","placeName":"Indianapolis","searchUrl":"http:\/\/twitter.com\/search?q=%23InternationalWomensDay","trendMapped":"international+womens+day","trendVolume":383942},{"stateName":"KY","trendName":"#DangerousWomanTonight","placeID":"2442327","placeName":"Louisville","searchUrl":"http:\/\/twitter.com\/search?q=%23DangerousWomanTonight","trendMapped":"dangerous+woman+tonight","trendVolume":195926},{"stateName":"KY","trendName":"#DemDebate","placeID":"2442327","placeName":"Louisville","searchUrl":"http:\/\/twitter.com\/search?q=%23DemDebate","trendMapped":"dem+debate","trendVolume":579967},{"stateName":"KY","trendName":"#InternationalWomensDay","placeID":"2442327","placeName":"Louisville","searchUrl":"http:\/\/twitter.com\/search?q=%23InternationalWomensDay","trendMapped":"international+womens+day","trendVolume":466724},{"stateName":"KY","trendName":"Bernie","placeID":"2442327","placeName":"Louisville","searchUrl":"http:\/\/twitter.com\/search?q=Bernie","trendMapped":"bernie","trendVolume":438448},{"stateName":"KY","trendName":"George Martin","placeID":"2442327","placeName":"Louisville","searchUrl":"http:\/\/twitter.com\/search?q=%22George+Martin%22","trendMapped":"George+Martin","trendVolume":357442},{"stateName":"LA","trendName":"#DemDebate","placeID":"2458833","placeName":"New Orleans","searchUrl":"http:\/\/twitter.com\/search?q=%23DemDebate","trendMapped":"dem+debate","trendVolume":584793},{"stateName":"LA","trendName":"#InternationalWomensDay","placeID":"2458833","placeName":"New Orleans","searchUrl":"http:\/\/twitter.com\/search?q=%23InternationalWomensDay","trendMapped":"international+womens+day","trendVolume":571121},{"stateName":"MA","trendName":"#5SOSFam","placeID":"2367105","placeName":"Boston","searchUrl":"http:\/\/twitter.com\/search?q=%235SOSFam","trendMapped":"5+sos+fam","trendVolume":1043903},{"stateName":"MA","trendName":"#DangerousWomanTonight","placeID":"2367105","placeName":"Boston","searchUrl":"http:\/\/twitter.com\/search?q=%23DangerousWomanTonight","trendMapped":"dangerous+woman+tonight","trendVolume":208919},{"stateName":"MA","trendName":"#DemDebate","placeID":"2367105","placeName":"Boston","searchUrl":"http:\/\/twitter.com\/search?q=%23DemDebate","trendMapped":"dem+debate","trendVolume":572881},{"stateName":"MA","trendName":"#PurposeTourSeattle","placeID":"2367105","placeName":"Boston","searchUrl":"http:\/\/twitter.com\/search?q=%23PurposeTourSeattle","trendMapped":"purpose+tour+seattle","trendVolume":213035},{"stateName":"MA","trendName":"Chelsea","placeID":"2367105","placeName":"Boston","searchUrl":"http:\/\/twitter.com\/search?q=Chelsea","trendMapped":"chelsea","trendVolume":476687},{"stateName":"MA","trendName":"Marvel","placeID":"2367105","placeName":"Boston","searchUrl":"http:\/\/twitter.com\/search?q=Marvel","trendMapped":"marvel","trendVolume":159751},{"stateName":"MD","trendName":"#DemDebate","placeID":"2358820","placeName":"Baltimore","searchUrl":"http:\/\/twitter.com\/search?q=%23DemDebate","trendMapped":"dem+debate","trendVolume":585711},{"stateName":"MD","trendName":"#InternationalWomensDay","placeID":"2358820","placeName":"Baltimore","searchUrl":"http:\/\/twitter.com\/search?q=%23InternationalWomensDay","trendMapped":"international+womens+day","trendVolume":575191},{"stateName":"MD","trendName":"#PURPOSETOUR","placeID":"2358820","placeName":"Baltimore","searchUrl":"http:\/\/twitter.com\/search?q=%23PURPOSETOUR","trendMapped":"purposetour","trendVolume":732550},{"stateName":"MD","trendName":"#TeamCap","placeID":"2358820","placeName":"Baltimore","searchUrl":"http:\/\/twitter.com\/search?q=%23TeamCap","trendMapped":"team+cap","trendVolume":193818},{"stateName":"MD","trendName":"Chelsea","placeID":"2358820","placeName":"Baltimore","searchUrl":"http:\/\/twitter.com\/search?q=Chelsea","trendMapped":"chelsea","trendVolume":484680},{"stateName":"MD","trendName":"Like I Would","placeID":"2358820","placeName":"Baltimore","searchUrl":"http:\/\/twitter.com\/search?q=%22Like+I+Would%22","trendMapped":"Like+I+Would","trendVolume":255270},{"stateName":"MI","trendName":"#DangerousWomanTonight","placeID":"2391585","placeName":"Detroit","searchUrl":"http:\/\/twitter.com\/search?q=%23DangerousWomanTonight","trendMapped":"dangerous+woman+tonight","trendVolume":190107},{"stateName":"MI","trendName":"#DolceAmoreFallingForYou","placeID":"2391585","placeName":"Detroit","searchUrl":"http:\/\/twitter.com\/search?q=%23DolceAmoreFallingForYou","trendMapped":"dolce+amore+falling+for+you","trendVolume":310067},{"stateName":"MI","trendName":"#InternationalWomensDay","placeID":"2391585","placeName":"Detroit","searchUrl":"http:\/\/twitter.com\/search?q=%23InternationalWomensDay","trendMapped":"international+womens+day","trendVolume":325408},{"stateName":"MI","trendName":"#LikeIWould","placeID":"2391585","placeName":"Detroit","searchUrl":"http:\/\/twitter.com\/search?q=%23LikeIWould","trendMapped":"like+i+would","trendVolume":113435},{"stateName":"MI","trendName":"#PurposeTourSeattle","placeID":"2391585","placeName":"Detroit","searchUrl":"http:\/\/twitter.com\/search?q=%23PurposeTourSeattle","trendMapped":"purpose+tour+seattle","trendVolume":444846},{"stateName":"MI","trendName":"#TheTriggering","placeID":"2391585","placeName":"Detroit","searchUrl":"http:\/\/twitter.com\/search?q=%23TheTriggering","trendMapped":"the+triggering","trendVolume":233635},{"stateName":"MN","trendName":"#DemDebate","placeID":"2452078","placeName":"Minneapolis","searchUrl":"http:\/\/twitter.com\/search?q=%23DemDebate","trendMapped":"dem+debate","trendVolume":583944},{"stateName":"MN","trendName":"#InternationalWomensDay","placeID":"2452078","placeName":"Minneapolis","searchUrl":"http:\/\/twitter.com\/search?q=%23InternationalWomensDay","trendMapped":"international+womens+day","trendVolume":385769},{"stateName":"MO","trendName":"#DangerousWomanTonight","placeID":"2486982","placeName":"St. Louis","searchUrl":"http:\/\/twitter.com\/search?q=%23DangerousWomanTonight","trendMapped":"dangerous+woman+tonight","trendVolume":200156},{"stateName":"MO","trendName":"#DemDebate","placeID":"2486982","placeName":"St. Louis","searchUrl":"http:\/\/twitter.com\/search?q=%23DemDebate","trendMapped":"dem+debate","trendVolume":586084},{"stateName":"MO","trendName":"#DolceAmoreFallingForYou","placeID":"2486982","placeName":"St. Louis","searchUrl":"http:\/\/twitter.com\/search?q=%23DolceAmoreFallingForYou","trendMapped":"dolce+amore+falling+for+you","trendVolume":323983},{"stateName":"MO","trendName":"#InternationalWomensDay","placeID":"2486982","placeName":"St. Louis","searchUrl":"http:\/\/twitter.com\/search?q=%23InternationalWomensDay","trendMapped":"international+womens+day","trendVolume":572974},{"stateName":"MO","trendName":"#PURPOSETOUR","placeID":"2486982","placeName":"St. Louis","searchUrl":"http:\/\/twitter.com\/search?q=%23PURPOSETOUR","trendMapped":"purposetour","trendVolume":568038},{"stateName":"MO","trendName":"#PurposeTourSeattle","placeID":"2486982","placeName":"St. Louis","searchUrl":"http:\/\/twitter.com\/search?q=%23PurposeTourSeattle","trendMapped":"purpose+tour+seattle","trendVolume":163788},{"stateName":"MO","trendName":"#TheTriggering","placeID":"2486982","placeName":"St. Louis","searchUrl":"http:\/\/twitter.com\/search?q=%23TheTriggering","trendMapped":"the+triggering","trendVolume":231124},{"stateName":"MO","trendName":"Civil War","placeID":"2486982","placeName":"St. Louis","searchUrl":"http:\/\/twitter.com\/search?q=%22Civil+War%22","trendMapped":"Civil+War","trendVolume":335592},{"stateName":"MO","trendName":"Giants","placeID":"2486982","placeName":"St. Louis","searchUrl":"http:\/\/twitter.com\/search?q=Giants","trendMapped":"giants","trendVolume":146923},{"stateName":"MS","trendName":"#InternationalWomensDay","placeID":"2428184","placeName":"Jackson","searchUrl":"http:\/\/twitter.com\/search?q=%23InternationalWomensDay","trendMapped":"international+womens+day","trendVolume":575191},{"stateName":"MS","trendName":"Chelsea","placeID":"2428184","placeName":"Jackson","searchUrl":"http:\/\/twitter.com\/search?q=Chelsea","trendMapped":"chelsea","trendVolume":486532},{"stateName":"MS","trendName":"Hillary","placeID":"2428184","placeName":"Jackson","searchUrl":"http:\/\/twitter.com\/search?q=Hillary","trendMapped":"hillary","trendVolume":429217},{"stateName":"NC","trendName":"#DemDebate","placeID":"2478307","placeName":"Raleigh","searchUrl":"http:\/\/twitter.com\/search?q=%23DemDebate","trendMapped":"dem+debate","trendVolume":579212},{"stateName":"NC","trendName":"#InternationalWomensDay","placeID":"2414469","placeName":"Greensboro","searchUrl":"http:\/\/twitter.com\/search?q=%23InternationalWomensDay","trendMapped":"international+womens+day","trendVolume":572974},{"stateName":"NC","trendName":"Civil War","placeID":"2478307","placeName":"Raleigh","searchUrl":"http:\/\/twitter.com\/search?q=%22Civil+War%22","trendMapped":"Civil+War","trendVolume":346358},{"stateName":"NE","trendName":"#DemDebate","placeID":"2465512","placeName":"Omaha","searchUrl":"http:\/\/twitter.com\/search?q=%23DemDebate","trendMapped":"dem+debate","trendVolume":585084},{"stateName":"NE","trendName":"#PURPOSETOUR","placeID":"2465512","placeName":"Omaha","searchUrl":"http:\/\/twitter.com\/search?q=%23PURPOSETOUR","trendMapped":"purposetour","trendVolume":716455},{"stateName":"NM","trendName":"#DemDebate","placeID":"2352824","placeName":"Albuquerque","searchUrl":"http:\/\/twitter.com\/search?q=%23DemDebate","trendMapped":"dem+debate","trendVolume":474219},{"stateName":"NM","trendName":"#DolceAmoreFallingForYou","placeID":"2352824","placeName":"Albuquerque","searchUrl":"http:\/\/twitter.com\/search?q=%23DolceAmoreFallingForYou","trendMapped":"dolce+amore+falling+for+you","trendVolume":319478},{"stateName":"NM","trendName":"#InternationalWomensDay","placeID":"2352824","placeName":"Albuquerque","searchUrl":"http:\/\/twitter.com\/search?q=%23InternationalWomensDay","trendMapped":"international+womens+day","trendVolume":199991},{"stateName":"NM","trendName":"#LikeIWould","placeID":"2352824","placeName":"Albuquerque","searchUrl":"http:\/\/twitter.com\/search?q=%23LikeIWould","trendMapped":"like+i+would","trendVolume":113435},{"stateName":"NM","trendName":"#PurposeTourSeattle","placeID":"2352824","placeName":"Albuquerque","searchUrl":"http:\/\/twitter.com\/search?q=%23PurposeTourSeattle","trendMapped":"purpose+tour+seattle","trendVolume":496640},{"stateName":"NM","trendName":"Giants","placeID":"2352824","placeName":"Albuquerque","searchUrl":"http:\/\/twitter.com\/search?q=Giants","trendMapped":"giants","trendVolume":145232},{"stateName":"NM","trendName":"Marvel","placeID":"2352824","placeName":"Albuquerque","searchUrl":"http:\/\/twitter.com\/search?q=Marvel","trendMapped":"marvel","trendVolume":140871},{"stateName":"NV","trendName":"#DemDebate","placeID":"2436704","placeName":"Las Vegas","searchUrl":"http:\/\/twitter.com\/search?q=%23DemDebate","trendMapped":"dem+debate","trendVolume":581058},{"stateName":"NV","trendName":"#InternationalWomensDay","placeID":"2436704","placeName":"Las Vegas","searchUrl":"http:\/\/twitter.com\/search?q=%23InternationalWomensDay","trendMapped":"international+womens+day","trendVolume":675644},{"stateName":"NV","trendName":"Civil War","placeID":"2436704","placeName":"Las Vegas","searchUrl":"http:\/\/twitter.com\/search?q=%22Civil+War%22","trendMapped":"Civil+War","trendVolume":346358},{"stateName":"NY","trendName":"#DemDebate","placeID":"2459115","placeName":"New York","searchUrl":"http:\/\/twitter.com\/search?q=%23DemDebate","trendMapped":"dem+debate","trendVolume":536268},{"stateName":"NY","trendName":"#LikeIWould","placeID":"2459115","placeName":"New York","searchUrl":"http:\/\/twitter.com\/search?q=%23LikeIWould","trendMapped":"like+i+would","trendVolume":106240},{"stateName":"NY","trendName":"Giants","placeID":"2459115","placeName":"New York","searchUrl":"http:\/\/twitter.com\/search?q=Giants","trendMapped":"giants","trendVolume":146923},{"stateName":"NY","trendName":"Like I Would","placeID":"2459115","placeName":"New York","searchUrl":"http:\/\/twitter.com\/search?q=%22Like+I+Would%22","trendMapped":"Like+I+Would","trendVolume":255270},{"stateName":"NY","trendName":"Marvel","placeID":"2459115","placeName":"New York","searchUrl":"http:\/\/twitter.com\/search?q=Marvel","trendMapped":"marvel","trendVolume":164611},{"stateName":"NY","trendName":"OLLG","placeID":"2459115","placeName":"New York","searchUrl":"http:\/\/twitter.com\/search?q=OLLG","trendMapped":"ollg","trendVolume":79984},{"stateName":"OH","trendName":"#DangerousWomanTonight","placeID":"2381475","placeName":"Cleveland","searchUrl":"http:\/\/twitter.com\/search?q=%23DangerousWomanTonight","trendMapped":"dangerous+woman+tonight","trendVolume":195926},{"stateName":"OH","trendName":"#DemDebate","placeID":"2383660","placeName":"Columbus","searchUrl":"http:\/\/twitter.com\/search?q=%23DemDebate","trendMapped":"dem+debate","trendVolume":583698},{"stateName":"OH","trendName":"#InternationalWomensDay","placeID":"2383660","placeName":"Columbus","searchUrl":"http:\/\/twitter.com\/search?q=%23InternationalWomensDay","trendMapped":"international+womens+day","trendVolume":575191},{"stateName":"OH","trendName":"#LikeIWould","placeID":"2381475","placeName":"Cleveland","searchUrl":"http:\/\/twitter.com\/search?q=%23LikeIWould","trendMapped":"like+i+would","trendVolume":108209},{"stateName":"OH","trendName":"#PurposeTourSeattle","placeID":"2381475","placeName":"Cleveland","searchUrl":"http:\/\/twitter.com\/search?q=%23PurposeTourSeattle","trendMapped":"purpose+tour+seattle","trendVolume":496640},{"stateName":"OH","trendName":"#TheTriggering","placeID":"2381475","placeName":"Cleveland","searchUrl":"http:\/\/twitter.com\/search?q=%23TheTriggering","trendMapped":"the+triggering","trendVolume":232192},{"stateName":"OH","trendName":"Chelsea","placeID":"2381475","placeName":"Cleveland","searchUrl":"http:\/\/twitter.com\/search?q=Chelsea","trendMapped":"chelsea","trendVolume":484680},{"stateName":"OH","trendName":"Civil War","placeID":"2381475","placeName":"Cleveland","searchUrl":"http:\/\/twitter.com\/search?q=%22Civil+War%22","trendMapped":"Civil+War","trendVolume":234766},{"stateName":"OH","trendName":"George Martin","placeID":"2383660","placeName":"Columbus","searchUrl":"http:\/\/twitter.com\/search?q=%22George+Martin%22","trendMapped":"George+Martin","trendVolume":358394},{"stateName":"OH","trendName":"Giants","placeID":"2381475","placeName":"Cleveland","searchUrl":"http:\/\/twitter.com\/search?q=Giants","trendMapped":"giants","trendVolume":145232},{"stateName":"OH","trendName":"Marvel","placeID":"2381475","placeName":"Cleveland","searchUrl":"http:\/\/twitter.com\/search?q=Marvel","trendMapped":"marvel","trendVolume":164611},{"stateName":"OK","trendName":"#DemDebate","placeID":"2464592","placeName":"Oklahoma City","searchUrl":"http:\/\/twitter.com\/search?q=%23DemDebate","trendMapped":"dem+debate","trendVolume":581058},{"stateName":"OK","trendName":"#InternationalWomensDay","placeID":"2464592","placeName":"Oklahoma City","searchUrl":"http:\/\/twitter.com\/search?q=%23InternationalWomensDay","trendMapped":"international+womens+day","trendVolume":571121},{"stateName":"OK","trendName":"House","placeID":"2464592","placeName":"Oklahoma City","searchUrl":"http:\/\/twitter.com\/search?q=House","trendMapped":"house","trendVolume":522626},{"stateName":"OR","trendName":"#DemDebate","placeID":"2475687","placeName":"Portland","searchUrl":"http:\/\/twitter.com\/search?q=%23DemDebate","trendMapped":"dem+debate","trendVolume":585711},{"stateName":"OR","trendName":"#InternationalWomensDay","placeID":"2475687","placeName":"Portland","searchUrl":"http:\/\/twitter.com\/search?q=%23InternationalWomensDay","trendMapped":"international+womens+day","trendVolume":386464},{"stateName":"OR","trendName":"#PURPOSETOUR","placeID":"2475687","placeName":"Portland","searchUrl":"http:\/\/twitter.com\/search?q=%23PURPOSETOUR","trendMapped":"purposetour","trendVolume":718030},{"stateName":"PA","trendName":"#DangerousWomanTonight","placeID":"2471217","placeName":"Philadelphia","searchUrl":"http:\/\/twitter.com\/search?q=%23DangerousWomanTonight","trendMapped":"dangerous+woman+tonight","trendVolume":179944},{"stateName":"PA","trendName":"#DemDebate","placeID":"2473224","placeName":"Pittsburgh","searchUrl":"http:\/\/twitter.com\/search?q=%23DemDebate","trendMapped":"dem+debate","trendVolume":585711},{"stateName":"PA","trendName":"#InternationalWomensDay","placeID":"2418046","placeName":"Harrisburg","searchUrl":"http:\/\/twitter.com\/search?q=%23InternationalWomensDay","trendMapped":"international+womens+day","trendVolume":466081},{"stateName":"PA","trendName":"#LikeIWould","placeID":"2471217","placeName":"Philadelphia","searchUrl":"http:\/\/twitter.com\/search?q=%23LikeIWould","trendMapped":"like+i+would","trendVolume":108209},{"stateName":"PA","trendName":"#PurposeTourSeattle","placeID":"2471217","placeName":"Philadelphia","searchUrl":"http:\/\/twitter.com\/search?q=%23PurposeTourSeattle","trendMapped":"purpose+tour+seattle","trendVolume":577333},{"stateName":"PA","trendName":"#TheTriggering","placeID":"2473224","placeName":"Pittsburgh","searchUrl":"http:\/\/twitter.com\/search?q=%23TheTriggering","trendMapped":"the+triggering","trendVolume":218631},{"stateName":"PA","trendName":"Chelsea","placeID":"2471217","placeName":"Philadelphia","searchUrl":"http:\/\/twitter.com\/search?q=Chelsea","trendMapped":"chelsea","trendVolume":486532},{"stateName":"PA","trendName":"Marvel","placeID":"2471217","placeName":"Philadelphia","searchUrl":"http:\/\/twitter.com\/search?q=Marvel","trendMapped":"marvel","trendVolume":160863},{"stateName":"RI","trendName":"#DemDebate","placeID":"2477058","placeName":"Providence","searchUrl":"http:\/\/twitter.com\/search?q=%23DemDebate","trendMapped":"dem+debate","trendVolume":585084},{"stateName":"RI","trendName":"#InternationalWomensDay","placeID":"2477058","placeName":"Providence","searchUrl":"http:\/\/twitter.com\/search?q=%23InternationalWomensDay","trendMapped":"international+womens+day","trendVolume":466081},{"stateName":"RI","trendName":"#PURPOSETOUR","placeID":"2477058","placeName":"Providence","searchUrl":"http:\/\/twitter.com\/search?q=%23PURPOSETOUR","trendMapped":"purposetour","trendVolume":725613},{"stateName":"RI","trendName":"Chelsea","placeID":"2477058","placeName":"Providence","searchUrl":"http:\/\/twitter.com\/search?q=Chelsea","trendMapped":"chelsea","trendVolume":484680},{"stateName":"TN","trendName":"#DemDebate","placeID":"2457170","placeName":"Nashville","searchUrl":"http:\/\/twitter.com\/search?q=%23DemDebate","trendMapped":"dem+debate","trendVolume":585711},{"stateName":"TN","trendName":"#InternationalWomensDay","placeID":"2457170","placeName":"Nashville","searchUrl":"http:\/\/twitter.com\/search?q=%23InternationalWomensDay","trendMapped":"international+womens+day","trendVolume":390436},{"stateName":"TN","trendName":"#LikeIWould","placeID":"2457170","placeName":"Nashville","searchUrl":"http:\/\/twitter.com\/search?q=%23LikeIWould","trendMapped":"like+i+would","trendVolume":113775},{"stateName":"TN","trendName":"Chelsea","placeID":"2457170","placeName":"Nashville","searchUrl":"http:\/\/twitter.com\/search?q=Chelsea","trendMapped":"chelsea","trendVolume":485871},{"stateName":"TN","trendName":"Like I Would","placeID":"2449323","placeName":"Memphis","searchUrl":"http:\/\/twitter.com\/search?q=%22Like+I+Would%22","trendMapped":"Like+I+Would","trendVolume":253744},{"stateName":"TN","trendName":"Marvel","placeID":"2449323","placeName":"Memphis","searchUrl":"http:\/\/twitter.com\/search?q=Marvel","trendMapped":"marvel","trendVolume":155876},{"stateName":"TX","trendName":"#DangerousWomanTonight","placeID":"2424766","placeName":"Houston","searchUrl":"http:\/\/twitter.com\/search?q=%23DangerousWomanTonight","trendMapped":"dangerous+woman+tonight","trendVolume":208919},{"stateName":"TX","trendName":"#DemDebate","placeID":"2487796","placeName":"San Antonio","searchUrl":"http:\/\/twitter.com\/search?q=%23DemDebate","trendMapped":"dem+debate","trendVolume":585511},{"stateName":"TX","trendName":"#InternationalWomensDay","placeID":"2424766","placeName":"Houston","searchUrl":"http:\/\/twitter.com\/search?q=%23InternationalWomensDay","trendMapped":"international+womens+day","trendVolume":675644},{"stateName":"TX","trendName":"#LikeIWould","placeID":"2388929","placeName":"Dallas-Ft. Worth","searchUrl":"http:\/\/twitter.com\/search?q=%23LikeIWould","trendMapped":"like+i+would","trendVolume":109140},{"stateName":"TX","trendName":"#PURPOSETOUR","placeID":"2487796","placeName":"San Antonio","searchUrl":"http:\/\/twitter.com\/search?q=%23PURPOSETOUR","trendMapped":"purposetour","trendVolume":756018},{"stateName":"TX","trendName":"#PurposeTourSeattle","placeID":"2424766","placeName":"Houston","searchUrl":"http:\/\/twitter.com\/search?q=%23PurposeTourSeattle","trendMapped":"purpose+tour+seattle","trendVolume":814151},{"stateName":"TX","trendName":"#TheTriggering","placeID":"2388929","placeName":"Dallas-Ft. Worth","searchUrl":"http:\/\/twitter.com\/search?q=%23TheTriggering","trendMapped":"the+triggering","trendVolume":215551},{"stateName":"TX","trendName":"Chelsea","placeID":"2424766","placeName":"Houston","searchUrl":"http:\/\/twitter.com\/search?q=Chelsea","trendMapped":"chelsea","trendVolume":484680},{"stateName":"TX","trendName":"Civil War","placeID":"2424766","placeName":"Houston","searchUrl":"http:\/\/twitter.com\/search?q=%22Civil+War%22","trendMapped":"Civil+War","trendVolume":295710},{"stateName":"TX","trendName":"George Martin","placeID":"2357536","placeName":"Austin","searchUrl":"http:\/\/twitter.com\/search?q=%22George+Martin%22","trendMapped":"George+Martin","trendVolume":358394},{"stateName":"TX","trendName":"Like I Would","placeID":"2357536","placeName":"Austin","searchUrl":"http:\/\/twitter.com\/search?q=%22Like+I+Would%22","trendMapped":"Like+I+Would","trendVolume":252969},{"stateName":"TX","trendName":"Marvel","placeID":"2388929","placeName":"Dallas-Ft. Worth","searchUrl":"http:\/\/twitter.com\/search?q=Marvel","trendMapped":"marvel","trendVolume":166421},{"stateName":"UT","trendName":"#DemDebate","placeID":"2487610","placeName":"Salt Lake City","searchUrl":"http:\/\/twitter.com\/search?q=%23DemDebate","trendMapped":"dem+debate","trendVolume":579967},{"stateName":"UT","trendName":"#InternationalWomensDay","placeID":"2487610","placeName":"Salt Lake City","searchUrl":"http:\/\/twitter.com\/search?q=%23InternationalWomensDay","trendMapped":"international+womens+day","trendVolume":572563},{"stateName":"UT","trendName":"#PURPOSETOUR","placeID":"2487610","placeName":"Salt Lake City","searchUrl":"http:\/\/twitter.com\/search?q=%23PURPOSETOUR","trendMapped":"purposetour","trendVolume":741760},{"stateName":"UT","trendName":"#PurposeTourSeattle","placeID":"2487610","placeName":"Salt Lake City","searchUrl":"http:\/\/twitter.com\/search?q=%23PurposeTourSeattle","trendMapped":"purpose+tour+seattle","trendVolume":496640},{"stateName":"VA","trendName":"#DangerousWomanTonight","placeID":"2512636","placeName":"Virginia Beach","searchUrl":"http:\/\/twitter.com\/search?q=%23DangerousWomanTonight","trendMapped":"dangerous+woman+tonight","trendVolume":174495},{"stateName":"VA","trendName":"#DemDebate","placeID":"2512636","placeName":"Virginia Beach","searchUrl":"http:\/\/twitter.com\/search?q=%23DemDebate","trendMapped":"dem+debate","trendVolume":583944},{"stateName":"VA","trendName":"#DolceAmoreFallingForYou","placeID":"2512636","placeName":"Virginia Beach","searchUrl":"http:\/\/twitter.com\/search?q=%23DolceAmoreFallingForYou","trendMapped":"dolce+amore+falling+for+you","trendVolume":292465},{"stateName":"VA","trendName":"#InternationalWomensDay","placeID":"2480894","placeName":"Richmond","searchUrl":"http:\/\/twitter.com\/search?q=%23InternationalWomensDay","trendMapped":"international+womens+day","trendVolume":572974},{"stateName":"VA","trendName":"#LikeIWould","placeID":"2512636","placeName":"Virginia Beach","searchUrl":"http:\/\/twitter.com\/search?q=%23LikeIWould","trendMapped":"like+i+would","trendVolume":103322},{"stateName":"VA","trendName":"Bernie","placeID":"2480894","placeName":"Richmond","searchUrl":"http:\/\/twitter.com\/search?q=Bernie","trendMapped":"bernie","trendVolume":443112},{"stateName":"VA","trendName":"Chelsea","placeID":"2512636","placeName":"Virginia Beach","searchUrl":"http:\/\/twitter.com\/search?q=Chelsea","trendMapped":"chelsea","trendVolume":475739},{"stateName":"VA","trendName":"Marvel","placeID":"2512636","placeName":"Virginia Beach","searchUrl":"http:\/\/twitter.com\/search?q=Marvel","trendMapped":"marvel","trendVolume":159751},{"stateName":"VA","trendName":"OLLG","placeID":"2512636","placeName":"Virginia Beach","searchUrl":"http:\/\/twitter.com\/search?q=OLLG","trendMapped":"ollg","trendVolume":75229},{"stateName":"WA","trendName":"#DangerousWomanTonight","placeID":"2490383","placeName":"Seattle","searchUrl":"http:\/\/twitter.com\/search?q=%23DangerousWomanTonight","trendMapped":"dangerous+woman+tonight","trendVolume":208919},{"stateName":"WA","trendName":"#DemDebate","placeID":"2490383","placeName":"Seattle","searchUrl":"http:\/\/twitter.com\/search?q=%23DemDebate","trendMapped":"dem+debate","trendVolume":486979},{"stateName":"WA","trendName":"#InternationalWomensDay","placeID":"2490383","placeName":"Seattle","searchUrl":"http:\/\/twitter.com\/search?q=%23InternationalWomensDay","trendMapped":"international+womens+day","trendVolume":385439},{"stateName":"WA","trendName":"#PurposeTourSeattle","placeID":"2490383","placeName":"Seattle","searchUrl":"http:\/\/twitter.com\/search?q=%23PurposeTourSeattle","trendMapped":"purpose+tour+seattle","trendVolume":782738},{"stateName":"WA","trendName":"Chelsea","placeID":"2490383","placeName":"Seattle","searchUrl":"http:\/\/twitter.com\/search?q=Chelsea","trendMapped":"chelsea","trendVolume":485580},{"stateName":"WA","trendName":"Civil War","placeID":"2490383","placeName":"Seattle","searchUrl":"http:\/\/twitter.com\/search?q=%22Civil+War%22","trendMapped":"Civil+War","trendVolume":247077},{"stateName":"WA","trendName":"Marvel","placeID":"2490383","placeName":"Seattle","searchUrl":"http:\/\/twitter.com\/search?q=Marvel","trendMapped":"marvel","trendVolume":166421},{"stateName":"WI","trendName":"#DemDebate","placeID":"2451822","placeName":"Milwaukee","searchUrl":"http:\/\/twitter.com\/search?q=%23DemDebate","trendMapped":"dem+debate","trendVolume":586084},{"stateName":"WI","trendName":"#InternationalWomensDay","placeID":"2451822","placeName":"Milwaukee","searchUrl":"http:\/\/twitter.com\/search?q=%23InternationalWomensDay","trendMapped":"international+womens+day","trendVolume":390436},{"stateName":"WI","trendName":"Chelsea","placeID":"2451822","placeName":"Milwaukee","searchUrl":"http:\/\/twitter.com\/search?q=Chelsea","trendMapped":"chelsea","trendVolume":484011},{"stateName":"WI","trendName":"Michigan","placeID":"2451822","placeName":"Milwaukee","searchUrl":"http:\/\/twitter.com\/search?q=Michigan","trendMapped":"michigan","trendVolume":428699},{"stateName":"XX","trendName":"#DangerousWomanTonight","placeID":"23424977","placeName":"United States","searchUrl":"http:\/\/twitter.com\/search?q=%23DangerousWomanTonight","trendMapped":"dangerous+woman+tonight","trendVolume":200156},{"stateName":"XX","trendName":"#DemDebate","placeID":"23424977","placeName":"United States","searchUrl":"http:\/\/twitter.com\/search?q=%23DemDebate","trendMapped":"dem+debate","trendVolume":517867},{"stateName":"XX","trendName":"#DolceAmoreFallingForYou","placeID":"23424977","placeName":"United States","searchUrl":"http:\/\/twitter.com\/search?q=%23DolceAmoreFallingForYou","trendMapped":"dolce+amore+falling+for+you","trendVolume":211543},{"stateName":"XX","trendName":"#LikeIWould","placeID":"23424977","placeName":"United States","searchUrl":"http:\/\/twitter.com\/search?q=%23LikeIWould","trendMapped":"like+i+would","trendVolume":115112},{"stateName":"XX","trendName":"#PurposeTourSeattle","placeID":"23424977","placeName":"United States","searchUrl":"http:\/\/twitter.com\/search?q=%23PurposeTourSeattle","trendMapped":"purpose+tour+seattle","trendVolume":122422},{"stateName":"XX","trendName":"Marvel","placeID":"23424977","placeName":"United States","searchUrl":"http:\/\/twitter.com\/search?q=Marvel","trendMapped":"marvel","trendVolume":163048},{"stateName":"XX","trendName":"OLLG","placeID":"23424977","placeName":"United States","searchUrl":"http:\/\/twitter.com\/search?q=OLLG","trendMapped":"ollg","trendVolume":85167}]