[{"stateName":"AL","trendName":"#10YearsOfHannahMontana","placeID":"2364559","placeName":"Birmingham","searchUrl":"http:\/\/twitter.com\/search?q=%2310YearsOfHannahMontana","trendMapped":"10+years+of+hannah+montana","trendVolume":993711},{"stateName":"AL","trendName":"#1YearWithoutZayn","placeID":"2364559","placeName":"Birmingham","searchUrl":"http:\/\/twitter.com\/search?q=%231YearWithoutZayn","trendMapped":"1+year+without+zayn","trendVolume":439289},{"stateName":"AL","trendName":"#CruzSexScandal","placeID":"2364559","placeName":"Birmingham","searchUrl":"http:\/\/twitter.com\/search?q=%23CruzSexScandal","trendMapped":"cruz+sex+scandal","trendVolume":595557},{"stateName":"AL","trendName":"#MindOfMine","placeID":"2364559","placeName":"Birmingham","searchUrl":"http:\/\/twitter.com\/search?q=%23MindOfMine","trendMapped":"mind+of+mine","trendVolume":977348},{"stateName":"AL","trendName":"Chile","placeID":"2364559","placeName":"Birmingham","searchUrl":"http:\/\/twitter.com\/search?q=Chile","trendMapped":"chile","trendVolume":266271},{"stateName":"AL","trendName":"Johan Cruyff","placeID":"2364559","placeName":"Birmingham","searchUrl":"http:\/\/twitter.com\/search?q=%22Johan+Cruyff%22","trendMapped":"Johan+Cruyff","trendVolume":1152206},{"stateName":"AZ","trendName":"#10YearsOfHannahMontana","placeID":"2449808","placeName":"Mesa","searchUrl":"http:\/\/twitter.com\/search?q=%2310YearsOfHannahMontana","trendMapped":"10+years+of+hannah+montana","trendVolume":992807},{"stateName":"AZ","trendName":"#1YearWithoutZayn","placeID":"2508428","placeName":"Tucson","searchUrl":"http:\/\/twitter.com\/search?q=%231YearWithoutZayn","trendMapped":"1+year+without+zayn","trendVolume":472710},{"stateName":"AZ","trendName":"#CamilaIsOurPrincess","placeID":"2508428","placeName":"Tucson","searchUrl":"http:\/\/twitter.com\/search?q=%23CamilaIsOurPrincess","trendMapped":"camila+is+our+princess","trendVolume":89832},{"stateName":"AZ","trendName":"#CruzSexScandal","placeID":"2508428","placeName":"Tucson","searchUrl":"http:\/\/twitter.com\/search?q=%23CruzSexScandal","trendMapped":"cruz+sex+scandal","trendVolume":514837},{"stateName":"AZ","trendName":"#GoodFriday","placeID":"2508428","placeName":"Tucson","searchUrl":"http:\/\/twitter.com\/search?q=%23GoodFriday","trendMapped":"good+friday","trendVolume":159553},{"stateName":"AZ","trendName":"#MindOfMine","placeID":"2508428","placeName":"Tucson","searchUrl":"http:\/\/twitter.com\/search?q=%23MindOfMine","trendMapped":"mind+of+mine","trendVolume":989861},{"stateName":"AZ","trendName":"#PrayForNigeria","placeID":"2471390","placeName":"Phoenix","searchUrl":"http:\/\/twitter.com\/search?q=%23PrayForNigeria","trendMapped":"pray+for+nigeria","trendVolume":305029},{"stateName":"AZ","trendName":"CLEXA IS OURS","placeID":"2449808","placeName":"Mesa","searchUrl":"http:\/\/twitter.com\/search?q=%22CLEXA+IS+OURS%22","trendMapped":"CLEXA+IS+OURS","trendVolume":144204},{"stateName":"AZ","trendName":"Chile","placeID":"2508428","placeName":"Tucson","searchUrl":"http:\/\/twitter.com\/search?q=Chile","trendMapped":"chile","trendVolume":266271},{"stateName":"AZ","trendName":"Easter","placeID":"2471390","placeName":"Phoenix","searchUrl":"http:\/\/twitter.com\/search?q=Easter","trendMapped":"easter","trendVolume":844585},{"stateName":"AZ","trendName":"Garry Shandling","placeID":"2449808","placeName":"Mesa","searchUrl":"http:\/\/twitter.com\/search?q=%22Garry+Shandling%22","trendMapped":"Garry+Shandling","trendVolume":115828},{"stateName":"AZ","trendName":"I-10","placeID":"2471390","placeName":"Phoenix","searchUrl":"http:\/\/twitter.com\/search?q=I-10","trendMapped":"i-10","trendVolume":290928},{"stateName":"AZ","trendName":"Johan Cruyff","placeID":"2508428","placeName":"Tucson","searchUrl":"http:\/\/twitter.com\/search?q=%22Johan+Cruyff%22","trendMapped":"Johan+Cruyff","trendVolume":1152206},{"stateName":"CA","trendName":"#10YearsOfHannahMontana","placeID":"2487956","placeName":"San Francisco","searchUrl":"http:\/\/twitter.com\/search?q=%2310YearsOfHannahMontana","trendMapped":"10+years+of+hannah+montana","trendVolume":1007576},{"stateName":"CA","trendName":"#1YearWithoutZayn","placeID":"2488042","placeName":"San Jose","searchUrl":"http:\/\/twitter.com\/search?q=%231YearWithoutZayn","trendMapped":"1+year+without+zayn","trendVolume":476731},{"stateName":"CA","trendName":"#5HTheLife","placeID":"2487956","placeName":"San Francisco","searchUrl":"http:\/\/twitter.com\/search?q=%235HTheLife","trendMapped":"5+h+the+life","trendVolume":157506},{"stateName":"CA","trendName":"#CamilaIsOurPrincess","placeID":"2488042","placeName":"San Jose","searchUrl":"http:\/\/twitter.com\/search?q=%23CamilaIsOurPrincess","trendMapped":"camila+is+our+princess","trendVolume":65844},{"stateName":"CA","trendName":"#CruzSexScandal","placeID":"2487889","placeName":"San Diego","searchUrl":"http:\/\/twitter.com\/search?q=%23CruzSexScandal","trendMapped":"cruz+sex+scandal","trendVolume":531757},{"stateName":"CA","trendName":"#GoodFriday","placeID":"2488042","placeName":"San Jose","searchUrl":"http:\/\/twitter.com\/search?q=%23GoodFriday","trendMapped":"good+friday","trendVolume":327739},{"stateName":"CA","trendName":"#MindOfMine","placeID":"2488042","placeName":"San Jose","searchUrl":"http:\/\/twitter.com\/search?q=%23MindOfMine","trendMapped":"mind+of+mine","trendVolume":975642},{"stateName":"CA","trendName":"#NationalPuppyDay","placeID":"2487889","placeName":"San Diego","searchUrl":"http:\/\/twitter.com\/search?q=%23NationalPuppyDay","trendMapped":"national+puppy+day","trendVolume":278028},{"stateName":"CA","trendName":"CLEXA IS OURS","placeID":"2407517","placeName":"Fresno","searchUrl":"http:\/\/twitter.com\/search?q=%22CLEXA+IS+OURS%22","trendMapped":"CLEXA+IS+OURS","trendVolume":145012},{"stateName":"CA","trendName":"Chile","placeID":"2488042","placeName":"San Jose","searchUrl":"http:\/\/twitter.com\/search?q=Chile","trendMapped":"chile","trendVolume":265704},{"stateName":"CA","trendName":"Easter","placeID":"2486340","placeName":"Sacramento","searchUrl":"http:\/\/twitter.com\/search?q=Easter","trendMapped":"easter","trendVolume":840902},{"stateName":"CA","trendName":"Garry Shandling","placeID":"2488042","placeName":"San Jose","searchUrl":"http:\/\/twitter.com\/search?q=%22Garry+Shandling%22","trendMapped":"Garry+Shandling","trendVolume":118990},{"stateName":"CA","trendName":"Johan Cruyff","placeID":"2488042","placeName":"San Jose","searchUrl":"http:\/\/twitter.com\/search?q=%22Johan+Cruyff%22","trendMapped":"Johan+Cruyff","trendVolume":1158528},{"stateName":"CO","trendName":"#10YearsOfHannahMontana","placeID":"2391279","placeName":"Denver","searchUrl":"http:\/\/twitter.com\/search?q=%2310YearsOfHannahMontana","trendMapped":"10+years+of+hannah+montana","trendVolume":994699},{"stateName":"CO","trendName":"#1YearWithoutZayn","placeID":"2383489","placeName":"Colorado Springs","searchUrl":"http:\/\/twitter.com\/search?q=%231YearWithoutZayn","trendMapped":"1+year+without+zayn","trendVolume":416589},{"stateName":"CO","trendName":"#CruzSexScandal","placeID":"2391279","placeName":"Denver","searchUrl":"http:\/\/twitter.com\/search?q=%23CruzSexScandal","trendMapped":"cruz+sex+scandal","trendVolume":441153},{"stateName":"CO","trendName":"#GoodFriday","placeID":"2383489","placeName":"Colorado Springs","searchUrl":"http:\/\/twitter.com\/search?q=%23GoodFriday","trendMapped":"good+friday","trendVolume":153088},{"stateName":"CO","trendName":"#MindOfMine","placeID":"2391279","placeName":"Denver","searchUrl":"http:\/\/twitter.com\/search?q=%23MindOfMine","trendMapped":"mind+of+mine","trendVolume":989861},{"stateName":"CO","trendName":"Chile","placeID":"2391279","placeName":"Denver","searchUrl":"http:\/\/twitter.com\/search?q=Chile","trendMapped":"chile","trendVolume":265018},{"stateName":"CO","trendName":"Garry Shandling","placeID":"2383489","placeName":"Colorado Springs","searchUrl":"http:\/\/twitter.com\/search?q=%22Garry+Shandling%22","trendMapped":"Garry+Shandling","trendVolume":116723},{"stateName":"CO","trendName":"Johan Cruyff","placeID":"2391279","placeName":"Denver","searchUrl":"http:\/\/twitter.com\/search?q=%22Johan+Cruyff%22","trendMapped":"Johan+Cruyff","trendVolume":1164019},{"stateName":"CT","trendName":"#1YearWithoutZayn","placeID":"2458410","placeName":"New Haven","searchUrl":"http:\/\/twitter.com\/search?q=%231YearWithoutZayn","trendMapped":"1+year+without+zayn","trendVolume":321663},{"stateName":"CT","trendName":"#MindOfMine","placeID":"2458410","placeName":"New Haven","searchUrl":"http:\/\/twitter.com\/search?q=%23MindOfMine","trendMapped":"mind+of+mine","trendVolume":863614},{"stateName":"CT","trendName":"Easter","placeID":"2458410","placeName":"New Haven","searchUrl":"http:\/\/twitter.com\/search?q=Easter","trendMapped":"easter","trendVolume":844939},{"stateName":"CT","trendName":"Johan Cruyff","placeID":"2458410","placeName":"New Haven","searchUrl":"http:\/\/twitter.com\/search?q=%22Johan+Cruyff%22","trendMapped":"Johan+Cruyff","trendVolume":1124271},{"stateName":"DC","trendName":"#10YearsOfHannahMontana","placeID":"2514815","placeName":"Washington","searchUrl":"http:\/\/twitter.com\/search?q=%2310YearsOfHannahMontana","trendMapped":"10+years+of+hannah+montana","trendVolume":992807},{"stateName":"DC","trendName":"#1YearWithoutZayn","placeID":"2514815","placeName":"Washington","searchUrl":"http:\/\/twitter.com\/search?q=%231YearWithoutZayn","trendMapped":"1+year+without+zayn","trendVolume":429828},{"stateName":"DC","trendName":"#CruzSexScandal","placeID":"2514815","placeName":"Washington","searchUrl":"http:\/\/twitter.com\/search?q=%23CruzSexScandal","trendMapped":"cruz+sex+scandal","trendVolume":356355},{"stateName":"DC","trendName":"#GoodFriday","placeID":"2514815","placeName":"Washington","searchUrl":"http:\/\/twitter.com\/search?q=%23GoodFriday","trendMapped":"good+friday","trendVolume":173541},{"stateName":"DC","trendName":"#MindOfMine","placeID":"2514815","placeName":"Washington","searchUrl":"http:\/\/twitter.com\/search?q=%23MindOfMine","trendMapped":"mind+of+mine","trendVolume":640305},{"stateName":"DC","trendName":"CLEXA IS OURS","placeID":"2514815","placeName":"Washington","searchUrl":"http:\/\/twitter.com\/search?q=%22CLEXA+IS+OURS%22","trendMapped":"CLEXA+IS+OURS","trendVolume":150815},{"stateName":"DC","trendName":"Chile","placeID":"2514815","placeName":"Washington","searchUrl":"http:\/\/twitter.com\/search?q=Chile","trendMapped":"chile","trendVolume":265018},{"stateName":"DC","trendName":"Johan Cruyff","placeID":"2514815","placeName":"Washington","searchUrl":"http:\/\/twitter.com\/search?q=%22Johan+Cruyff%22","trendMapped":"Johan+Cruyff","trendVolume":1161211},{"stateName":"FL","trendName":"#10YearsOfHannahMontana","placeID":"2503713","placeName":"Tallahassee","searchUrl":"http:\/\/twitter.com\/search?q=%2310YearsOfHannahMontana","trendMapped":"10+years+of+hannah+montana","trendVolume":1009770},{"stateName":"FL","trendName":"#1YearWithoutZayn","placeID":"2450022","placeName":"Miami","searchUrl":"http:\/\/twitter.com\/search?q=%231YearWithoutZayn","trendMapped":"1+year+without+zayn","trendVolume":444533},{"stateName":"FL","trendName":"#CruzSexScandal","placeID":"2503863","placeName":"Tampa","searchUrl":"http:\/\/twitter.com\/search?q=%23CruzSexScandal","trendMapped":"cruz+sex+scandal","trendVolume":573245},{"stateName":"FL","trendName":"#GoodFriday","placeID":"2503713","placeName":"Tallahassee","searchUrl":"http:\/\/twitter.com\/search?q=%23GoodFriday","trendMapped":"good+friday","trendVolume":186981},{"stateName":"FL","trendName":"#MindOfMine","placeID":"2503863","placeName":"Tampa","searchUrl":"http:\/\/twitter.com\/search?q=%23MindOfMine","trendMapped":"mind+of+mine","trendVolume":989861},{"stateName":"FL","trendName":"#NationalPuppyDay","placeID":"2503713","placeName":"Tallahassee","searchUrl":"http:\/\/twitter.com\/search?q=%23NationalPuppyDay","trendMapped":"national+puppy+day","trendVolume":278418},{"stateName":"FL","trendName":"Chile","placeID":"2503713","placeName":"Tallahassee","searchUrl":"http:\/\/twitter.com\/search?q=Chile","trendMapped":"chile","trendVolume":266271},{"stateName":"FL","trendName":"Colombia","placeID":"2450022","placeName":"Miami","searchUrl":"http:\/\/twitter.com\/search?q=Colombia","trendMapped":"colombia","trendVolume":226572},{"stateName":"FL","trendName":"Easter","placeID":"2503863","placeName":"Tampa","searchUrl":"http:\/\/twitter.com\/search?q=Easter","trendMapped":"easter","trendVolume":848138},{"stateName":"FL","trendName":"Johan Cruyff","placeID":"2503863","placeName":"Tampa","searchUrl":"http:\/\/twitter.com\/search?q=%22Johan+Cruyff%22","trendMapped":"Johan+Cruyff","trendVolume":1164019},{"stateName":"GA","trendName":"#10YearsOfHannahMontana","placeID":"2357024","placeName":"Atlanta","searchUrl":"http:\/\/twitter.com\/search?q=%2310YearsOfHannahMontana","trendMapped":"10+years+of+hannah+montana","trendVolume":993711},{"stateName":"GA","trendName":"#1YearWithoutZayn","placeID":"2357024","placeName":"Atlanta","searchUrl":"http:\/\/twitter.com\/search?q=%231YearWithoutZayn","trendMapped":"1+year+without+zayn","trendVolume":453536},{"stateName":"GA","trendName":"#CruzSexScandal","placeID":"2357024","placeName":"Atlanta","searchUrl":"http:\/\/twitter.com\/search?q=%23CruzSexScandal","trendMapped":"cruz+sex+scandal","trendVolume":536774},{"stateName":"GA","trendName":"#MindOfMine","placeID":"2357024","placeName":"Atlanta","searchUrl":"http:\/\/twitter.com\/search?q=%23MindOfMine","trendMapped":"mind+of+mine","trendVolume":886858},{"stateName":"GA","trendName":"Chile","placeID":"2357024","placeName":"Atlanta","searchUrl":"http:\/\/twitter.com\/search?q=Chile","trendMapped":"chile","trendVolume":265018},{"stateName":"HI","trendName":"#10YearsOfHannahMontana","placeID":"2423945","placeName":"Honolulu","searchUrl":"http:\/\/twitter.com\/search?q=%2310YearsOfHannahMontana","trendMapped":"10+years+of+hannah+montana","trendVolume":992807},{"stateName":"HI","trendName":"#MindOfMine","placeID":"2423945","placeName":"Honolulu","searchUrl":"http:\/\/twitter.com\/search?q=%23MindOfMine","trendMapped":"mind+of+mine","trendVolume":987856},{"stateName":"HI","trendName":"Brussels","placeID":"2423945","placeName":"Honolulu","searchUrl":"http:\/\/twitter.com\/search?q=Brussels","trendMapped":"brussels","trendVolume":464131},{"stateName":"IL","trendName":"#10YearsOfHannahMontana","placeID":"2379574","placeName":"Chicago","searchUrl":"http:\/\/twitter.com\/search?q=%2310YearsOfHannahMontana","trendMapped":"10+years+of+hannah+montana","trendVolume":993711},{"stateName":"IL","trendName":"#1YearWithoutZayn","placeID":"2379574","placeName":"Chicago","searchUrl":"http:\/\/twitter.com\/search?q=%231YearWithoutZayn","trendMapped":"1+year+without+zayn","trendVolume":201014},{"stateName":"IL","trendName":"#CruzSexScandal","placeID":"2379574","placeName":"Chicago","searchUrl":"http:\/\/twitter.com\/search?q=%23CruzSexScandal","trendMapped":"cruz+sex+scandal","trendVolume":374090},{"stateName":"IL","trendName":"#GoodFriday","placeID":"2379574","placeName":"Chicago","searchUrl":"http:\/\/twitter.com\/search?q=%23GoodFriday","trendMapped":"good+friday","trendVolume":326981},{"stateName":"IL","trendName":"#MindOfMine","placeID":"2379574","placeName":"Chicago","searchUrl":"http:\/\/twitter.com\/search?q=%23MindOfMine","trendMapped":"mind+of+mine","trendVolume":987856},{"stateName":"IL","trendName":"Chile","placeID":"2379574","placeName":"Chicago","searchUrl":"http:\/\/twitter.com\/search?q=Chile","trendMapped":"chile","trendVolume":266271},{"stateName":"IN","trendName":"#10YearsOfHannahMontana","placeID":"2427032","placeName":"Indianapolis","searchUrl":"http:\/\/twitter.com\/search?q=%2310YearsOfHannahMontana","trendMapped":"10+years+of+hannah+montana","trendVolume":994427},{"stateName":"IN","trendName":"#MindOfMine","placeID":"2427032","placeName":"Indianapolis","searchUrl":"http:\/\/twitter.com\/search?q=%23MindOfMine","trendMapped":"mind+of+mine","trendVolume":989861},{"stateName":"KY","trendName":"#1YearWithoutZayn","placeID":"2442327","placeName":"Louisville","searchUrl":"http:\/\/twitter.com\/search?q=%231YearWithoutZayn","trendMapped":"1+year+without+zayn","trendVolume":408172},{"stateName":"KY","trendName":"#CruzSexScandal","placeID":"2442327","placeName":"Louisville","searchUrl":"http:\/\/twitter.com\/search?q=%23CruzSexScandal","trendMapped":"cruz+sex+scandal","trendVolume":531757},{"stateName":"KY","trendName":"#MindOfMine","placeID":"2442327","placeName":"Louisville","searchUrl":"http:\/\/twitter.com\/search?q=%23MindOfMine","trendMapped":"mind+of+mine","trendVolume":963253},{"stateName":"KY","trendName":"Easter","placeID":"2442327","placeName":"Louisville","searchUrl":"http:\/\/twitter.com\/search?q=Easter","trendMapped":"easter","trendVolume":769515},{"stateName":"KY","trendName":"Johan Cruyff","placeID":"2442327","placeName":"Louisville","searchUrl":"http:\/\/twitter.com\/search?q=%22Johan+Cruyff%22","trendMapped":"Johan+Cruyff","trendVolume":1152206},{"stateName":"LA","trendName":"#10YearsOfHannahMontana","placeID":"2359991","placeName":"Baton Rouge","searchUrl":"http:\/\/twitter.com\/search?q=%2310YearsOfHannahMontana","trendMapped":"10+years+of+hannah+montana","trendVolume":991942},{"stateName":"LA","trendName":"#MindOfMine","placeID":"2458833","placeName":"New Orleans","searchUrl":"http:\/\/twitter.com\/search?q=%23MindOfMine","trendMapped":"mind+of+mine","trendVolume":980097},{"stateName":"LA","trendName":"Easter","placeID":"2458833","placeName":"New Orleans","searchUrl":"http:\/\/twitter.com\/search?q=Easter","trendMapped":"easter","trendVolume":864232},{"stateName":"LA","trendName":"Johan Cruyff","placeID":"2359991","placeName":"Baton Rouge","searchUrl":"http:\/\/twitter.com\/search?q=%22Johan+Cruyff%22","trendMapped":"Johan+Cruyff","trendVolume":1155224},{"stateName":"MA","trendName":"#10YearsOfHannahMontana","placeID":"2367105","placeName":"Boston","searchUrl":"http:\/\/twitter.com\/search?q=%2310YearsOfHannahMontana","trendMapped":"10+years+of+hannah+montana","trendVolume":993711},{"stateName":"MA","trendName":"#CruzSexScandal","placeID":"2367105","placeName":"Boston","searchUrl":"http:\/\/twitter.com\/search?q=%23CruzSexScandal","trendMapped":"cruz+sex+scandal","trendVolume":370460},{"stateName":"MA","trendName":"#MindOfMine","placeID":"2367105","placeName":"Boston","searchUrl":"http:\/\/twitter.com\/search?q=%23MindOfMine","trendMapped":"mind+of+mine","trendVolume":983575},{"stateName":"MA","trendName":"Garry Shandling","placeID":"2367105","placeName":"Boston","searchUrl":"http:\/\/twitter.com\/search?q=%22Garry+Shandling%22","trendMapped":"Garry+Shandling","trendVolume":113597},{"stateName":"MA","trendName":"Johan Cruyff","placeID":"2367105","placeName":"Boston","searchUrl":"http:\/\/twitter.com\/search?q=%22Johan+Cruyff%22","trendMapped":"Johan+Cruyff","trendVolume":1157457},{"stateName":"MD","trendName":"#10YearsOfHannahMontana","placeID":"2358820","placeName":"Baltimore","searchUrl":"http:\/\/twitter.com\/search?q=%2310YearsOfHannahMontana","trendMapped":"10+years+of+hannah+montana","trendVolume":954539},{"stateName":"MD","trendName":"#1YearWithoutZayn","placeID":"2358820","placeName":"Baltimore","searchUrl":"http:\/\/twitter.com\/search?q=%231YearWithoutZayn","trendMapped":"1+year+without+zayn","trendVolume":211413},{"stateName":"MD","trendName":"#CruzSexScandal","placeID":"2358820","placeName":"Baltimore","searchUrl":"http:\/\/twitter.com\/search?q=%23CruzSexScandal","trendMapped":"cruz+sex+scandal","trendVolume":361032},{"stateName":"MD","trendName":"#GoodFriday","placeID":"2358820","placeName":"Baltimore","searchUrl":"http:\/\/twitter.com\/search?q=%23GoodFriday","trendMapped":"good+friday","trendVolume":164282},{"stateName":"MD","trendName":"#MindOfMine","placeID":"2358820","placeName":"Baltimore","searchUrl":"http:\/\/twitter.com\/search?q=%23MindOfMine","trendMapped":"mind+of+mine","trendVolume":680310},{"stateName":"MD","trendName":"Easter","placeID":"2358820","placeName":"Baltimore","searchUrl":"http:\/\/twitter.com\/search?q=Easter","trendMapped":"easter","trendVolume":847001},{"stateName":"MD","trendName":"Johan Cruyff","placeID":"2358820","placeName":"Baltimore","searchUrl":"http:\/\/twitter.com\/search?q=%22Johan+Cruyff%22","trendMapped":"Johan+Cruyff","trendVolume":1164019},{"stateName":"MI","trendName":"#10YearsOfHannahMontana","placeID":"2391585","placeName":"Detroit","searchUrl":"http:\/\/twitter.com\/search?q=%2310YearsOfHannahMontana","trendMapped":"10+years+of+hannah+montana","trendVolume":1010264},{"stateName":"MI","trendName":"#MindOfMine","placeID":"2391585","placeName":"Detroit","searchUrl":"http:\/\/twitter.com\/search?q=%23MindOfMine","trendMapped":"mind+of+mine","trendVolume":840819},{"stateName":"MI","trendName":"Chile","placeID":"2391585","placeName":"Detroit","searchUrl":"http:\/\/twitter.com\/search?q=Chile","trendMapped":"chile","trendVolume":259368},{"stateName":"MI","trendName":"Easter","placeID":"2391585","placeName":"Detroit","searchUrl":"http:\/\/twitter.com\/search?q=Easter","trendMapped":"easter","trendVolume":866513},{"stateName":"MI","trendName":"Johan Cruyff","placeID":"2391585","placeName":"Detroit","searchUrl":"http:\/\/twitter.com\/search?q=%22Johan+Cruyff%22","trendMapped":"Johan+Cruyff","trendVolume":1164019},{"stateName":"MN","trendName":"#10YearsOfHannahMontana","placeID":"2452078","placeName":"Minneapolis","searchUrl":"http:\/\/twitter.com\/search?q=%2310YearsOfHannahMontana","trendMapped":"10+years+of+hannah+montana","trendVolume":992545},{"stateName":"MN","trendName":"#1YearWithoutZayn","placeID":"2452078","placeName":"Minneapolis","searchUrl":"http:\/\/twitter.com\/search?q=%231YearWithoutZayn","trendMapped":"1+year+without+zayn","trendVolume":366622},{"stateName":"MN","trendName":"#CruzSexScandal","placeID":"2452078","placeName":"Minneapolis","searchUrl":"http:\/\/twitter.com\/search?q=%23CruzSexScandal","trendMapped":"cruz+sex+scandal","trendVolume":385119},{"stateName":"MN","trendName":"#MindOfMine","placeID":"2452078","placeName":"Minneapolis","searchUrl":"http:\/\/twitter.com\/search?q=%23MindOfMine","trendMapped":"mind+of+mine","trendVolume":886858},{"stateName":"MN","trendName":"Chile","placeID":"2452078","placeName":"Minneapolis","searchUrl":"http:\/\/twitter.com\/search?q=Chile","trendMapped":"chile","trendVolume":266271},{"stateName":"MN","trendName":"Easter","placeID":"2452078","placeName":"Minneapolis","searchUrl":"http:\/\/twitter.com\/search?q=Easter","trendMapped":"easter","trendVolume":840067},{"stateName":"MN","trendName":"House","placeID":"2452078","placeName":"Minneapolis","searchUrl":"http:\/\/twitter.com\/search?q=House","trendMapped":"house","trendVolume":474458},{"stateName":"MN","trendName":"Johan Cruyff","placeID":"2452078","placeName":"Minneapolis","searchUrl":"http:\/\/twitter.com\/search?q=%22Johan+Cruyff%22","trendMapped":"Johan+Cruyff","trendVolume":1150379},{"stateName":"MO","trendName":"#10YearsOfHannahMontana","placeID":"2486982","placeName":"St. Louis","searchUrl":"http:\/\/twitter.com\/search?q=%2310YearsOfHannahMontana","trendMapped":"10+years+of+hannah+montana","trendVolume":1003300},{"stateName":"MO","trendName":"#MindOfMine","placeID":"2486982","placeName":"St. Louis","searchUrl":"http:\/\/twitter.com\/search?q=%23MindOfMine","trendMapped":"mind+of+mine","trendVolume":985020},{"stateName":"MO","trendName":"Easter","placeID":"2486982","placeName":"St. Louis","searchUrl":"http:\/\/twitter.com\/search?q=Easter","trendMapped":"easter","trendVolume":853188},{"stateName":"MS","trendName":"#10YearsOfHannahMontana","placeID":"2428184","placeName":"Jackson","searchUrl":"http:\/\/twitter.com\/search?q=%2310YearsOfHannahMontana","trendMapped":"10+years+of+hannah+montana","trendVolume":991942},{"stateName":"MS","trendName":"Easter","placeID":"2428184","placeName":"Jackson","searchUrl":"http:\/\/twitter.com\/search?q=Easter","trendMapped":"easter","trendVolume":858488},{"stateName":"MS","trendName":"Johan Cruyff","placeID":"2428184","placeName":"Jackson","searchUrl":"http:\/\/twitter.com\/search?q=%22Johan+Cruyff%22","trendMapped":"Johan+Cruyff","trendVolume":1147945},{"stateName":"NC","trendName":"#10YearsOfHannahMontana","placeID":"2478307","placeName":"Raleigh","searchUrl":"http:\/\/twitter.com\/search?q=%2310YearsOfHannahMontana","trendMapped":"10+years+of+hannah+montana","trendVolume":993711},{"stateName":"NC","trendName":"#1YearWithoutZayn","placeID":"2478307","placeName":"Raleigh","searchUrl":"http:\/\/twitter.com\/search?q=%231YearWithoutZayn","trendMapped":"1+year+without+zayn","trendVolume":393098},{"stateName":"NC","trendName":"#CruzSexScandal","placeID":"2478307","placeName":"Raleigh","searchUrl":"http:\/\/twitter.com\/search?q=%23CruzSexScandal","trendMapped":"cruz+sex+scandal","trendVolume":560202},{"stateName":"NC","trendName":"#MindOfMine","placeID":"2478307","placeName":"Raleigh","searchUrl":"http:\/\/twitter.com\/search?q=%23MindOfMine","trendMapped":"mind+of+mine","trendVolume":989861},{"stateName":"NC","trendName":"#NationalPuppyDay","placeID":"2478307","placeName":"Raleigh","searchUrl":"http:\/\/twitter.com\/search?q=%23NationalPuppyDay","trendMapped":"national+puppy+day","trendVolume":340435},{"stateName":"NC","trendName":"Chile","placeID":"2478307","placeName":"Raleigh","searchUrl":"http:\/\/twitter.com\/search?q=Chile","trendMapped":"chile","trendVolume":265704},{"stateName":"NC","trendName":"Easter","placeID":"2378426","placeName":"Charlotte","searchUrl":"http:\/\/twitter.com\/search?q=Easter","trendMapped":"easter","trendVolume":821774},{"stateName":"NC","trendName":"Johan Cruyff","placeID":"2414469","placeName":"Greensboro","searchUrl":"http:\/\/twitter.com\/search?q=%22Johan+Cruyff%22","trendMapped":"Johan+Cruyff","trendVolume":1155224},{"stateName":"NE","trendName":"#10YearsOfHannahMontana","placeID":"2465512","placeName":"Omaha","searchUrl":"http:\/\/twitter.com\/search?q=%2310YearsOfHannahMontana","trendMapped":"10+years+of+hannah+montana","trendVolume":899448},{"stateName":"NE","trendName":"#CruzSexScandal","placeID":"2465512","placeName":"Omaha","searchUrl":"http:\/\/twitter.com\/search?q=%23CruzSexScandal","trendMapped":"cruz+sex+scandal","trendVolume":266385},{"stateName":"NE","trendName":"#MindOfMine","placeID":"2465512","placeName":"Omaha","searchUrl":"http:\/\/twitter.com\/search?q=%23MindOfMine","trendMapped":"mind+of+mine","trendVolume":989861},{"stateName":"NE","trendName":"ISIS","placeID":"2465512","placeName":"Omaha","searchUrl":"http:\/\/twitter.com\/search?q=ISIS","trendMapped":"isis","trendVolume":292260},{"stateName":"NE","trendName":"Johan Cruyff","placeID":"2465512","placeName":"Omaha","searchUrl":"http:\/\/twitter.com\/search?q=%22Johan+Cruyff%22","trendMapped":"Johan+Cruyff","trendVolume":1161211},{"stateName":"NM","trendName":"#10YearsOfHannahMontana","placeID":"2352824","placeName":"Albuquerque","searchUrl":"http:\/\/twitter.com\/search?q=%2310YearsOfHannahMontana","trendMapped":"10+years+of+hannah+montana","trendVolume":973719},{"stateName":"NM","trendName":"#1YearWithoutZayn","placeID":"2352824","placeName":"Albuquerque","searchUrl":"http:\/\/twitter.com\/search?q=%231YearWithoutZayn","trendMapped":"1+year+without+zayn","trendVolume":386630},{"stateName":"NM","trendName":"#CruzSexScandal","placeID":"2352824","placeName":"Albuquerque","searchUrl":"http:\/\/twitter.com\/search?q=%23CruzSexScandal","trendMapped":"cruz+sex+scandal","trendVolume":536774},{"stateName":"NM","trendName":"#MindOfMine","placeID":"2352824","placeName":"Albuquerque","searchUrl":"http:\/\/twitter.com\/search?q=%23MindOfMine","trendMapped":"mind+of+mine","trendVolume":667622},{"stateName":"NM","trendName":"Chile","placeID":"2352824","placeName":"Albuquerque","searchUrl":"http:\/\/twitter.com\/search?q=Chile","trendMapped":"chile","trendVolume":263590},{"stateName":"NM","trendName":"Garry Shandling","placeID":"2352824","placeName":"Albuquerque","searchUrl":"http:\/\/twitter.com\/search?q=%22Garry+Shandling%22","trendMapped":"Garry+Shandling","trendVolume":110408},{"stateName":"NM","trendName":"Johan Cruyff","placeID":"2352824","placeName":"Albuquerque","searchUrl":"http:\/\/twitter.com\/search?q=%22Johan+Cruyff%22","trendMapped":"Johan+Cruyff","trendVolume":1161211},{"stateName":"NV","trendName":"#10YearsOfHannahMontana","placeID":"2436704","placeName":"Las Vegas","searchUrl":"http:\/\/twitter.com\/search?q=%2310YearsOfHannahMontana","trendMapped":"10+years+of+hannah+montana","trendVolume":1004342},{"stateName":"NV","trendName":"#CruzSexScandal","placeID":"2436704","placeName":"Las Vegas","searchUrl":"http:\/\/twitter.com\/search?q=%23CruzSexScandal","trendMapped":"cruz+sex+scandal","trendVolume":469615},{"stateName":"NV","trendName":"#MindOfMine","placeID":"2436704","placeName":"Las Vegas","searchUrl":"http:\/\/twitter.com\/search?q=%23MindOfMine","trendMapped":"mind+of+mine","trendVolume":985106},{"stateName":"NV","trendName":"Johan Cruyff","placeID":"2436704","placeName":"Las Vegas","searchUrl":"http:\/\/twitter.com\/search?q=%22Johan+Cruyff%22","trendMapped":"Johan+Cruyff","trendVolume":1152980},{"stateName":"NY","trendName":"#1YearWithoutZayn","placeID":"2459115","placeName":"New York","searchUrl":"http:\/\/twitter.com\/search?q=%231YearWithoutZayn","trendMapped":"1+year+without+zayn","trendVolume":476731},{"stateName":"NY","trendName":"#CamilaIsOurPrincess","placeID":"2459115","placeName":"New York","searchUrl":"http:\/\/twitter.com\/search?q=%23CamilaIsOurPrincess","trendMapped":"camila+is+our+princess","trendVolume":85964},{"stateName":"NY","trendName":"#CruzSexScandal","placeID":"2459115","placeName":"New York","searchUrl":"http:\/\/twitter.com\/search?q=%23CruzSexScandal","trendMapped":"cruz+sex+scandal","trendVolume":539273},{"stateName":"NY","trendName":"#GoodFriday","placeID":"2459115","placeName":"New York","searchUrl":"http:\/\/twitter.com\/search?q=%23GoodFriday","trendMapped":"good+friday","trendVolume":157248},{"stateName":"NY","trendName":"#MindOfMine","placeID":"2459115","placeName":"New York","searchUrl":"http:\/\/twitter.com\/search?q=%23MindOfMine","trendMapped":"mind+of+mine","trendVolume":591931},{"stateName":"NY","trendName":"Chile","placeID":"2459115","placeName":"New York","searchUrl":"http:\/\/twitter.com\/search?q=Chile","trendMapped":"chile","trendVolume":253665},{"stateName":"OH","trendName":"#10YearsOfHannahMontana","placeID":"2383660","placeName":"Columbus","searchUrl":"http:\/\/twitter.com\/search?q=%2310YearsOfHannahMontana","trendMapped":"10+years+of+hannah+montana","trendVolume":966268},{"stateName":"OH","trendName":"#CruzSexScandal","placeID":"2381475","placeName":"Cleveland","searchUrl":"http:\/\/twitter.com\/search?q=%23CruzSexScandal","trendMapped":"cruz+sex+scandal","trendVolume":589828},{"stateName":"OH","trendName":"#MindOfMine","placeID":"2383660","placeName":"Columbus","searchUrl":"http:\/\/twitter.com\/search?q=%23MindOfMine","trendMapped":"mind+of+mine","trendVolume":989861},{"stateName":"OH","trendName":"Easter","placeID":"2381475","placeName":"Cleveland","searchUrl":"http:\/\/twitter.com\/search?q=Easter","trendMapped":"easter","trendVolume":782394},{"stateName":"OH","trendName":"Johan Cruyff","placeID":"2381475","placeName":"Cleveland","searchUrl":"http:\/\/twitter.com\/search?q=%22Johan+Cruyff%22","trendMapped":"Johan+Cruyff","trendVolume":1156501},{"stateName":"OK","trendName":"#10YearsOfHannahMontana","placeID":"2464592","placeName":"Oklahoma City","searchUrl":"http:\/\/twitter.com\/search?q=%2310YearsOfHannahMontana","trendMapped":"10+years+of+hannah+montana","trendVolume":972896},{"stateName":"OK","trendName":"#1YearWithoutZayn","placeID":"2464592","placeName":"Oklahoma City","searchUrl":"http:\/\/twitter.com\/search?q=%231YearWithoutZayn","trendMapped":"1+year+without+zayn","trendVolume":226376},{"stateName":"OK","trendName":"#CruzSexScandal","placeID":"2464592","placeName":"Oklahoma City","searchUrl":"http:\/\/twitter.com\/search?q=%23CruzSexScandal","trendMapped":"cruz+sex+scandal","trendVolume":545884},{"stateName":"OK","trendName":"#MindOfMine","placeID":"2464592","placeName":"Oklahoma City","searchUrl":"http:\/\/twitter.com\/search?q=%23MindOfMine","trendMapped":"mind+of+mine","trendVolume":689546},{"stateName":"OK","trendName":"Chile","placeID":"2464592","placeName":"Oklahoma City","searchUrl":"http:\/\/twitter.com\/search?q=Chile","trendMapped":"chile","trendVolume":254032},{"stateName":"OK","trendName":"Johan Cruyff","placeID":"2464592","placeName":"Oklahoma City","searchUrl":"http:\/\/twitter.com\/search?q=%22Johan+Cruyff%22","trendMapped":"Johan+Cruyff","trendVolume":1152206},{"stateName":"OR","trendName":"#10YearsOfHannahMontana","placeID":"2475687","placeName":"Portland","searchUrl":"http:\/\/twitter.com\/search?q=%2310YearsOfHannahMontana","trendMapped":"10+years+of+hannah+montana","trendVolume":973719},{"stateName":"OR","trendName":"#MindOfMine","placeID":"2475687","placeName":"Portland","searchUrl":"http:\/\/twitter.com\/search?q=%23MindOfMine","trendMapped":"mind+of+mine","trendVolume":966618},{"stateName":"OR","trendName":"#NationalPuppyDay","placeID":"2475687","placeName":"Portland","searchUrl":"http:\/\/twitter.com\/search?q=%23NationalPuppyDay","trendMapped":"national+puppy+day","trendVolume":278028},{"stateName":"OR","trendName":"Chile","placeID":"2475687","placeName":"Portland","searchUrl":"http:\/\/twitter.com\/search?q=Chile","trendMapped":"chile","trendVolume":265704},{"stateName":"OR","trendName":"Easter","placeID":"2475687","placeName":"Portland","searchUrl":"http:\/\/twitter.com\/search?q=Easter","trendMapped":"easter","trendVolume":855140},{"stateName":"OR","trendName":"Johan Cruyff","placeID":"2475687","placeName":"Portland","searchUrl":"http:\/\/twitter.com\/search?q=%22Johan+Cruyff%22","trendMapped":"Johan+Cruyff","trendVolume":1150379},{"stateName":"PA","trendName":"#10YearsOfHannahMontana","placeID":"2471217","placeName":"Philadelphia","searchUrl":"http:\/\/twitter.com\/search?q=%2310YearsOfHannahMontana","trendMapped":"10+years+of+hannah+montana","trendVolume":1007831},{"stateName":"PA","trendName":"#1YearWithoutZayn","placeID":"2471217","placeName":"Philadelphia","searchUrl":"http:\/\/twitter.com\/search?q=%231YearWithoutZayn","trendMapped":"1+year+without+zayn","trendVolume":472710},{"stateName":"PA","trendName":"#5HTheLife","placeID":"2471217","placeName":"Philadelphia","searchUrl":"http:\/\/twitter.com\/search?q=%235HTheLife","trendMapped":"5+h+the+life","trendVolume":157506},{"stateName":"PA","trendName":"#CamilaIsOurPrincess","placeID":"2471217","placeName":"Philadelphia","searchUrl":"http:\/\/twitter.com\/search?q=%23CamilaIsOurPrincess","trendMapped":"camila+is+our+princess","trendVolume":85964},{"stateName":"PA","trendName":"#CruzSexScandal","placeID":"2471217","placeName":"Philadelphia","searchUrl":"http:\/\/twitter.com\/search?q=%23CruzSexScandal","trendMapped":"cruz+sex+scandal","trendVolume":482985},{"stateName":"PA","trendName":"#GoodFriday","placeID":"2471217","placeName":"Philadelphia","searchUrl":"http:\/\/twitter.com\/search?q=%23GoodFriday","trendMapped":"good+friday","trendVolume":159553},{"stateName":"PA","trendName":"#MindOfMine","placeID":"2473224","placeName":"Pittsburgh","searchUrl":"http:\/\/twitter.com\/search?q=%23MindOfMine","trendMapped":"mind+of+mine","trendVolume":986666},{"stateName":"PA","trendName":"Chile","placeID":"2473224","placeName":"Pittsburgh","searchUrl":"http:\/\/twitter.com\/search?q=Chile","trendMapped":"chile","trendVolume":265318},{"stateName":"PA","trendName":"Easter","placeID":"2418046","placeName":"Harrisburg","searchUrl":"http:\/\/twitter.com\/search?q=Easter","trendMapped":"easter","trendVolume":866513},{"stateName":"PA","trendName":"Garry Shandling","placeID":"2471217","placeName":"Philadelphia","searchUrl":"http:\/\/twitter.com\/search?q=%22Garry+Shandling%22","trendMapped":"Garry+Shandling","trendVolume":116723},{"stateName":"PA","trendName":"Johan Cruyff","placeID":"2473224","placeName":"Pittsburgh","searchUrl":"http:\/\/twitter.com\/search?q=%22Johan+Cruyff%22","trendMapped":"Johan+Cruyff","trendVolume":1161211},{"stateName":"RI","trendName":"#CruzSexScandal","placeID":"2477058","placeName":"Providence","searchUrl":"http:\/\/twitter.com\/search?q=%23CruzSexScandal","trendMapped":"cruz+sex+scandal","trendVolume":544212},{"stateName":"RI","trendName":"#GoodFriday","placeID":"2477058","placeName":"Providence","searchUrl":"http:\/\/twitter.com\/search?q=%23GoodFriday","trendMapped":"good+friday","trendVolume":178207},{"stateName":"RI","trendName":"#MindOfMine","placeID":"2477058","placeName":"Providence","searchUrl":"http:\/\/twitter.com\/search?q=%23MindOfMine","trendMapped":"mind+of+mine","trendVolume":851014},{"stateName":"RI","trendName":"Chile","placeID":"2477058","placeName":"Providence","searchUrl":"http:\/\/twitter.com\/search?q=Chile","trendMapped":"chile","trendVolume":254032},{"stateName":"RI","trendName":"Easter","placeID":"2477058","placeName":"Providence","searchUrl":"http:\/\/twitter.com\/search?q=Easter","trendMapped":"easter","trendVolume":784915},{"stateName":"RI","trendName":"Johan Cruyff","placeID":"2477058","placeName":"Providence","searchUrl":"http:\/\/twitter.com\/search?q=%22Johan+Cruyff%22","trendMapped":"Johan+Cruyff","trendVolume":1161211},{"stateName":"TN","trendName":"#10YearsOfHannahMontana","placeID":"2457170","placeName":"Nashville","searchUrl":"http:\/\/twitter.com\/search?q=%2310YearsOfHannahMontana","trendMapped":"10+years+of+hannah+montana","trendVolume":994699},{"stateName":"TN","trendName":"#1YearWithoutZayn","placeID":"2449323","placeName":"Memphis","searchUrl":"http:\/\/twitter.com\/search?q=%231YearWithoutZayn","trendMapped":"1+year+without+zayn","trendVolume":352767},{"stateName":"TN","trendName":"#CruzSexScandal","placeID":"2449323","placeName":"Memphis","searchUrl":"http:\/\/twitter.com\/search?q=%23CruzSexScandal","trendMapped":"cruz+sex+scandal","trendVolume":586030},{"stateName":"TN","trendName":"#MindOfMine","placeID":"2457170","placeName":"Nashville","searchUrl":"http:\/\/twitter.com\/search?q=%23MindOfMine","trendMapped":"mind+of+mine","trendVolume":929617},{"stateName":"TN","trendName":"Duke","placeID":"2449323","placeName":"Memphis","searchUrl":"http:\/\/twitter.com\/search?q=Duke","trendMapped":"duke","trendVolume":144053},{"stateName":"TN","trendName":"Easter","placeID":"2457170","placeName":"Nashville","searchUrl":"http:\/\/twitter.com\/search?q=Easter","trendMapped":"easter","trendVolume":842288},{"stateName":"TX","trendName":"#10YearsOfHannahMontana","placeID":"2487796","placeName":"San Antonio","searchUrl":"http:\/\/twitter.com\/search?q=%2310YearsOfHannahMontana","trendMapped":"10+years+of+hannah+montana","trendVolume":1008602},{"stateName":"TX","trendName":"#1YearWithoutZayn","placeID":"2388929","placeName":"Dallas-Ft. Worth","searchUrl":"http:\/\/twitter.com\/search?q=%231YearWithoutZayn","trendMapped":"1+year+without+zayn","trendVolume":465042},{"stateName":"TX","trendName":"#CruzSexScandal","placeID":"2424766","placeName":"Houston","searchUrl":"http:\/\/twitter.com\/search?q=%23CruzSexScandal","trendMapped":"cruz+sex+scandal","trendVolume":531757},{"stateName":"TX","trendName":"#MindOfMine","placeID":"2487796","placeName":"San Antonio","searchUrl":"http:\/\/twitter.com\/search?q=%23MindOfMine","trendMapped":"mind+of+mine","trendVolume":985788},{"stateName":"TX","trendName":"#NationalPuppyDay","placeID":"2424766","placeName":"Houston","searchUrl":"http:\/\/twitter.com\/search?q=%23NationalPuppyDay","trendMapped":"national+puppy+day","trendVolume":278678},{"stateName":"TX","trendName":"Chile","placeID":"2424766","placeName":"Houston","searchUrl":"http:\/\/twitter.com\/search?q=Chile","trendMapped":"chile","trendVolume":266271},{"stateName":"TX","trendName":"Donald Trump","placeID":"2397816","placeName":"El Paso","searchUrl":"http:\/\/twitter.com\/search?q=%22Donald+Trump%22","trendMapped":"Donald+Trump","trendVolume":247791},{"stateName":"TX","trendName":"Easter","placeID":"2487796","placeName":"San Antonio","searchUrl":"http:\/\/twitter.com\/search?q=Easter","trendMapped":"easter","trendVolume":866513},{"stateName":"TX","trendName":"Johan Cruyff","placeID":"2487796","placeName":"San Antonio","searchUrl":"http:\/\/twitter.com\/search?q=%22Johan+Cruyff%22","trendMapped":"Johan+Cruyff","trendVolume":1156501},{"stateName":"TX","trendName":"Messi","placeID":"2424766","placeName":"Houston","searchUrl":"http:\/\/twitter.com\/search?q=Messi","trendMapped":"messi","trendVolume":206054},{"stateName":"UT","trendName":"#10YearsOfHannahMontana","placeID":"2487610","placeName":"Salt Lake City","searchUrl":"http:\/\/twitter.com\/search?q=%2310YearsOfHannahMontana","trendMapped":"10+years+of+hannah+montana","trendVolume":899448},{"stateName":"UT","trendName":"#MindOfMine","placeID":"2487610","placeName":"Salt Lake City","searchUrl":"http:\/\/twitter.com\/search?q=%23MindOfMine","trendMapped":"mind+of+mine","trendVolume":986666},{"stateName":"UT","trendName":"#NationalPuppyDay","placeID":"2487610","placeName":"Salt Lake City","searchUrl":"http:\/\/twitter.com\/search?q=%23NationalPuppyDay","trendMapped":"national+puppy+day","trendVolume":340435},{"stateName":"UT","trendName":"Chile","placeID":"2487610","placeName":"Salt Lake City","searchUrl":"http:\/\/twitter.com\/search?q=Chile","trendMapped":"chile","trendVolume":263590},{"stateName":"UT","trendName":"Johan Cruyff","placeID":"2487610","placeName":"Salt Lake City","searchUrl":"http:\/\/twitter.com\/search?q=%22Johan+Cruyff%22","trendMapped":"Johan+Cruyff","trendVolume":1161211},{"stateName":"VA","trendName":"#10YearsOfHannahMontana","placeID":"2512636","placeName":"Virginia Beach","searchUrl":"http:\/\/twitter.com\/search?q=%2310YearsOfHannahMontana","trendMapped":"10+years+of+hannah+montana","trendVolume":994699},{"stateName":"VA","trendName":"#1YearWithoutZayn","placeID":"2512636","placeName":"Virginia Beach","searchUrl":"http:\/\/twitter.com\/search?q=%231YearWithoutZayn","trendMapped":"1+year+without+zayn","trendVolume":444533},{"stateName":"VA","trendName":"#CruzSexScandal","placeID":"2512636","placeName":"Virginia Beach","searchUrl":"http:\/\/twitter.com\/search?q=%23CruzSexScandal","trendMapped":"cruz+sex+scandal","trendVolume":342529},{"stateName":"VA","trendName":"#GoodFriday","placeID":"2512636","placeName":"Virginia Beach","searchUrl":"http:\/\/twitter.com\/search?q=%23GoodFriday","trendMapped":"good+friday","trendVolume":184684},{"stateName":"VA","trendName":"#MindOfMine","placeID":"2512636","placeName":"Virginia Beach","searchUrl":"http:\/\/twitter.com\/search?q=%23MindOfMine","trendMapped":"mind+of+mine","trendVolume":830548},{"stateName":"VA","trendName":"#NationalPuppyDay","placeID":"2460389","placeName":"Norfolk","searchUrl":"http:\/\/twitter.com\/search?q=%23NationalPuppyDay","trendMapped":"national+puppy+day","trendVolume":340435},{"stateName":"VA","trendName":"Chile","placeID":"2512636","placeName":"Virginia Beach","searchUrl":"http:\/\/twitter.com\/search?q=Chile","trendMapped":"chile","trendVolume":263590},{"stateName":"VA","trendName":"Duke","placeID":"2480894","placeName":"Richmond","searchUrl":"http:\/\/twitter.com\/search?q=Duke","trendMapped":"duke","trendVolume":144336},{"stateName":"VA","trendName":"Easter","placeID":"2480894","placeName":"Richmond","searchUrl":"http:\/\/twitter.com\/search?q=Easter","trendMapped":"easter","trendVolume":855140},{"stateName":"VA","trendName":"Garry Shandling","placeID":"2460389","placeName":"Norfolk","searchUrl":"http:\/\/twitter.com\/search?q=%22Garry+Shandling%22","trendMapped":"Garry+Shandling","trendVolume":174025},{"stateName":"VA","trendName":"Johan Cruyff","placeID":"2512636","placeName":"Virginia Beach","searchUrl":"http:\/\/twitter.com\/search?q=%22Johan+Cruyff%22","trendMapped":"Johan+Cruyff","trendVolume":1164019},{"stateName":"WA","trendName":"#10YearsOfHannahMontana","placeID":"2490383","placeName":"Seattle","searchUrl":"http:\/\/twitter.com\/search?q=%2310YearsOfHannahMontana","trendMapped":"10+years+of+hannah+montana","trendVolume":991942},{"stateName":"WA","trendName":"#1YearWithoutZayn","placeID":"2490383","placeName":"Seattle","searchUrl":"http:\/\/twitter.com\/search?q=%231YearWithoutZayn","trendMapped":"1+year+without+zayn","trendVolume":439289},{"stateName":"WA","trendName":"#CruzSexScandal","placeID":"2490383","placeName":"Seattle","searchUrl":"http:\/\/twitter.com\/search?q=%23CruzSexScandal","trendMapped":"cruz+sex+scandal","trendVolume":579735},{"stateName":"WI","trendName":"#10YearsOfHannahMontana","placeID":"2451822","placeName":"Milwaukee","searchUrl":"http:\/\/twitter.com\/search?q=%2310YearsOfHannahMontana","trendMapped":"10+years+of+hannah+montana","trendVolume":992807},{"stateName":"WI","trendName":"#MindOfMine","placeID":"2451822","placeName":"Milwaukee","searchUrl":"http:\/\/twitter.com\/search?q=%23MindOfMine","trendMapped":"mind+of+mine","trendVolume":981828},{"stateName":"WI","trendName":"Johan Cruyff","placeID":"2451822","placeName":"Milwaukee","searchUrl":"http:\/\/twitter.com\/search?q=%22Johan+Cruyff%22","trendMapped":"Johan+Cruyff","trendVolume":1152206},{"stateName":"XX","trendName":"#1YearWithoutZayn","placeID":"23424977","placeName":"United States","searchUrl":"http:\/\/twitter.com\/search?q=%231YearWithoutZayn","trendMapped":"1+year+without+zayn","trendVolume":429828},{"stateName":"XX","trendName":"#5HTheLife","placeID":"23424977","placeName":"United States","searchUrl":"http:\/\/twitter.com\/search?q=%235HTheLife","trendMapped":"5+h+the+life","trendVolume":158495},{"stateName":"XX","trendName":"#CruzSexScandal","placeID":"23424977","placeName":"United States","searchUrl":"http:\/\/twitter.com\/search?q=%23CruzSexScandal","trendMapped":"cruz+sex+scandal","trendVolume":523516},{"stateName":"XX","trendName":"#GoodFriday","placeID":"23424977","placeName":"United States","searchUrl":"http:\/\/twitter.com\/search?q=%23GoodFriday","trendMapped":"good+friday","trendVolume":159553},{"stateName":"XX","trendName":"#MindOfMine","placeID":"23424977","placeName":"United States","searchUrl":"http:\/\/twitter.com\/search?q=%23MindOfMine","trendMapped":"mind+of+mine","trendVolume":501442},{"stateName":"XX","trendName":"CLEXA IS OURS","placeID":"23424977","placeName":"United States","searchUrl":"http:\/\/twitter.com\/search?q=%22CLEXA+IS+OURS%22","trendMapped":"CLEXA+IS+OURS","trendVolume":150815},{"stateName":"XX","trendName":"Johan Cruyff","placeID":"23424977","placeName":"United States","searchUrl":"http:\/\/twitter.com\/search?q=%22Johan+Cruyff%22","trendMapped":"Johan+Cruyff","trendVolume":1164019}]