[{"stateName":"AL","trendName":"#DemDebate","placeID":"2364559","placeName":"Birmingham","searchUrl":"http:\/\/twitter.com\/search?q=%23DemDebate","trendMapped":"dem+debate","trendVolume":815992},{"stateName":"AL","trendName":"#InternationalWomensDay","placeID":"2364559","placeName":"Birmingham","searchUrl":"http:\/\/twitter.com\/search?q=%23InternationalWomensDay","trendMapped":"international+womens+day","trendVolume":1814383},{"stateName":"AL","trendName":"Peyton Manning","placeID":"2364559","placeName":"Birmingham","searchUrl":"http:\/\/twitter.com\/search?q=%22Peyton+Manning%22","trendMapped":"Peyton+Manning","trendVolume":264753},{"stateName":"AZ","trendName":"#3DaysTilDangerousWoman","placeID":"2508428","placeName":"Tucson","searchUrl":"http:\/\/twitter.com\/search?q=%233DaysTilDangerousWoman","trendMapped":"3+days+til+dangerous+woman","trendVolume":128989},{"stateName":"AZ","trendName":"#DemTownHall","placeID":"2508428","placeName":"Tucson","searchUrl":"http:\/\/twitter.com\/search?q=%23DemTownHall","trendMapped":"dem+town+hall","trendVolume":78023},{"stateName":"AZ","trendName":"#InternationalWomensDay","placeID":"2508428","placeName":"Tucson","searchUrl":"http:\/\/twitter.com\/search?q=%23InternationalWomensDay","trendMapped":"international+womens+day","trendVolume":1814383},{"stateName":"AZ","trendName":"Eagles","placeID":"2508428","placeName":"Tucson","searchUrl":"http:\/\/twitter.com\/search?q=Eagles","trendMapped":"eagles","trendVolume":120379},{"stateName":"AZ","trendName":"Maria Sharapova","placeID":"2508428","placeName":"Tucson","searchUrl":"http:\/\/twitter.com\/search?q=%22Maria+Sharapova%22","trendMapped":"Maria+Sharapova","trendVolume":122916},{"stateName":"AZ","trendName":"Roma","placeID":"2508428","placeName":"Tucson","searchUrl":"http:\/\/twitter.com\/search?q=Roma","trendMapped":"roma","trendVolume":303336},{"stateName":"CA","trendName":"#3DaysTilDangerousWoman","placeID":"2488042","placeName":"San Jose","searchUrl":"http:\/\/twitter.com\/search?q=%233DaysTilDangerousWoman","trendMapped":"3+days+til+dangerous+woman","trendVolume":128474},{"stateName":"CA","trendName":"#DemDebate","placeID":"2487889","placeName":"San Diego","searchUrl":"http:\/\/twitter.com\/search?q=%23DemDebate","trendMapped":"dem+debate","trendVolume":815104},{"stateName":"CA","trendName":"#DemTownHall","placeID":"2442047","placeName":"Los Angeles","searchUrl":"http:\/\/twitter.com\/search?q=%23DemTownHall","trendMapped":"dem+town+hall","trendVolume":78533},{"stateName":"CA","trendName":"#InternationalWomensDay","placeID":"2488042","placeName":"San Jose","searchUrl":"http:\/\/twitter.com\/search?q=%23InternationalWomensDay","trendMapped":"international+womens+day","trendVolume":1946436},{"stateName":"CA","trendName":"#TheBachelor","placeID":"2487956","placeName":"San Francisco","searchUrl":"http:\/\/twitter.com\/search?q=%23TheBachelor","trendMapped":"the+bachelor","trendVolume":78761},{"stateName":"CA","trendName":"Eagles","placeID":"2488042","placeName":"San Jose","searchUrl":"http:\/\/twitter.com\/search?q=Eagles","trendMapped":"eagles","trendVolume":120690},{"stateName":"CA","trendName":"Maria Sharapova","placeID":"2488042","placeName":"San Jose","searchUrl":"http:\/\/twitter.com\/search?q=%22Maria+Sharapova%22","trendMapped":"Maria+Sharapova","trendVolume":122916},{"stateName":"CA","trendName":"Peyton Manning","placeID":"2487889","placeName":"San Diego","searchUrl":"http:\/\/twitter.com\/search?q=%22Peyton+Manning%22","trendMapped":"Peyton+Manning","trendVolume":264533},{"stateName":"CA","trendName":"Roma","placeID":"2441472","placeName":"Long Beach","searchUrl":"http:\/\/twitter.com\/search?q=Roma","trendMapped":"roma","trendVolume":303336},{"stateName":"CO","trendName":"#DemTownHall","placeID":"2383489","placeName":"Colorado Springs","searchUrl":"http:\/\/twitter.com\/search?q=%23DemTownHall","trendMapped":"dem+town+hall","trendVolume":77848},{"stateName":"CO","trendName":"#InternationalWomensDay","placeID":"2391279","placeName":"Denver","searchUrl":"http:\/\/twitter.com\/search?q=%23InternationalWomensDay","trendMapped":"international+womens+day","trendVolume":1880702},{"stateName":"CO","trendName":"Maria Sharapova","placeID":"2383489","placeName":"Colorado Springs","searchUrl":"http:\/\/twitter.com\/search?q=%22Maria+Sharapova%22","trendMapped":"Maria+Sharapova","trendVolume":122916},{"stateName":"CO","trendName":"Peyton Manning","placeID":"2391279","placeName":"Denver","searchUrl":"http:\/\/twitter.com\/search?q=%22Peyton+Manning%22","trendMapped":"Peyton+Manning","trendVolume":265168},{"stateName":"CT","trendName":"#DemDebate","placeID":"2458410","placeName":"New Haven","searchUrl":"http:\/\/twitter.com\/search?q=%23DemDebate","trendMapped":"dem+debate","trendVolume":815992},{"stateName":"CT","trendName":"#IWD2016","placeID":"2458410","placeName":"New Haven","searchUrl":"http:\/\/twitter.com\/search?q=%23IWD2016","trendMapped":"iwd2016","trendVolume":880135},{"stateName":"CT","trendName":"#InternationalWomensDay","placeID":"2458410","placeName":"New Haven","searchUrl":"http:\/\/twitter.com\/search?q=%23InternationalWomensDay","trendMapped":"international+womens+day","trendVolume":1599203},{"stateName":"CT","trendName":"Peyton Manning","placeID":"2458410","placeName":"New Haven","searchUrl":"http:\/\/twitter.com\/search?q=%22Peyton+Manning%22","trendMapped":"Peyton+Manning","trendVolume":264753},{"stateName":"DC","trendName":"#3DaysTilDangerousWoman","placeID":"2514815","placeName":"Washington","searchUrl":"http:\/\/twitter.com\/search?q=%233DaysTilDangerousWoman","trendMapped":"3+days+til+dangerous+woman","trendVolume":129678},{"stateName":"DC","trendName":"#IWD2016","placeID":"2514815","placeName":"Washington","searchUrl":"http:\/\/twitter.com\/search?q=%23IWD2016","trendMapped":"iwd2016","trendVolume":803959},{"stateName":"DC","trendName":"#InternationalWomensDay","placeID":"2514815","placeName":"Washington","searchUrl":"http:\/\/twitter.com\/search?q=%23InternationalWomensDay","trendMapped":"international+womens+day","trendVolume":1842078},{"stateName":"DC","trendName":"Maria Sharapova","placeID":"2514815","placeName":"Washington","searchUrl":"http:\/\/twitter.com\/search?q=%22Maria+Sharapova%22","trendMapped":"Maria+Sharapova","trendVolume":118957},{"stateName":"FL","trendName":"#DemDebate","placeID":"2503713","placeName":"Tallahassee","searchUrl":"http:\/\/twitter.com\/search?q=%23DemDebate","trendMapped":"dem+debate","trendVolume":829626},{"stateName":"FL","trendName":"#DemTownHall","placeID":"2503863","placeName":"Tampa","searchUrl":"http:\/\/twitter.com\/search?q=%23DemTownHall","trendMapped":"dem+town+hall","trendVolume":72646},{"stateName":"FL","trendName":"#IWD2016","placeID":"2503713","placeName":"Tallahassee","searchUrl":"http:\/\/twitter.com\/search?q=%23IWD2016","trendMapped":"iwd2016","trendVolume":903746},{"stateName":"FL","trendName":"#InternationalWomensDay","placeID":"2503863","placeName":"Tampa","searchUrl":"http:\/\/twitter.com\/search?q=%23InternationalWomensDay","trendMapped":"international+womens+day","trendVolume":1946436},{"stateName":"FL","trendName":"Eagles","placeID":"2503863","placeName":"Tampa","searchUrl":"http:\/\/twitter.com\/search?q=Eagles","trendMapped":"eagles","trendVolume":119726},{"stateName":"FL","trendName":"Maria Sharapova","placeID":"2503863","placeName":"Tampa","searchUrl":"http:\/\/twitter.com\/search?q=%22Maria+Sharapova%22","trendMapped":"Maria+Sharapova","trendVolume":122916},{"stateName":"FL","trendName":"Peyton Manning","placeID":"2503863","placeName":"Tampa","searchUrl":"http:\/\/twitter.com\/search?q=%22Peyton+Manning%22","trendMapped":"Peyton+Manning","trendVolume":265213},{"stateName":"GA","trendName":"#3DaysTilDangerousWoman","placeID":"2357024","placeName":"Atlanta","searchUrl":"http:\/\/twitter.com\/search?q=%233DaysTilDangerousWoman","trendMapped":"3+days+til+dangerous+woman","trendVolume":129142},{"stateName":"GA","trendName":"#DemTownHall","placeID":"2357024","placeName":"Atlanta","searchUrl":"http:\/\/twitter.com\/search?q=%23DemTownHall","trendMapped":"dem+town+hall","trendVolume":76781},{"stateName":"GA","trendName":"#InternationalWomensDay","placeID":"2357024","placeName":"Atlanta","searchUrl":"http:\/\/twitter.com\/search?q=%23InternationalWomensDay","trendMapped":"international+womens+day","trendVolume":1910609},{"stateName":"GA","trendName":"Maria Sharapova","placeID":"2357024","placeName":"Atlanta","searchUrl":"http:\/\/twitter.com\/search?q=%22Maria+Sharapova%22","trendMapped":"Maria+Sharapova","trendVolume":121685},{"stateName":"GA","trendName":"Roma","placeID":"2357024","placeName":"Atlanta","searchUrl":"http:\/\/twitter.com\/search?q=Roma","trendMapped":"roma","trendVolume":297390},{"stateName":"HI","trendName":"#DemDebate","placeID":"2423945","placeName":"Honolulu","searchUrl":"http:\/\/twitter.com\/search?q=%23DemDebate","trendMapped":"dem+debate","trendVolume":612091},{"stateName":"HI","trendName":"#InternationalWomensDay","placeID":"2423945","placeName":"Honolulu","searchUrl":"http:\/\/twitter.com\/search?q=%23InternationalWomensDay","trendMapped":"international+womens+day","trendVolume":1946436},{"stateName":"HI","trendName":"#VoteDragMeDownUK","placeID":"2423945","placeName":"Honolulu","searchUrl":"http:\/\/twitter.com\/search?q=%23VoteDragMeDownUK","trendMapped":"vote+drag+me+down+uk","trendVolume":399728},{"stateName":"HI","trendName":"#VoteEnriqueFPP","placeID":"2423945","placeName":"Honolulu","searchUrl":"http:\/\/twitter.com\/search?q=%23VoteEnriqueFPP","trendMapped":"vote+enrique+fpp","trendVolume":845723},{"stateName":"IL","trendName":"#InternationalWomensDay","placeID":"2379574","placeName":"Chicago","searchUrl":"http:\/\/twitter.com\/search?q=%23InternationalWomensDay","trendMapped":"international+womens+day","trendVolume":1910609},{"stateName":"IL","trendName":"#TheBachelor","placeID":"2379574","placeName":"Chicago","searchUrl":"http:\/\/twitter.com\/search?q=%23TheBachelor","trendMapped":"the+bachelor","trendVolume":78761},{"stateName":"IL","trendName":"Eagles","placeID":"2379574","placeName":"Chicago","searchUrl":"http:\/\/twitter.com\/search?q=Eagles","trendMapped":"eagles","trendVolume":118746},{"stateName":"IL","trendName":"Maria Sharapova","placeID":"2379574","placeName":"Chicago","searchUrl":"http:\/\/twitter.com\/search?q=%22Maria+Sharapova%22","trendMapped":"Maria+Sharapova","trendVolume":122916},{"stateName":"IN","trendName":"#DemDebate","placeID":"2427032","placeName":"Indianapolis","searchUrl":"http:\/\/twitter.com\/search?q=%23DemDebate","trendMapped":"dem+debate","trendVolume":829262},{"stateName":"IN","trendName":"#IWD2016","placeID":"2427032","placeName":"Indianapolis","searchUrl":"http:\/\/twitter.com\/search?q=%23IWD2016","trendMapped":"iwd2016","trendVolume":867305},{"stateName":"IN","trendName":"#InternationalWomensDay","placeID":"2427032","placeName":"Indianapolis","searchUrl":"http:\/\/twitter.com\/search?q=%23InternationalWomensDay","trendMapped":"international+womens+day","trendVolume":1661095},{"stateName":"IN","trendName":"Peyton Manning","placeID":"2427032","placeName":"Indianapolis","searchUrl":"http:\/\/twitter.com\/search?q=%22Peyton+Manning%22","trendMapped":"Peyton+Manning","trendVolume":264982},{"stateName":"KY","trendName":"#DemDebate","placeID":"2442327","placeName":"Louisville","searchUrl":"http:\/\/twitter.com\/search?q=%23DemDebate","trendMapped":"dem+debate","trendVolume":609681},{"stateName":"KY","trendName":"#InternationalWomensDay","placeID":"2442327","placeName":"Louisville","searchUrl":"http:\/\/twitter.com\/search?q=%23InternationalWomensDay","trendMapped":"international+womens+day","trendVolume":1833275},{"stateName":"LA","trendName":"#DemDebate","placeID":"2458833","placeName":"New Orleans","searchUrl":"http:\/\/twitter.com\/search?q=%23DemDebate","trendMapped":"dem+debate","trendVolume":815992},{"stateName":"LA","trendName":"#DolceAmoreFirsts","placeID":"2359991","placeName":"Baton Rouge","searchUrl":"http:\/\/twitter.com\/search?q=%23DolceAmoreFirsts","trendMapped":"dolce+amore+firsts","trendVolume":320409},{"stateName":"LA","trendName":"#IWD2016","placeID":"2359991","placeName":"Baton Rouge","searchUrl":"http:\/\/twitter.com\/search?q=%23IWD2016","trendMapped":"iwd2016","trendVolume":707263},{"stateName":"LA","trendName":"#InternationalWomensDay","placeID":"2458833","placeName":"New Orleans","searchUrl":"http:\/\/twitter.com\/search?q=%23InternationalWomensDay","trendMapped":"international+womens+day","trendVolume":1920267},{"stateName":"LA","trendName":"Peyton Manning","placeID":"2458833","placeName":"New Orleans","searchUrl":"http:\/\/twitter.com\/search?q=%22Peyton+Manning%22","trendMapped":"Peyton+Manning","trendVolume":265213},{"stateName":"MA","trendName":"#3DaysTilDangerousWoman","placeID":"2367105","placeName":"Boston","searchUrl":"http:\/\/twitter.com\/search?q=%233DaysTilDangerousWoman","trendMapped":"3+days+til+dangerous+woman","trendVolume":129142},{"stateName":"MA","trendName":"#Harmonizers","placeID":"2367105","placeName":"Boston","searchUrl":"http:\/\/twitter.com\/search?q=%23Harmonizers","trendMapped":"harmonizers","trendVolume":1010496},{"stateName":"MA","trendName":"#InternationalWomensDay","placeID":"2367105","placeName":"Boston","searchUrl":"http:\/\/twitter.com\/search?q=%23InternationalWomensDay","trendMapped":"international+womens+day","trendVolume":1842078},{"stateName":"MA","trendName":"Maria Sharapova","placeID":"2367105","placeName":"Boston","searchUrl":"http:\/\/twitter.com\/search?q=%22Maria+Sharapova%22","trendMapped":"Maria+Sharapova","trendVolume":121685},{"stateName":"MD","trendName":"#DemDebate","placeID":"2358820","placeName":"Baltimore","searchUrl":"http:\/\/twitter.com\/search?q=%23DemDebate","trendMapped":"dem+debate","trendVolume":829626},{"stateName":"MD","trendName":"#IWD2016","placeID":"2358820","placeName":"Baltimore","searchUrl":"http:\/\/twitter.com\/search?q=%23IWD2016","trendMapped":"iwd2016","trendVolume":862652},{"stateName":"MD","trendName":"#InternationalWomensDay","placeID":"2358820","placeName":"Baltimore","searchUrl":"http:\/\/twitter.com\/search?q=%23InternationalWomensDay","trendMapped":"international+womens+day","trendVolume":815160},{"stateName":"MD","trendName":"Peyton Manning","placeID":"2358820","placeName":"Baltimore","searchUrl":"http:\/\/twitter.com\/search?q=%22Peyton+Manning%22","trendMapped":"Peyton+Manning","trendVolume":263997},{"stateName":"MI","trendName":"#InternationalWomensDay","placeID":"2391585","placeName":"Detroit","searchUrl":"http:\/\/twitter.com\/search?q=%23InternationalWomensDay","trendMapped":"international+womens+day","trendVolume":1946436},{"stateName":"MI","trendName":"Maria Sharapova","placeID":"2391585","placeName":"Detroit","searchUrl":"http:\/\/twitter.com\/search?q=%22Maria+Sharapova%22","trendMapped":"Maria+Sharapova","trendVolume":122916},{"stateName":"MN","trendName":"#InternationalWomensDay","placeID":"2452078","placeName":"Minneapolis","searchUrl":"http:\/\/twitter.com\/search?q=%23InternationalWomensDay","trendMapped":"international+womens+day","trendVolume":1691604},{"stateName":"MN","trendName":"Peyton Manning","placeID":"2452078","placeName":"Minneapolis","searchUrl":"http:\/\/twitter.com\/search?q=%22Peyton+Manning%22","trendMapped":"Peyton+Manning","trendVolume":264982},{"stateName":"MO","trendName":"#DemDebate","placeID":"2486982","placeName":"St. Louis","searchUrl":"http:\/\/twitter.com\/search?q=%23DemDebate","trendMapped":"dem+debate","trendVolume":829262},{"stateName":"MO","trendName":"#IWD2016","placeID":"2430683","placeName":"Kansas City","searchUrl":"http:\/\/twitter.com\/search?q=%23IWD2016","trendMapped":"iwd2016","trendVolume":333461},{"stateName":"MO","trendName":"#InternationalWomensDay","placeID":"2486982","placeName":"St. Louis","searchUrl":"http:\/\/twitter.com\/search?q=%23InternationalWomensDay","trendMapped":"international+womens+day","trendVolume":1920267},{"stateName":"MO","trendName":"#mondaymotivation","placeID":"2486982","placeName":"St. Louis","searchUrl":"http:\/\/twitter.com\/search?q=%23mondaymotivation","trendMapped":"mondaymotivation","trendVolume":146987},{"stateName":"MO","trendName":"Peyton Manning","placeID":"2430683","placeName":"Kansas City","searchUrl":"http:\/\/twitter.com\/search?q=%22Peyton+Manning%22","trendMapped":"Peyton+Manning","trendVolume":264486},{"stateName":"MS","trendName":"#DemDebate","placeID":"2428184","placeName":"Jackson","searchUrl":"http:\/\/twitter.com\/search?q=%23DemDebate","trendMapped":"dem+debate","trendVolume":814799},{"stateName":"MS","trendName":"#InternationalWomensDay","placeID":"2428184","placeName":"Jackson","searchUrl":"http:\/\/twitter.com\/search?q=%23InternationalWomensDay","trendMapped":"international+womens+day","trendVolume":1880702},{"stateName":"MS","trendName":"Donald Trump","placeID":"2428184","placeName":"Jackson","searchUrl":"http:\/\/twitter.com\/search?q=%22Donald+Trump%22","trendMapped":"Donald+Trump","trendVolume":330013},{"stateName":"NC","trendName":"#DemDebate","placeID":"2478307","placeName":"Raleigh","searchUrl":"http:\/\/twitter.com\/search?q=%23DemDebate","trendMapped":"dem+debate","trendVolume":816595},{"stateName":"NC","trendName":"#IWD2016","placeID":"2478307","placeName":"Raleigh","searchUrl":"http:\/\/twitter.com\/search?q=%23IWD2016","trendMapped":"iwd2016","trendVolume":932269},{"stateName":"NC","trendName":"#InternationalWomensDay","placeID":"2478307","placeName":"Raleigh","searchUrl":"http:\/\/twitter.com\/search?q=%23InternationalWomensDay","trendMapped":"international+womens+day","trendVolume":1920267},{"stateName":"NC","trendName":"Kanye","placeID":"2414469","placeName":"Greensboro","searchUrl":"http:\/\/twitter.com\/search?q=Kanye","trendMapped":"kanye","trendVolume":178781},{"stateName":"NC","trendName":"Kim K","placeID":"2414469","placeName":"Greensboro","searchUrl":"http:\/\/twitter.com\/search?q=%22Kim+K%22","trendMapped":"Kim+K","trendVolume":106863},{"stateName":"NC","trendName":"Peyton Manning","placeID":"2478307","placeName":"Raleigh","searchUrl":"http:\/\/twitter.com\/search?q=%22Peyton+Manning%22","trendMapped":"Peyton+Manning","trendVolume":264982},{"stateName":"NE","trendName":"#DemDebate","placeID":"2465512","placeName":"Omaha","searchUrl":"http:\/\/twitter.com\/search?q=%23DemDebate","trendMapped":"dem+debate","trendVolume":350753},{"stateName":"NE","trendName":"#InternationalWomensDay","placeID":"2465512","placeName":"Omaha","searchUrl":"http:\/\/twitter.com\/search?q=%23InternationalWomensDay","trendMapped":"international+womens+day","trendVolume":1212945},{"stateName":"NE","trendName":"Black","placeID":"2465512","placeName":"Omaha","searchUrl":"http:\/\/twitter.com\/search?q=Black","trendMapped":"black","trendVolume":776549},{"stateName":"NE","trendName":"Peyton Manning","placeID":"2465512","placeName":"Omaha","searchUrl":"http:\/\/twitter.com\/search?q=%22Peyton+Manning%22","trendMapped":"Peyton+Manning","trendVolume":264753},{"stateName":"NM","trendName":"#DemTownHall","placeID":"2352824","placeName":"Albuquerque","searchUrl":"http:\/\/twitter.com\/search?q=%23DemTownHall","trendMapped":"dem+town+hall","trendVolume":77495},{"stateName":"NM","trendName":"#InternationalWomensDay","placeID":"2352824","placeName":"Albuquerque","searchUrl":"http:\/\/twitter.com\/search?q=%23InternationalWomensDay","trendMapped":"international+womens+day","trendVolume":1741308},{"stateName":"NM","trendName":"#TheBachelor","placeID":"2352824","placeName":"Albuquerque","searchUrl":"http:\/\/twitter.com\/search?q=%23TheBachelor","trendMapped":"the+bachelor","trendVolume":69112},{"stateName":"NM","trendName":"APOYO MB","placeID":"2352824","placeName":"Albuquerque","searchUrl":"http:\/\/twitter.com\/search?q=%22APOYO+MB%22","trendMapped":"APOYO+MB","trendVolume":135792},{"stateName":"NM","trendName":"Roma","placeID":"2352824","placeName":"Albuquerque","searchUrl":"http:\/\/twitter.com\/search?q=Roma","trendMapped":"roma","trendVolume":299064},{"stateName":"NV","trendName":"#InternationalWomensDay","placeID":"2436704","placeName":"Las Vegas","searchUrl":"http:\/\/twitter.com\/search?q=%23InternationalWomensDay","trendMapped":"international+womens+day","trendVolume":1814383},{"stateName":"NV","trendName":"Kanye","placeID":"2436704","placeName":"Las Vegas","searchUrl":"http:\/\/twitter.com\/search?q=Kanye","trendMapped":"kanye","trendVolume":181073},{"stateName":"NV","trendName":"Peyton Manning","placeID":"2436704","placeName":"Las Vegas","searchUrl":"http:\/\/twitter.com\/search?q=%22Peyton+Manning%22","trendMapped":"Peyton+Manning","trendVolume":263616},{"stateName":"NY","trendName":"#DemTownHall","placeID":"2459115","placeName":"New York","searchUrl":"http:\/\/twitter.com\/search?q=%23DemTownHall","trendMapped":"dem+town+hall","trendVolume":77700},{"stateName":"NY","trendName":"#InternationalWomensDay","placeID":"2459115","placeName":"New York","searchUrl":"http:\/\/twitter.com\/search?q=%23InternationalWomensDay","trendMapped":"international+womens+day","trendVolume":1752459},{"stateName":"NY","trendName":"Eagles","placeID":"2459115","placeName":"New York","searchUrl":"http:\/\/twitter.com\/search?q=Eagles","trendMapped":"eagles","trendVolume":120379},{"stateName":"NY","trendName":"Roma","placeID":"2459115","placeName":"New York","searchUrl":"http:\/\/twitter.com\/search?q=Roma","trendMapped":"roma","trendVolume":300242},{"stateName":"OH","trendName":"#DemDebate","placeID":"2383660","placeName":"Columbus","searchUrl":"http:\/\/twitter.com\/search?q=%23DemDebate","trendMapped":"dem+debate","trendVolume":815104},{"stateName":"OH","trendName":"#IWD2016","placeID":"2380358","placeName":"Cincinnati","searchUrl":"http:\/\/twitter.com\/search?q=%23IWD2016","trendMapped":"iwd2016","trendVolume":919772},{"stateName":"OH","trendName":"#InternationalWomensDay","placeID":"2383660","placeName":"Columbus","searchUrl":"http:\/\/twitter.com\/search?q=%23InternationalWomensDay","trendMapped":"international+womens+day","trendVolume":1779929},{"stateName":"OH","trendName":"Eagles","placeID":"2381475","placeName":"Cleveland","searchUrl":"http:\/\/twitter.com\/search?q=Eagles","trendMapped":"eagles","trendVolume":117828},{"stateName":"OH","trendName":"Maria Sharapova","placeID":"2381475","placeName":"Cleveland","searchUrl":"http:\/\/twitter.com\/search?q=%22Maria+Sharapova%22","trendMapped":"Maria+Sharapova","trendVolume":119502},{"stateName":"OH","trendName":"Peyton Manning","placeID":"2380358","placeName":"Cincinnati","searchUrl":"http:\/\/twitter.com\/search?q=%22Peyton+Manning%22","trendMapped":"Peyton+Manning","trendVolume":264665},{"stateName":"OK","trendName":"#DemDebate","placeID":"2464592","placeName":"Oklahoma City","searchUrl":"http:\/\/twitter.com\/search?q=%23DemDebate","trendMapped":"dem+debate","trendVolume":611537},{"stateName":"OK","trendName":"#IWD2016","placeID":"2464592","placeName":"Oklahoma City","searchUrl":"http:\/\/twitter.com\/search?q=%23IWD2016","trendMapped":"iwd2016","trendVolume":744950},{"stateName":"OK","trendName":"#InternationalWomensDay","placeID":"2464592","placeName":"Oklahoma City","searchUrl":"http:\/\/twitter.com\/search?q=%23InternationalWomensDay","trendMapped":"international+womens+day","trendVolume":1535548},{"stateName":"OK","trendName":"Peyton Manning","placeID":"2464592","placeName":"Oklahoma City","searchUrl":"http:\/\/twitter.com\/search?q=%22Peyton+Manning%22","trendMapped":"Peyton+Manning","trendVolume":264640},{"stateName":"OR","trendName":"#DemDebate","placeID":"2475687","placeName":"Portland","searchUrl":"http:\/\/twitter.com\/search?q=%23DemDebate","trendMapped":"dem+debate","trendVolume":188796},{"stateName":"OR","trendName":"#InternationalWomensDay","placeID":"2475687","placeName":"Portland","searchUrl":"http:\/\/twitter.com\/search?q=%23InternationalWomensDay","trendMapped":"international+womens+day","trendVolume":1954959},{"stateName":"PA","trendName":"#3DaysTilDangerousWoman","placeID":"2471217","placeName":"Philadelphia","searchUrl":"http:\/\/twitter.com\/search?q=%233DaysTilDangerousWoman","trendMapped":"3+days+til+dangerous+woman","trendVolume":126761},{"stateName":"PA","trendName":"#DemDebate","placeID":"2418046","placeName":"Harrisburg","searchUrl":"http:\/\/twitter.com\/search?q=%23DemDebate","trendMapped":"dem+debate","trendVolume":816595},{"stateName":"PA","trendName":"#DemTownHall","placeID":"2471217","placeName":"Philadelphia","searchUrl":"http:\/\/twitter.com\/search?q=%23DemTownHall","trendMapped":"dem+town+hall","trendVolume":76781},{"stateName":"PA","trendName":"#DolceAmoreFirsts","placeID":"2418046","placeName":"Harrisburg","searchUrl":"http:\/\/twitter.com\/search?q=%23DolceAmoreFirsts","trendMapped":"dolce+amore+firsts","trendVolume":357101},{"stateName":"PA","trendName":"#InternationalWomensDay","placeID":"2473224","placeName":"Pittsburgh","searchUrl":"http:\/\/twitter.com\/search?q=%23InternationalWomensDay","trendMapped":"international+womens+day","trendVolume":1880702},{"stateName":"PA","trendName":"Eagles","placeID":"2471217","placeName":"Philadelphia","searchUrl":"http:\/\/twitter.com\/search?q=Eagles","trendMapped":"eagles","trendVolume":119726},{"stateName":"PA","trendName":"Maria","placeID":"2471217","placeName":"Philadelphia","searchUrl":"http:\/\/twitter.com\/search?q=Maria","trendMapped":"maria","trendVolume":335895},{"stateName":"PA","trendName":"Maria Sharapova","placeID":"2471217","placeName":"Philadelphia","searchUrl":"http:\/\/twitter.com\/search?q=%22Maria+Sharapova%22","trendMapped":"Maria+Sharapova","trendVolume":118957},{"stateName":"PA","trendName":"Peyton Manning","placeID":"2473224","placeName":"Pittsburgh","searchUrl":"http:\/\/twitter.com\/search?q=%22Peyton+Manning%22","trendMapped":"Peyton+Manning","trendVolume":264640},{"stateName":"PA","trendName":"Roma","placeID":"2471217","placeName":"Philadelphia","searchUrl":"http:\/\/twitter.com\/search?q=Roma","trendMapped":"roma","trendVolume":300242},{"stateName":"RI","trendName":"#IWD2016","placeID":"2477058","placeName":"Providence","searchUrl":"http:\/\/twitter.com\/search?q=%23IWD2016","trendMapped":"iwd2016","trendVolume":333461},{"stateName":"RI","trendName":"#InternationalWomensDay","placeID":"2477058","placeName":"Providence","searchUrl":"http:\/\/twitter.com\/search?q=%23InternationalWomensDay","trendMapped":"international+womens+day","trendVolume":1474974},{"stateName":"RI","trendName":"Peyton Manning","placeID":"2477058","placeName":"Providence","searchUrl":"http:\/\/twitter.com\/search?q=%22Peyton+Manning%22","trendMapped":"Peyton+Manning","trendVolume":264798},{"stateName":"TN","trendName":"#InternationalWomensDay","placeID":"2457170","placeName":"Nashville","searchUrl":"http:\/\/twitter.com\/search?q=%23InternationalWomensDay","trendMapped":"international+womens+day","trendVolume":1833275},{"stateName":"TN","trendName":"Hillary","placeID":"2449323","placeName":"Memphis","searchUrl":"http:\/\/twitter.com\/search?q=Hillary","trendMapped":"hillary","trendVolume":499367},{"stateName":"TN","trendName":"Peyton","placeID":"2449323","placeName":"Memphis","searchUrl":"http:\/\/twitter.com\/search?q=Peyton","trendMapped":"peyton","trendVolume":378144},{"stateName":"TN","trendName":"Peyton Manning","placeID":"2457170","placeName":"Nashville","searchUrl":"http:\/\/twitter.com\/search?q=%22Peyton+Manning%22","trendMapped":"Peyton+Manning","trendVolume":265146},{"stateName":"TN","trendName":"State","placeID":"2457170","placeName":"Nashville","searchUrl":"http:\/\/twitter.com\/search?q=State","trendMapped":"state","trendVolume":323378},{"stateName":"TX","trendName":"#DemDebate","placeID":"2487796","placeName":"San Antonio","searchUrl":"http:\/\/twitter.com\/search?q=%23DemDebate","trendMapped":"dem+debate","trendVolume":829262},{"stateName":"TX","trendName":"#DemTownHall","placeID":"2424766","placeName":"Houston","searchUrl":"http:\/\/twitter.com\/search?q=%23DemTownHall","trendMapped":"dem+town+hall","trendVolume":78023},{"stateName":"TX","trendName":"#IWD2016","placeID":"2388929","placeName":"Dallas-Ft. Worth","searchUrl":"http:\/\/twitter.com\/search?q=%23IWD2016","trendMapped":"iwd2016","trendVolume":932269},{"stateName":"TX","trendName":"#InternationalWomensDay","placeID":"2487796","placeName":"San Antonio","searchUrl":"http:\/\/twitter.com\/search?q=%23InternationalWomensDay","trendMapped":"international+womens+day","trendVolume":1937749},{"stateName":"TX","trendName":"APOYO MB","placeID":"2397816","placeName":"El Paso","searchUrl":"http:\/\/twitter.com\/search?q=%22APOYO+MB%22","trendMapped":"APOYO+MB","trendVolume":415628},{"stateName":"TX","trendName":"Bernie","placeID":"2487796","placeName":"San Antonio","searchUrl":"http:\/\/twitter.com\/search?q=Bernie","trendMapped":"bernie","trendVolume":581303},{"stateName":"TX","trendName":"Maria Sharapova","placeID":"2424766","placeName":"Houston","searchUrl":"http:\/\/twitter.com\/search?q=%22Maria+Sharapova%22","trendMapped":"Maria+Sharapova","trendVolume":122034},{"stateName":"TX","trendName":"Peyton Manning","placeID":"2487796","placeName":"San Antonio","searchUrl":"http:\/\/twitter.com\/search?q=%22Peyton+Manning%22","trendMapped":"Peyton+Manning","trendVolume":265213},{"stateName":"TX","trendName":"VAMOS MB","placeID":"2397816","placeName":"El Paso","searchUrl":"http:\/\/twitter.com\/search?q=%22VAMOS+MB%22","trendMapped":"VAMOS+MB","trendVolume":304546},{"stateName":"UT","trendName":"#DemDebate","placeID":"2487610","placeName":"Salt Lake City","searchUrl":"http:\/\/twitter.com\/search?q=%23DemDebate","trendMapped":"dem+debate","trendVolume":815992},{"stateName":"UT","trendName":"#DolceAmoreFirsts","placeID":"2487610","placeName":"Salt Lake City","searchUrl":"http:\/\/twitter.com\/search?q=%23DolceAmoreFirsts","trendMapped":"dolce+amore+firsts","trendVolume":357101},{"stateName":"UT","trendName":"#IWD2016","placeID":"2487610","placeName":"Salt Lake City","searchUrl":"http:\/\/twitter.com\/search?q=%23IWD2016","trendMapped":"iwd2016","trendVolume":399364},{"stateName":"UT","trendName":"#InternationalWomensDay","placeID":"2487610","placeName":"Salt Lake City","searchUrl":"http:\/\/twitter.com\/search?q=%23InternationalWomensDay","trendMapped":"international+womens+day","trendVolume":1920267},{"stateName":"UT","trendName":"Peyton Manning","placeID":"2487610","placeName":"Salt Lake City","searchUrl":"http:\/\/twitter.com\/search?q=%22Peyton+Manning%22","trendMapped":"Peyton+Manning","trendVolume":263025},{"stateName":"VA","trendName":"#3DaysTilDangerousWoman","placeID":"2512636","placeName":"Virginia Beach","searchUrl":"http:\/\/twitter.com\/search?q=%233DaysTilDangerousWoman","trendMapped":"3+days+til+dangerous+woman","trendVolume":129516},{"stateName":"VA","trendName":"#DemDebate","placeID":"2460389","placeName":"Norfolk","searchUrl":"http:\/\/twitter.com\/search?q=%23DemDebate","trendMapped":"dem+debate","trendVolume":350753},{"stateName":"VA","trendName":"#DemTownHall","placeID":"2512636","placeName":"Virginia Beach","searchUrl":"http:\/\/twitter.com\/search?q=%23DemTownHall","trendMapped":"dem+town+hall","trendVolume":71839},{"stateName":"VA","trendName":"#InternationalWomensDay","placeID":"2512636","placeName":"Virginia Beach","searchUrl":"http:\/\/twitter.com\/search?q=%23InternationalWomensDay","trendMapped":"international+womens+day","trendVolume":1741308},{"stateName":"VA","trendName":"Peyton Manning","placeID":"2480894","placeName":"Richmond","searchUrl":"http:\/\/twitter.com\/search?q=%22Peyton+Manning%22","trendMapped":"Peyton+Manning","trendVolume":264486},{"stateName":"WA","trendName":"#DemDebate","placeID":"2490383","placeName":"Seattle","searchUrl":"http:\/\/twitter.com\/search?q=%23DemDebate","trendMapped":"dem+debate","trendVolume":815992},{"stateName":"WA","trendName":"#InternationalWomensDay","placeID":"2490383","placeName":"Seattle","searchUrl":"http:\/\/twitter.com\/search?q=%23InternationalWomensDay","trendMapped":"international+womens+day","trendVolume":1890285},{"stateName":"WA","trendName":"#NationalCerealDay","placeID":"2490383","placeName":"Seattle","searchUrl":"http:\/\/twitter.com\/search?q=%23NationalCerealDay","trendMapped":"national+cereal+day","trendVolume":83188},{"stateName":"WA","trendName":"#mondaymotivation","placeID":"2490383","placeName":"Seattle","searchUrl":"http:\/\/twitter.com\/search?q=%23mondaymotivation","trendMapped":"mondaymotivation","trendVolume":146618},{"stateName":"WI","trendName":"#DemDebate","placeID":"2451822","placeName":"Milwaukee","searchUrl":"http:\/\/twitter.com\/search?q=%23DemDebate","trendMapped":"dem+debate","trendVolume":814203},{"stateName":"WI","trendName":"#InternationalWomensDay","placeID":"2451822","placeName":"Milwaukee","searchUrl":"http:\/\/twitter.com\/search?q=%23InternationalWomensDay","trendMapped":"international+womens+day","trendVolume":1910609},{"stateName":"WI","trendName":"Peyton Manning","placeID":"2451822","placeName":"Milwaukee","searchUrl":"http:\/\/twitter.com\/search?q=%22Peyton+Manning%22","trendMapped":"Peyton+Manning","trendVolume":261403},{"stateName":"XX","trendName":"#3DaysTilDangerousWoman","placeID":"23424977","placeName":"United States","searchUrl":"http:\/\/twitter.com\/search?q=%233DaysTilDangerousWoman","trendMapped":"3+days+til+dangerous+woman","trendVolume":124616},{"stateName":"XX","trendName":"#DemTownHall","placeID":"23424977","placeName":"United States","searchUrl":"http:\/\/twitter.com\/search?q=%23DemTownHall","trendMapped":"dem+town+hall","trendVolume":68354},{"stateName":"XX","trendName":"#InternationalWomensDay","placeID":"23424977","placeName":"United States","searchUrl":"http:\/\/twitter.com\/search?q=%23InternationalWomensDay","trendMapped":"international+womens+day","trendVolume":1661095},{"stateName":"XX","trendName":"#TheBachelor","placeID":"23424977","placeName":"United States","searchUrl":"http:\/\/twitter.com\/search?q=%23TheBachelor","trendMapped":"the+bachelor","trendVolume":78761},{"stateName":"XX","trendName":"APOYO MB","placeID":"23424977","placeName":"United States","searchUrl":"http:\/\/twitter.com\/search?q=%22APOYO+MB%22","trendMapped":"APOYO+MB","trendVolume":135792},{"stateName":"XX","trendName":"Maria Sharapova","placeID":"23424977","placeName":"United States","searchUrl":"http:\/\/twitter.com\/search?q=%22Maria+Sharapova%22","trendMapped":"Maria+Sharapova","trendVolume":121685}]