[{"stateName":"AL","trendName":"5SOS DAY","placeID":"2364559","placeName":"Birmingham","searchUrl":"http:\/\/twitter.com\/search?q=%225SOS+DAY%22","trendMapped":"5SOS+DAY","trendVolume":840149},{"stateName":"AL","trendName":"Chris Brown","placeID":"2364559","placeName":"Birmingham","searchUrl":"http:\/\/twitter.com\/search?q=%22Chris+Brown%22","trendMapped":"Chris+Brown","trendVolume":293098},{"stateName":"AL","trendName":"D'Angelo Russell","placeID":"2364559","placeName":"Birmingham","searchUrl":"http:\/\/twitter.com\/search?q=%22D%27Angelo+Russell%22","trendMapped":"D'Angelo+Russell","trendVolume":383968},{"stateName":"AL","trendName":"Kehlani","placeID":"2364559","placeName":"Birmingham","searchUrl":"http:\/\/twitter.com\/search?q=Kehlani","trendMapped":"kehlani","trendVolume":710123},{"stateName":"AL","trendName":"Kyrie","placeID":"2364559","placeName":"Birmingham","searchUrl":"http:\/\/twitter.com\/search?q=Kyrie","trendMapped":"kyrie","trendVolume":224355},{"stateName":"AZ","trendName":"#DolanTwinsNewVideo","placeID":"2449808","placeName":"Mesa","searchUrl":"http:\/\/twitter.com\/search?q=%23DolanTwinsNewVideo","trendMapped":"dolan+twins+new+video","trendVolume":252097},{"stateName":"AZ","trendName":"#EgyptAir","placeID":"2508428","placeName":"Tucson","searchUrl":"http:\/\/twitter.com\/search?q=%23EgyptAir","trendMapped":"egypt+air","trendVolume":207865},{"stateName":"AZ","trendName":"#GOPTownHall","placeID":"2508428","placeName":"Tucson","searchUrl":"http:\/\/twitter.com\/search?q=%23GOPTownHall","trendMapped":"gop+town+hall","trendVolume":198851},{"stateName":"AZ","trendName":"#iKONSexyJuneDay","placeID":"2508428","placeName":"Tucson","searchUrl":"http:\/\/twitter.com\/search?q=%23iKONSexyJuneDay","trendMapped":"i+kon+sexy+june+day","trendVolume":209964},{"stateName":"AZ","trendName":"5SOS DAY","placeID":"2508428","placeName":"Tucson","searchUrl":"http:\/\/twitter.com\/search?q=%225SOS+DAY%22","trendMapped":"5SOS+DAY","trendVolume":802813},{"stateName":"AZ","trendName":"D'Angelo Russell","placeID":"2508428","placeName":"Tucson","searchUrl":"http:\/\/twitter.com\/search?q=%22D%27Angelo+Russell%22","trendMapped":"D'Angelo+Russell","trendVolume":356830},{"stateName":"AZ","trendName":"Ecuador","placeID":"2449808","placeName":"Mesa","searchUrl":"http:\/\/twitter.com\/search?q=Ecuador","trendMapped":"ecuador","trendVolume":158410},{"stateName":"AZ","trendName":"House","placeID":"2471390","placeName":"Phoenix","searchUrl":"http:\/\/twitter.com\/search?q=House","trendMapped":"house","trendVolume":478909},{"stateName":"AZ","trendName":"Kehlani","placeID":"2471390","placeName":"Phoenix","searchUrl":"http:\/\/twitter.com\/search?q=Kehlani","trendMapped":"kehlani","trendVolume":710123},{"stateName":"AZ","trendName":"LET'S GO HARMOS","placeID":"2508428","placeName":"Tucson","searchUrl":"http:\/\/twitter.com\/search?q=%22LET%27S+GO+HARMOS%22","trendMapped":"LET'S+GO+HARMOS","trendVolume":257429},{"stateName":"CA","trendName":"#DolanTwinsNewVideo","placeID":"2488042","placeName":"San Jose","searchUrl":"http:\/\/twitter.com\/search?q=%23DolanTwinsNewVideo","trendMapped":"dolan+twins+new+video","trendVolume":252911},{"stateName":"CA","trendName":"#EgyptAir","placeID":"2441472","placeName":"Long Beach","searchUrl":"http:\/\/twitter.com\/search?q=%23EgyptAir","trendMapped":"egypt+air","trendVolume":207865},{"stateName":"CA","trendName":"#GOPTownHall","placeID":"2488042","placeName":"San Jose","searchUrl":"http:\/\/twitter.com\/search?q=%23GOPTownHall","trendMapped":"gop+town+hall","trendVolume":205418},{"stateName":"CA","trendName":"#iKONSexyJuneDay","placeID":"2488042","placeName":"San Jose","searchUrl":"http:\/\/twitter.com\/search?q=%23iKONSexyJuneDay","trendMapped":"i+kon+sexy+june+day","trendVolume":209964},{"stateName":"CA","trendName":"5SOS DAY","placeID":"2488042","placeName":"San Jose","searchUrl":"http:\/\/twitter.com\/search?q=%225SOS+DAY%22","trendMapped":"5SOS+DAY","trendVolume":1121915},{"stateName":"CA","trendName":"Chris Brown","placeID":"2487889","placeName":"San Diego","searchUrl":"http:\/\/twitter.com\/search?q=%22Chris+Brown%22","trendMapped":"Chris+Brown","trendVolume":303493},{"stateName":"CA","trendName":"Colombia","placeID":"2487956","placeName":"San Francisco","searchUrl":"http:\/\/twitter.com\/search?q=Colombia","trendMapped":"colombia","trendVolume":276730},{"stateName":"CA","trendName":"D'Angelo","placeID":"2487889","placeName":"San Diego","searchUrl":"http:\/\/twitter.com\/search?q=D%27Angelo","trendMapped":"d'+angelo","trendVolume":428627},{"stateName":"CA","trendName":"D'Angelo Russell","placeID":"2488042","placeName":"San Jose","searchUrl":"http:\/\/twitter.com\/search?q=%22D%27Angelo+Russell%22","trendMapped":"D'Angelo+Russell","trendVolume":383968},{"stateName":"CA","trendName":"Ecuador","placeID":"2488042","placeName":"San Jose","searchUrl":"http:\/\/twitter.com\/search?q=Ecuador","trendMapped":"ecuador","trendVolume":159756},{"stateName":"CA","trendName":"Kehlani","placeID":"2487956","placeName":"San Francisco","searchUrl":"http:\/\/twitter.com\/search?q=Kehlani","trendMapped":"kehlani","trendVolume":607525},{"stateName":"CA","trendName":"LET'S GO HARMOS","placeID":"2488042","placeName":"San Jose","searchUrl":"http:\/\/twitter.com\/search?q=%22LET%27S+GO+HARMOS%22","trendMapped":"LET'S+GO+HARMOS","trendVolume":257429},{"stateName":"CO","trendName":"#5SOSFam","placeID":"2391279","placeName":"Denver","searchUrl":"http:\/\/twitter.com\/search?q=%235SOSFam","trendMapped":"5+sos+fam","trendVolume":3468266},{"stateName":"CO","trendName":"#GOPTownHall","placeID":"2391279","placeName":"Denver","searchUrl":"http:\/\/twitter.com\/search?q=%23GOPTownHall","trendMapped":"gop+town+hall","trendVolume":193779},{"stateName":"CO","trendName":"5SOS DAY","placeID":"2391279","placeName":"Denver","searchUrl":"http:\/\/twitter.com\/search?q=%225SOS+DAY%22","trendMapped":"5SOS+DAY","trendVolume":1090683},{"stateName":"CO","trendName":"Chris Brown","placeID":"2391279","placeName":"Denver","searchUrl":"http:\/\/twitter.com\/search?q=%22Chris+Brown%22","trendMapped":"Chris+Brown","trendVolume":289479},{"stateName":"CO","trendName":"D'Angelo Russell","placeID":"2391279","placeName":"Denver","searchUrl":"http:\/\/twitter.com\/search?q=%22D%27Angelo+Russell%22","trendMapped":"D'Angelo+Russell","trendVolume":387179},{"stateName":"CO","trendName":"Kehlani","placeID":"2391279","placeName":"Denver","searchUrl":"http:\/\/twitter.com\/search?q=Kehlani","trendMapped":"kehlani","trendVolume":717595},{"stateName":"CO","trendName":"LET'S GO HARMOS","placeID":"2391279","placeName":"Denver","searchUrl":"http:\/\/twitter.com\/search?q=%22LET%27S+GO+HARMOS%22","trendMapped":"LET'S+GO+HARMOS","trendVolume":256617},{"stateName":"CT","trendName":"#GOPTownHall","placeID":"2458410","placeName":"New Haven","searchUrl":"http:\/\/twitter.com\/search?q=%23GOPTownHall","trendMapped":"gop+town+hall","trendVolume":204858},{"stateName":"CT","trendName":"5SOS DAY","placeID":"2458410","placeName":"New Haven","searchUrl":"http:\/\/twitter.com\/search?q=%225SOS+DAY%22","trendMapped":"5SOS+DAY","trendVolume":1121915},{"stateName":"CT","trendName":"Chris Brown","placeID":"2458410","placeName":"New Haven","searchUrl":"http:\/\/twitter.com\/search?q=%22Chris+Brown%22","trendMapped":"Chris+Brown","trendVolume":298974},{"stateName":"CT","trendName":"D'Angelo Russell","placeID":"2458410","placeName":"New Haven","searchUrl":"http:\/\/twitter.com\/search?q=%22D%27Angelo+Russell%22","trendMapped":"D'Angelo+Russell","trendVolume":349335},{"stateName":"CT","trendName":"Kehlani","placeID":"2458410","placeName":"New Haven","searchUrl":"http:\/\/twitter.com\/search?q=Kehlani","trendMapped":"kehlani","trendVolume":678949},{"stateName":"DC","trendName":"#GOPTownHall","placeID":"2514815","placeName":"Washington","searchUrl":"http:\/\/twitter.com\/search?q=%23GOPTownHall","trendMapped":"gop+town+hall","trendVolume":205418},{"stateName":"DC","trendName":"#iKONSexyJuneDay","placeID":"2514815","placeName":"Washington","searchUrl":"http:\/\/twitter.com\/search?q=%23iKONSexyJuneDay","trendMapped":"i+kon+sexy+june+day","trendVolume":202649},{"stateName":"DC","trendName":"5SOS DAY","placeID":"2514815","placeName":"Washington","searchUrl":"http:\/\/twitter.com\/search?q=%225SOS+DAY%22","trendMapped":"5SOS+DAY","trendVolume":1029039},{"stateName":"DC","trendName":"Chris Brown","placeID":"2514815","placeName":"Washington","searchUrl":"http:\/\/twitter.com\/search?q=%22Chris+Brown%22","trendMapped":"Chris+Brown","trendVolume":208900},{"stateName":"DC","trendName":"D'Angelo Russell","placeID":"2514815","placeName":"Washington","searchUrl":"http:\/\/twitter.com\/search?q=%22D%27Angelo+Russell%22","trendMapped":"D'Angelo+Russell","trendVolume":363190},{"stateName":"DC","trendName":"Ecuador","placeID":"2514815","placeName":"Washington","searchUrl":"http:\/\/twitter.com\/search?q=Ecuador","trendMapped":"ecuador","trendVolume":159756},{"stateName":"DC","trendName":"Kehlani","placeID":"2514815","placeName":"Washington","searchUrl":"http:\/\/twitter.com\/search?q=Kehlani","trendMapped":"kehlani","trendVolume":427965},{"stateName":"DC","trendName":"LET'S GO HARMOS","placeID":"2514815","placeName":"Washington","searchUrl":"http:\/\/twitter.com\/search?q=%22LET%27S+GO+HARMOS%22","trendMapped":"LET'S+GO+HARMOS","trendVolume":251826},{"stateName":"FL","trendName":"#DolanTwinsNewVideo","placeID":"2428344","placeName":"Jacksonville","searchUrl":"http:\/\/twitter.com\/search?q=%23DolanTwinsNewVideo","trendMapped":"dolan+twins+new+video","trendVolume":252843},{"stateName":"FL","trendName":"#EgyptAir","placeID":"2450022","placeName":"Miami","searchUrl":"http:\/\/twitter.com\/search?q=%23EgyptAir","trendMapped":"egypt+air","trendVolume":364164},{"stateName":"FL","trendName":"#GOPTownHall","placeID":"2503863","placeName":"Tampa","searchUrl":"http:\/\/twitter.com\/search?q=%23GOPTownHall","trendMapped":"gop+town+hall","trendVolume":225895},{"stateName":"FL","trendName":"5SOS DAY","placeID":"2503863","placeName":"Tampa","searchUrl":"http:\/\/twitter.com\/search?q=%225SOS+DAY%22","trendMapped":"5SOS+DAY","trendVolume":1090683},{"stateName":"FL","trendName":"Chris Brown","placeID":"2503713","placeName":"Tallahassee","searchUrl":"http:\/\/twitter.com\/search?q=%22Chris+Brown%22","trendMapped":"Chris+Brown","trendVolume":303493},{"stateName":"FL","trendName":"Colombia","placeID":"2503863","placeName":"Tampa","searchUrl":"http:\/\/twitter.com\/search?q=Colombia","trendMapped":"colombia","trendVolume":332947},{"stateName":"FL","trendName":"D'Angelo","placeID":"2503863","placeName":"Tampa","searchUrl":"http:\/\/twitter.com\/search?q=D%27Angelo","trendMapped":"d'+angelo","trendVolume":428627},{"stateName":"FL","trendName":"D'Angelo Russell","placeID":"2503863","placeName":"Tampa","searchUrl":"http:\/\/twitter.com\/search?q=%22D%27Angelo+Russell%22","trendMapped":"D'Angelo+Russell","trendVolume":383968},{"stateName":"FL","trendName":"Ecuador","placeID":"2503713","placeName":"Tallahassee","searchUrl":"http:\/\/twitter.com\/search?q=Ecuador","trendMapped":"ecuador","trendVolume":159228},{"stateName":"FL","trendName":"Kehlani","placeID":"2466256","placeName":"Orlando","searchUrl":"http:\/\/twitter.com\/search?q=Kehlani","trendMapped":"kehlani","trendVolume":760472},{"stateName":"FL","trendName":"Kyrie","placeID":"2450022","placeName":"Miami","searchUrl":"http:\/\/twitter.com\/search?q=Kyrie","trendMapped":"kyrie","trendVolume":199753},{"stateName":"FL","trendName":"LET'S GO HARMOS","placeID":"2503713","placeName":"Tallahassee","searchUrl":"http:\/\/twitter.com\/search?q=%22LET%27S+GO+HARMOS%22","trendMapped":"LET'S+GO+HARMOS","trendVolume":257429},{"stateName":"GA","trendName":"#GOPTownHall","placeID":"2357024","placeName":"Atlanta","searchUrl":"http:\/\/twitter.com\/search?q=%23GOPTownHall","trendMapped":"gop+town+hall","trendVolume":205418},{"stateName":"GA","trendName":"5SOS DAY","placeID":"2357024","placeName":"Atlanta","searchUrl":"http:\/\/twitter.com\/search?q=%225SOS+DAY%22","trendMapped":"5SOS+DAY","trendVolume":840149},{"stateName":"GA","trendName":"D'Angelo Russell","placeID":"2357024","placeName":"Atlanta","searchUrl":"http:\/\/twitter.com\/search?q=%22D%27Angelo+Russell%22","trendMapped":"D'Angelo+Russell","trendVolume":370545},{"stateName":"GA","trendName":"Ecuador","placeID":"2357024","placeName":"Atlanta","searchUrl":"http:\/\/twitter.com\/search?q=Ecuador","trendMapped":"ecuador","trendVolume":159228},{"stateName":"GA","trendName":"Kehlani","placeID":"2357024","placeName":"Atlanta","searchUrl":"http:\/\/twitter.com\/search?q=Kehlani","trendMapped":"kehlani","trendVolume":507673},{"stateName":"GA","trendName":"LET'S GO HARMOS","placeID":"2357024","placeName":"Atlanta","searchUrl":"http:\/\/twitter.com\/search?q=%22LET%27S+GO+HARMOS%22","trendMapped":"LET'S+GO+HARMOS","trendVolume":249973},{"stateName":"HI","trendName":"#BestFanArmy","placeID":"2423945","placeName":"Honolulu","searchUrl":"http:\/\/twitter.com\/search?q=%23BestFanArmy","trendMapped":"best+fan+army","trendVolume":8579341},{"stateName":"HI","trendName":"Kehlani","placeID":"2423945","placeName":"Honolulu","searchUrl":"http:\/\/twitter.com\/search?q=Kehlani","trendMapped":"kehlani","trendVolume":646904},{"stateName":"IL","trendName":"#GOPTownHall","placeID":"2379574","placeName":"Chicago","searchUrl":"http:\/\/twitter.com\/search?q=%23GOPTownHall","trendMapped":"gop+town+hall","trendVolume":198640},{"stateName":"IL","trendName":"#iKONSexyJuneDay","placeID":"2379574","placeName":"Chicago","searchUrl":"http:\/\/twitter.com\/search?q=%23iKONSexyJuneDay","trendMapped":"i+kon+sexy+june+day","trendVolume":206109},{"stateName":"IL","trendName":"5SOS DAY","placeID":"2379574","placeName":"Chicago","searchUrl":"http:\/\/twitter.com\/search?q=%225SOS+DAY%22","trendMapped":"5SOS+DAY","trendVolume":877569},{"stateName":"IL","trendName":"Chris Brown","placeID":"2379574","placeName":"Chicago","searchUrl":"http:\/\/twitter.com\/search?q=%22Chris+Brown%22","trendMapped":"Chris+Brown","trendVolume":211538},{"stateName":"IL","trendName":"D'Angelo Russell","placeID":"2379574","placeName":"Chicago","searchUrl":"http:\/\/twitter.com\/search?q=%22D%27Angelo+Russell%22","trendMapped":"D'Angelo+Russell","trendVolume":300510},{"stateName":"IL","trendName":"Ecuador","placeID":"2379574","placeName":"Chicago","searchUrl":"http:\/\/twitter.com\/search?q=Ecuador","trendMapped":"ecuador","trendVolume":158410},{"stateName":"IL","trendName":"Kehlani","placeID":"2379574","placeName":"Chicago","searchUrl":"http:\/\/twitter.com\/search?q=Kehlani","trendMapped":"kehlani","trendVolume":529987},{"stateName":"IL","trendName":"Kyrie","placeID":"2379574","placeName":"Chicago","searchUrl":"http:\/\/twitter.com\/search?q=Kyrie","trendMapped":"kyrie","trendVolume":199447},{"stateName":"IL","trendName":"LET'S GO HARMOS","placeID":"2379574","placeName":"Chicago","searchUrl":"http:\/\/twitter.com\/search?q=%22LET%27S+GO+HARMOS%22","trendMapped":"LET'S+GO+HARMOS","trendVolume":256617},{"stateName":"IN","trendName":"#GOPTownHall","placeID":"2427032","placeName":"Indianapolis","searchUrl":"http:\/\/twitter.com\/search?q=%23GOPTownHall","trendMapped":"gop+town+hall","trendVolume":198851},{"stateName":"IN","trendName":"5SOS DAY","placeID":"2427032","placeName":"Indianapolis","searchUrl":"http:\/\/twitter.com\/search?q=%225SOS+DAY%22","trendMapped":"5SOS+DAY","trendVolume":1090683},{"stateName":"IN","trendName":"Chris Brown","placeID":"2427032","placeName":"Indianapolis","searchUrl":"http:\/\/twitter.com\/search?q=%22Chris+Brown%22","trendMapped":"Chris+Brown","trendVolume":296940},{"stateName":"IN","trendName":"D'Angelo Russell","placeID":"2427032","placeName":"Indianapolis","searchUrl":"http:\/\/twitter.com\/search?q=%22D%27Angelo+Russell%22","trendMapped":"D'Angelo+Russell","trendVolume":344103},{"stateName":"IN","trendName":"Kehlani","placeID":"2427032","placeName":"Indianapolis","searchUrl":"http:\/\/twitter.com\/search?q=Kehlani","trendMapped":"kehlani","trendVolume":713777},{"stateName":"KY","trendName":"Chris Brown","placeID":"2442327","placeName":"Louisville","searchUrl":"http:\/\/twitter.com\/search?q=%22Chris+Brown%22","trendMapped":"Chris+Brown","trendVolume":303493},{"stateName":"KY","trendName":"D'Angelo Russell","placeID":"2442327","placeName":"Louisville","searchUrl":"http:\/\/twitter.com\/search?q=%22D%27Angelo+Russell%22","trendMapped":"D'Angelo+Russell","trendVolume":379054},{"stateName":"KY","trendName":"Kehlani","placeID":"2442327","placeName":"Louisville","searchUrl":"http:\/\/twitter.com\/search?q=Kehlani","trendMapped":"kehlani","trendVolume":677646},{"stateName":"KY","trendName":"LET'S GO HARMOS","placeID":"2442327","placeName":"Louisville","searchUrl":"http:\/\/twitter.com\/search?q=%22LET%27S+GO+HARMOS%22","trendMapped":"LET'S+GO+HARMOS","trendVolume":253248},{"stateName":"KY","trendName":"Trump","placeID":"2442327","placeName":"Louisville","searchUrl":"http:\/\/twitter.com\/search?q=Trump","trendMapped":"trump","trendVolume":1363880},{"stateName":"LA","trendName":"#GOPTownHall","placeID":"2359991","placeName":"Baton Rouge","searchUrl":"http:\/\/twitter.com\/search?q=%23GOPTownHall","trendMapped":"gop+town+hall","trendVolume":192684},{"stateName":"LA","trendName":"5SOS DAY","placeID":"2458833","placeName":"New Orleans","searchUrl":"http:\/\/twitter.com\/search?q=%225SOS+DAY%22","trendMapped":"5SOS+DAY","trendVolume":840149},{"stateName":"LA","trendName":"Chris Brown","placeID":"2458833","placeName":"New Orleans","searchUrl":"http:\/\/twitter.com\/search?q=%22Chris+Brown%22","trendMapped":"Chris+Brown","trendVolume":298974},{"stateName":"LA","trendName":"D'Angelo Russell","placeID":"2359991","placeName":"Baton Rouge","searchUrl":"http:\/\/twitter.com\/search?q=%22D%27Angelo+Russell%22","trendMapped":"D'Angelo+Russell","trendVolume":382422},{"stateName":"LA","trendName":"Kehlani","placeID":"2458833","placeName":"New Orleans","searchUrl":"http:\/\/twitter.com\/search?q=Kehlani","trendMapped":"kehlani","trendVolume":717595},{"stateName":"LA","trendName":"LET'S GO HARMOS","placeID":"2458833","placeName":"New Orleans","searchUrl":"http:\/\/twitter.com\/search?q=%22LET%27S+GO+HARMOS%22","trendMapped":"LET'S+GO+HARMOS","trendVolume":256617},{"stateName":"MA","trendName":"#EgyptAir","placeID":"2367105","placeName":"Boston","searchUrl":"http:\/\/twitter.com\/search?q=%23EgyptAir","trendMapped":"egypt+air","trendVolume":208193},{"stateName":"MA","trendName":"#GOPTownHall","placeID":"2367105","placeName":"Boston","searchUrl":"http:\/\/twitter.com\/search?q=%23GOPTownHall","trendMapped":"gop+town+hall","trendVolume":198640},{"stateName":"MA","trendName":"5SOS DAY","placeID":"2367105","placeName":"Boston","searchUrl":"http:\/\/twitter.com\/search?q=%225SOS+DAY%22","trendMapped":"5SOS+DAY","trendVolume":438937},{"stateName":"MA","trendName":"Chris Brown","placeID":"2367105","placeName":"Boston","searchUrl":"http:\/\/twitter.com\/search?q=%22Chris+Brown%22","trendMapped":"Chris+Brown","trendVolume":212999},{"stateName":"MA","trendName":"D'Angelo Russell","placeID":"2367105","placeName":"Boston","searchUrl":"http:\/\/twitter.com\/search?q=%22D%27Angelo+Russell%22","trendMapped":"D'Angelo+Russell","trendVolume":383968},{"stateName":"MA","trendName":"LET'S GO HARMOS","placeID":"2367105","placeName":"Boston","searchUrl":"http:\/\/twitter.com\/search?q=%22LET%27S+GO+HARMOS%22","trendMapped":"LET'S+GO+HARMOS","trendVolume":256617},{"stateName":"MD","trendName":"#EgyptAir","placeID":"2358820","placeName":"Baltimore","searchUrl":"http:\/\/twitter.com\/search?q=%23EgyptAir","trendMapped":"egypt+air","trendVolume":208193},{"stateName":"MD","trendName":"#GOPTownHall","placeID":"2358820","placeName":"Baltimore","searchUrl":"http:\/\/twitter.com\/search?q=%23GOPTownHall","trendMapped":"gop+town+hall","trendVolume":199217},{"stateName":"MD","trendName":"5SOS DAY","placeID":"2358820","placeName":"Baltimore","searchUrl":"http:\/\/twitter.com\/search?q=%225SOS+DAY%22","trendMapped":"5SOS+DAY","trendVolume":644799},{"stateName":"MD","trendName":"Chris Brown","placeID":"2358820","placeName":"Baltimore","searchUrl":"http:\/\/twitter.com\/search?q=%22Chris+Brown%22","trendMapped":"Chris+Brown","trendVolume":295158},{"stateName":"MD","trendName":"D'Angelo Russell","placeID":"2358820","placeName":"Baltimore","searchUrl":"http:\/\/twitter.com\/search?q=%22D%27Angelo+Russell%22","trendMapped":"D'Angelo+Russell","trendVolume":387179},{"stateName":"MD","trendName":"Kehlani","placeID":"2358820","placeName":"Baltimore","searchUrl":"http:\/\/twitter.com\/search?q=Kehlani","trendMapped":"kehlani","trendVolume":707238},{"stateName":"MD","trendName":"Kyrie","placeID":"2358820","placeName":"Baltimore","searchUrl":"http:\/\/twitter.com\/search?q=Kyrie","trendMapped":"kyrie","trendVolume":226188},{"stateName":"MD","trendName":"LET'S GO HARMOS","placeID":"2358820","placeName":"Baltimore","searchUrl":"http:\/\/twitter.com\/search?q=%22LET%27S+GO+HARMOS%22","trendMapped":"LET'S+GO+HARMOS","trendVolume":257949},{"stateName":"MI","trendName":"#GOPTownHall","placeID":"2391585","placeName":"Detroit","searchUrl":"http:\/\/twitter.com\/search?q=%23GOPTownHall","trendMapped":"gop+town+hall","trendVolume":165459},{"stateName":"MI","trendName":"#iKONSexyJuneDay","placeID":"2391585","placeName":"Detroit","searchUrl":"http:\/\/twitter.com\/search?q=%23iKONSexyJuneDay","trendMapped":"i+kon+sexy+june+day","trendVolume":206109},{"stateName":"MI","trendName":"1D VOTE ATTACK","placeID":"2391585","placeName":"Detroit","searchUrl":"http:\/\/twitter.com\/search?q=%221D+VOTE+ATTACK%22","trendMapped":"1D+VOTE+ATTACK","trendVolume":255587},{"stateName":"MI","trendName":"5SOS DAY","placeID":"2391585","placeName":"Detroit","searchUrl":"http:\/\/twitter.com\/search?q=%225SOS+DAY%22","trendMapped":"5SOS+DAY","trendVolume":605567},{"stateName":"MI","trendName":"Chris Brown","placeID":"2391585","placeName":"Detroit","searchUrl":"http:\/\/twitter.com\/search?q=%22Chris+Brown%22","trendMapped":"Chris+Brown","trendVolume":293098},{"stateName":"MI","trendName":"D'Angelo Russell","placeID":"2391585","placeName":"Detroit","searchUrl":"http:\/\/twitter.com\/search?q=%22D%27Angelo+Russell%22","trendMapped":"D'Angelo+Russell","trendVolume":363190},{"stateName":"MI","trendName":"Ecuador","placeID":"2391585","placeName":"Detroit","searchUrl":"http:\/\/twitter.com\/search?q=Ecuador","trendMapped":"ecuador","trendVolume":159777},{"stateName":"MI","trendName":"Kyrie","placeID":"2391585","placeName":"Detroit","searchUrl":"http:\/\/twitter.com\/search?q=Kyrie","trendMapped":"kyrie","trendVolume":224355},{"stateName":"MI","trendName":"LET'S GO HARMOS","placeID":"2391585","placeName":"Detroit","searchUrl":"http:\/\/twitter.com\/search?q=%22LET%27S+GO+HARMOS%22","trendMapped":"LET'S+GO+HARMOS","trendVolume":254602},{"stateName":"MN","trendName":"#DolanTwinsNewVideo","placeID":"2452078","placeName":"Minneapolis","searchUrl":"http:\/\/twitter.com\/search?q=%23DolanTwinsNewVideo","trendMapped":"dolan+twins+new+video","trendVolume":252791},{"stateName":"MN","trendName":"#EgyptAir","placeID":"2452078","placeName":"Minneapolis","searchUrl":"http:\/\/twitter.com\/search?q=%23EgyptAir","trendMapped":"egypt+air","trendVolume":207865},{"stateName":"MN","trendName":"#GOPTownHall","placeID":"2452078","placeName":"Minneapolis","searchUrl":"http:\/\/twitter.com\/search?q=%23GOPTownHall","trendMapped":"gop+town+hall","trendVolume":199217},{"stateName":"MN","trendName":"#ToneDownForWhat","placeID":"2452078","placeName":"Minneapolis","searchUrl":"http:\/\/twitter.com\/search?q=%23ToneDownForWhat","trendMapped":"tone+down+for+what","trendVolume":164608},{"stateName":"MN","trendName":"5SOS DAY","placeID":"2452078","placeName":"Minneapolis","searchUrl":"http:\/\/twitter.com\/search?q=%225SOS+DAY%22","trendMapped":"5SOS+DAY","trendVolume":438937},{"stateName":"MN","trendName":"D'Angelo Russell","placeID":"2452078","placeName":"Minneapolis","searchUrl":"http:\/\/twitter.com\/search?q=%22D%27Angelo+Russell%22","trendMapped":"D'Angelo+Russell","trendVolume":349335},{"stateName":"MN","trendName":"LET'S GO HARMOS","placeID":"2452078","placeName":"Minneapolis","searchUrl":"http:\/\/twitter.com\/search?q=%22LET%27S+GO+HARMOS%22","trendMapped":"LET'S+GO+HARMOS","trendVolume":256617},{"stateName":"MO","trendName":"#EgyptAir","placeID":"2430683","placeName":"Kansas City","searchUrl":"http:\/\/twitter.com\/search?q=%23EgyptAir","trendMapped":"egypt+air","trendVolume":207865},{"stateName":"MO","trendName":"#GOPTownHall","placeID":"2486982","placeName":"St. Louis","searchUrl":"http:\/\/twitter.com\/search?q=%23GOPTownHall","trendMapped":"gop+town+hall","trendVolume":191417},{"stateName":"MO","trendName":"5SOS DAY","placeID":"2486982","placeName":"St. Louis","searchUrl":"http:\/\/twitter.com\/search?q=%225SOS+DAY%22","trendMapped":"5SOS+DAY","trendVolume":1121915},{"stateName":"MO","trendName":"Chris Brown","placeID":"2486982","placeName":"St. Louis","searchUrl":"http:\/\/twitter.com\/search?q=%22Chris+Brown%22","trendMapped":"Chris+Brown","trendVolume":301567},{"stateName":"MO","trendName":"D'Angelo Russell","placeID":"2430683","placeName":"Kansas City","searchUrl":"http:\/\/twitter.com\/search?q=%22D%27Angelo+Russell%22","trendMapped":"D'Angelo+Russell","trendVolume":363190},{"stateName":"MO","trendName":"Kehlani","placeID":"2486982","placeName":"St. Louis","searchUrl":"http:\/\/twitter.com\/search?q=Kehlani","trendMapped":"kehlani","trendVolume":711159},{"stateName":"MO","trendName":"LET'S GO HARMOS","placeID":"2486982","placeName":"St. Louis","searchUrl":"http:\/\/twitter.com\/search?q=%22LET%27S+GO+HARMOS%22","trendMapped":"LET'S+GO+HARMOS","trendVolume":253887},{"stateName":"MS","trendName":"#GOPTownHall","placeID":"2428184","placeName":"Jackson","searchUrl":"http:\/\/twitter.com\/search?q=%23GOPTownHall","trendMapped":"gop+town+hall","trendVolume":189989},{"stateName":"MS","trendName":"5SOS DAY","placeID":"2428184","placeName":"Jackson","searchUrl":"http:\/\/twitter.com\/search?q=%225SOS+DAY%22","trendMapped":"5SOS+DAY","trendVolume":974744},{"stateName":"MS","trendName":"Chris Brown","placeID":"2428184","placeName":"Jackson","searchUrl":"http:\/\/twitter.com\/search?q=%22Chris+Brown%22","trendMapped":"Chris+Brown","trendVolume":301567},{"stateName":"MS","trendName":"Kehlani","placeID":"2428184","placeName":"Jackson","searchUrl":"http:\/\/twitter.com\/search?q=Kehlani","trendMapped":"kehlani","trendVolume":680596},{"stateName":"MS","trendName":"LET'S GO HARMOS","placeID":"2428184","placeName":"Jackson","searchUrl":"http:\/\/twitter.com\/search?q=%22LET%27S+GO+HARMOS%22","trendMapped":"LET'S+GO+HARMOS","trendVolume":254249},{"stateName":"NC","trendName":"5SOS DAY","placeID":"2478307","placeName":"Raleigh","searchUrl":"http:\/\/twitter.com\/search?q=%225SOS+DAY%22","trendMapped":"5SOS+DAY","trendVolume":1090683},{"stateName":"NC","trendName":"Chris Brown","placeID":"2478307","placeName":"Raleigh","searchUrl":"http:\/\/twitter.com\/search?q=%22Chris+Brown%22","trendMapped":"Chris+Brown","trendVolume":311235},{"stateName":"NC","trendName":"D'Angelo Russell","placeID":"2414469","placeName":"Greensboro","searchUrl":"http:\/\/twitter.com\/search?q=%22D%27Angelo+Russell%22","trendMapped":"D'Angelo+Russell","trendVolume":306071},{"stateName":"NC","trendName":"Kehlani","placeID":"2478307","placeName":"Raleigh","searchUrl":"http:\/\/twitter.com\/search?q=Kehlani","trendMapped":"kehlani","trendVolume":710123},{"stateName":"NC","trendName":"Kyrie","placeID":"2478307","placeName":"Raleigh","searchUrl":"http:\/\/twitter.com\/search?q=Kyrie","trendMapped":"kyrie","trendVolume":226405},{"stateName":"NC","trendName":"LET'S GO HARMOS","placeID":"2478307","placeName":"Raleigh","searchUrl":"http:\/\/twitter.com\/search?q=%22LET%27S+GO+HARMOS%22","trendMapped":"LET'S+GO+HARMOS","trendVolume":257949},{"stateName":"NC","trendName":"Russell","placeID":"2478307","placeName":"Raleigh","searchUrl":"http:\/\/twitter.com\/search?q=Russell","trendMapped":"russell","trendVolume":463387},{"stateName":"NC","trendName":"Snapchat","placeID":"2414469","placeName":"Greensboro","searchUrl":"http:\/\/twitter.com\/search?q=Snapchat","trendMapped":"snapchat","trendVolume":747584},{"stateName":"NE","trendName":"#DolanTwinsNewVideo","placeID":"2465512","placeName":"Omaha","searchUrl":"http:\/\/twitter.com\/search?q=%23DolanTwinsNewVideo","trendMapped":"dolan+twins+new+video","trendVolume":252097},{"stateName":"NE","trendName":"5SOS DAY","placeID":"2465512","placeName":"Omaha","searchUrl":"http:\/\/twitter.com\/search?q=%225SOS+DAY%22","trendMapped":"5SOS+DAY","trendVolume":470544},{"stateName":"NE","trendName":"D'Angelo Russell","placeID":"2465512","placeName":"Omaha","searchUrl":"http:\/\/twitter.com\/search?q=%22D%27Angelo+Russell%22","trendMapped":"D'Angelo+Russell","trendVolume":324936},{"stateName":"NE","trendName":"Kehlani","placeID":"2465512","placeName":"Omaha","searchUrl":"http:\/\/twitter.com\/search?q=Kehlani","trendMapped":"kehlani","trendVolume":652823},{"stateName":"NM","trendName":"#DolanTwinsNewVideo","placeID":"2352824","placeName":"Albuquerque","searchUrl":"http:\/\/twitter.com\/search?q=%23DolanTwinsNewVideo","trendMapped":"dolan+twins+new+video","trendVolume":252859},{"stateName":"NM","trendName":"#GOPTownHall","placeID":"2352824","placeName":"Albuquerque","searchUrl":"http:\/\/twitter.com\/search?q=%23GOPTownHall","trendMapped":"gop+town+hall","trendVolume":185555},{"stateName":"NM","trendName":"5SOS DAY","placeID":"2352824","placeName":"Albuquerque","searchUrl":"http:\/\/twitter.com\/search?q=%225SOS+DAY%22","trendMapped":"5SOS+DAY","trendVolume":1121915},{"stateName":"NM","trendName":"Ecuador","placeID":"2352824","placeName":"Albuquerque","searchUrl":"http:\/\/twitter.com\/search?q=Ecuador","trendMapped":"ecuador","trendVolume":159756},{"stateName":"NM","trendName":"LET'S GO HARMOS","placeID":"2352824","placeName":"Albuquerque","searchUrl":"http:\/\/twitter.com\/search?q=%22LET%27S+GO+HARMOS%22","trendMapped":"LET'S+GO+HARMOS","trendVolume":250850},{"stateName":"NV","trendName":"#EgyptAir","placeID":"2436704","placeName":"Las Vegas","searchUrl":"http:\/\/twitter.com\/search?q=%23EgyptAir","trendMapped":"egypt+air","trendVolume":208193},{"stateName":"NV","trendName":"5SOS DAY","placeID":"2436704","placeName":"Las Vegas","searchUrl":"http:\/\/twitter.com\/search?q=%225SOS+DAY%22","trendMapped":"5SOS+DAY","trendVolume":840149},{"stateName":"NV","trendName":"Chris Brown","placeID":"2436704","placeName":"Las Vegas","searchUrl":"http:\/\/twitter.com\/search?q=%22Chris+Brown%22","trendMapped":"Chris+Brown","trendVolume":312439},{"stateName":"NV","trendName":"Kehlani","placeID":"2436704","placeName":"Las Vegas","searchUrl":"http:\/\/twitter.com\/search?q=Kehlani","trendMapped":"kehlani","trendVolume":673604},{"stateName":"NV","trendName":"LET'S GO HARMOS","placeID":"2436704","placeName":"Las Vegas","searchUrl":"http:\/\/twitter.com\/search?q=%22LET%27S+GO+HARMOS%22","trendMapped":"LET'S+GO+HARMOS","trendVolume":251826},{"stateName":"NY","trendName":"#GOPTownHall","placeID":"2459115","placeName":"New York","searchUrl":"http:\/\/twitter.com\/search?q=%23GOPTownHall","trendMapped":"gop+town+hall","trendVolume":198640},{"stateName":"NY","trendName":"5SOS DAY","placeID":"2459115","placeName":"New York","searchUrl":"http:\/\/twitter.com\/search?q=%225SOS+DAY%22","trendMapped":"5SOS+DAY","trendVolume":1047233},{"stateName":"NY","trendName":"Chris Brown","placeID":"2459115","placeName":"New York","searchUrl":"http:\/\/twitter.com\/search?q=%22Chris+Brown%22","trendMapped":"Chris+Brown","trendVolume":208900},{"stateName":"NY","trendName":"D'Angelo Russell","placeID":"2459115","placeName":"New York","searchUrl":"http:\/\/twitter.com\/search?q=%22D%27Angelo+Russell%22","trendMapped":"D'Angelo+Russell","trendVolume":349335},{"stateName":"NY","trendName":"Ecuador","placeID":"2459115","placeName":"New York","searchUrl":"http:\/\/twitter.com\/search?q=Ecuador","trendMapped":"ecuador","trendVolume":159756},{"stateName":"NY","trendName":"LET'S GO HARMOS","placeID":"2459115","placeName":"New York","searchUrl":"http:\/\/twitter.com\/search?q=%22LET%27S+GO+HARMOS%22","trendMapped":"LET'S+GO+HARMOS","trendVolume":253248},{"stateName":"OH","trendName":"#GOPTownHall","placeID":"2383660","placeName":"Columbus","searchUrl":"http:\/\/twitter.com\/search?q=%23GOPTownHall","trendMapped":"gop+town+hall","trendVolume":205418},{"stateName":"OH","trendName":"5SOS DAY","placeID":"2383660","placeName":"Columbus","searchUrl":"http:\/\/twitter.com\/search?q=%225SOS+DAY%22","trendMapped":"5SOS+DAY","trendVolume":1029039},{"stateName":"OH","trendName":"Chris Brown","placeID":"2383660","placeName":"Columbus","searchUrl":"http:\/\/twitter.com\/search?q=%22Chris+Brown%22","trendMapped":"Chris+Brown","trendVolume":293798},{"stateName":"OH","trendName":"D'Angelo Russell","placeID":"2383660","placeName":"Columbus","searchUrl":"http:\/\/twitter.com\/search?q=%22D%27Angelo+Russell%22","trendMapped":"D'Angelo+Russell","trendVolume":379054},{"stateName":"OH","trendName":"Hillary","placeID":"2380358","placeName":"Cincinnati","searchUrl":"http:\/\/twitter.com\/search?q=Hillary","trendMapped":"hillary","trendVolume":241427},{"stateName":"OH","trendName":"Kehlani","placeID":"2383660","placeName":"Columbus","searchUrl":"http:\/\/twitter.com\/search?q=Kehlani","trendMapped":"kehlani","trendVolume":710123},{"stateName":"OH","trendName":"LET'S GO HARMOS","placeID":"2383660","placeName":"Columbus","searchUrl":"http:\/\/twitter.com\/search?q=%22LET%27S+GO+HARMOS%22","trendMapped":"LET'S+GO+HARMOS","trendVolume":257119},{"stateName":"OK","trendName":"#5SOSFam","placeID":"2464592","placeName":"Oklahoma City","searchUrl":"http:\/\/twitter.com\/search?q=%235SOSFam","trendMapped":"5+sos+fam","trendVolume":2760826},{"stateName":"OK","trendName":"#BestFanArmy","placeID":"2464592","placeName":"Oklahoma City","searchUrl":"http:\/\/twitter.com\/search?q=%23BestFanArmy","trendMapped":"best+fan+army","trendVolume":8579341},{"stateName":"OK","trendName":"#GOPTownHall","placeID":"2464592","placeName":"Oklahoma City","searchUrl":"http:\/\/twitter.com\/search?q=%23GOPTownHall","trendMapped":"gop+town+hall","trendVolume":205418},{"stateName":"OK","trendName":"Chris Brown","placeID":"2464592","placeName":"Oklahoma City","searchUrl":"http:\/\/twitter.com\/search?q=%22Chris+Brown%22","trendMapped":"Chris+Brown","trendVolume":215008},{"stateName":"OK","trendName":"Kehlani","placeID":"2464592","placeName":"Oklahoma City","searchUrl":"http:\/\/twitter.com\/search?q=Kehlani","trendMapped":"kehlani","trendVolume":607525},{"stateName":"OK","trendName":"LET'S GO HARMOS","placeID":"2464592","placeName":"Oklahoma City","searchUrl":"http:\/\/twitter.com\/search?q=%22LET%27S+GO+HARMOS%22","trendMapped":"LET'S+GO+HARMOS","trendVolume":253887},{"stateName":"OR","trendName":"#GOPTownHall","placeID":"2475687","placeName":"Portland","searchUrl":"http:\/\/twitter.com\/search?q=%23GOPTownHall","trendMapped":"gop+town+hall","trendVolume":205418},{"stateName":"OR","trendName":"5SOS DAY","placeID":"2475687","placeName":"Portland","searchUrl":"http:\/\/twitter.com\/search?q=%225SOS+DAY%22","trendMapped":"5SOS+DAY","trendVolume":877569},{"stateName":"OR","trendName":"Chris Brown","placeID":"2475687","placeName":"Portland","searchUrl":"http:\/\/twitter.com\/search?q=%22Chris+Brown%22","trendMapped":"Chris+Brown","trendVolume":300858},{"stateName":"OR","trendName":"D'Angelo Russell","placeID":"2475687","placeName":"Portland","searchUrl":"http:\/\/twitter.com\/search?q=%22D%27Angelo+Russell%22","trendMapped":"D'Angelo+Russell","trendVolume":336345},{"stateName":"OR","trendName":"Kehlani","placeID":"2475687","placeName":"Portland","searchUrl":"http:\/\/twitter.com\/search?q=Kehlani","trendMapped":"kehlani","trendVolume":708161},{"stateName":"OR","trendName":"LET'S GO HARMOS","placeID":"2475687","placeName":"Portland","searchUrl":"http:\/\/twitter.com\/search?q=%22LET%27S+GO+HARMOS%22","trendMapped":"LET'S+GO+HARMOS","trendVolume":256617},{"stateName":"PA","trendName":"#DolanTwinsNewVideo","placeID":"2471217","placeName":"Philadelphia","searchUrl":"http:\/\/twitter.com\/search?q=%23DolanTwinsNewVideo","trendMapped":"dolan+twins+new+video","trendVolume":252859},{"stateName":"PA","trendName":"#EgyptAir","placeID":"2473224","placeName":"Pittsburgh","searchUrl":"http:\/\/twitter.com\/search?q=%23EgyptAir","trendMapped":"egypt+air","trendVolume":208193},{"stateName":"PA","trendName":"#GOPTownHall","placeID":"2473224","placeName":"Pittsburgh","searchUrl":"http:\/\/twitter.com\/search?q=%23GOPTownHall","trendMapped":"gop+town+hall","trendVolume":205418},{"stateName":"PA","trendName":"5SOS DAY","placeID":"2473224","placeName":"Pittsburgh","searchUrl":"http:\/\/twitter.com\/search?q=%225SOS+DAY%22","trendMapped":"5SOS+DAY","trendVolume":1047233},{"stateName":"PA","trendName":"Chris Brown","placeID":"2473224","placeName":"Pittsburgh","searchUrl":"http:\/\/twitter.com\/search?q=%22Chris+Brown%22","trendMapped":"Chris+Brown","trendVolume":296940},{"stateName":"PA","trendName":"D'Angelo Russell","placeID":"2473224","placeName":"Pittsburgh","searchUrl":"http:\/\/twitter.com\/search?q=%22D%27Angelo+Russell%22","trendMapped":"D'Angelo+Russell","trendVolume":356830},{"stateName":"PA","trendName":"Donald Trump","placeID":"2418046","placeName":"Harrisburg","searchUrl":"http:\/\/twitter.com\/search?q=%22Donald+Trump%22","trendMapped":"Donald+Trump","trendVolume":329127},{"stateName":"PA","trendName":"Ecuador","placeID":"2471217","placeName":"Philadelphia","searchUrl":"http:\/\/twitter.com\/search?q=Ecuador","trendMapped":"ecuador","trendVolume":159756},{"stateName":"PA","trendName":"Kehlani","placeID":"2473224","placeName":"Pittsburgh","searchUrl":"http:\/\/twitter.com\/search?q=Kehlani","trendMapped":"kehlani","trendVolume":651765},{"stateName":"PA","trendName":"LET'S GO HARMOS","placeID":"2473224","placeName":"Pittsburgh","searchUrl":"http:\/\/twitter.com\/search?q=%22LET%27S+GO+HARMOS%22","trendMapped":"LET'S+GO+HARMOS","trendVolume":253887},{"stateName":"RI","trendName":"#GOPTownHall","placeID":"2477058","placeName":"Providence","searchUrl":"http:\/\/twitter.com\/search?q=%23GOPTownHall","trendMapped":"gop+town+hall","trendVolume":205418},{"stateName":"RI","trendName":"5SOS DAY","placeID":"2477058","placeName":"Providence","searchUrl":"http:\/\/twitter.com\/search?q=%225SOS+DAY%22","trendMapped":"5SOS+DAY","trendVolume":1047233},{"stateName":"RI","trendName":"Chris Brown","placeID":"2477058","placeName":"Providence","searchUrl":"http:\/\/twitter.com\/search?q=%22Chris+Brown%22","trendMapped":"Chris+Brown","trendVolume":303493},{"stateName":"RI","trendName":"D'Angelo Russell","placeID":"2477058","placeName":"Providence","searchUrl":"http:\/\/twitter.com\/search?q=%22D%27Angelo+Russell%22","trendMapped":"D'Angelo+Russell","trendVolume":379054},{"stateName":"RI","trendName":"Kehlani","placeID":"2477058","placeName":"Providence","searchUrl":"http:\/\/twitter.com\/search?q=Kehlani","trendMapped":"kehlani","trendVolume":612425},{"stateName":"RI","trendName":"LET'S GO HARMOS","placeID":"2477058","placeName":"Providence","searchUrl":"http:\/\/twitter.com\/search?q=%22LET%27S+GO+HARMOS%22","trendMapped":"LET'S+GO+HARMOS","trendVolume":252844},{"stateName":"TN","trendName":"#GOPTownHall","placeID":"2457170","placeName":"Nashville","searchUrl":"http:\/\/twitter.com\/search?q=%23GOPTownHall","trendMapped":"gop+town+hall","trendVolume":197182},{"stateName":"TN","trendName":"5SOS DAY","placeID":"2457170","placeName":"Nashville","searchUrl":"http:\/\/twitter.com\/search?q=%225SOS+DAY%22","trendMapped":"5SOS+DAY","trendVolume":1121915},{"stateName":"TN","trendName":"Chris Brown","placeID":"2457170","placeName":"Nashville","searchUrl":"http:\/\/twitter.com\/search?q=%22Chris+Brown%22","trendMapped":"Chris+Brown","trendVolume":308236},{"stateName":"TN","trendName":"D'Angelo Russell","placeID":"2449323","placeName":"Memphis","searchUrl":"http:\/\/twitter.com\/search?q=%22D%27Angelo+Russell%22","trendMapped":"D'Angelo+Russell","trendVolume":383968},{"stateName":"TN","trendName":"Kehlani","placeID":"2457170","placeName":"Nashville","searchUrl":"http:\/\/twitter.com\/search?q=Kehlani","trendMapped":"kehlani","trendVolume":760472},{"stateName":"TN","trendName":"LET'S GO HARMOS","placeID":"2457170","placeName":"Nashville","searchUrl":"http:\/\/twitter.com\/search?q=%22LET%27S+GO+HARMOS%22","trendMapped":"LET'S+GO+HARMOS","trendVolume":255913},{"stateName":"TX","trendName":"#5SOSFam","placeID":"2424766","placeName":"Houston","searchUrl":"http:\/\/twitter.com\/search?q=%235SOSFam","trendMapped":"5+sos+fam","trendVolume":3306539},{"stateName":"TX","trendName":"#GOPTownHall","placeID":"2487796","placeName":"San Antonio","searchUrl":"http:\/\/twitter.com\/search?q=%23GOPTownHall","trendMapped":"gop+town+hall","trendVolume":204858},{"stateName":"TX","trendName":"#iKONSexyJuneDay","placeID":"2424766","placeName":"Houston","searchUrl":"http:\/\/twitter.com\/search?q=%23iKONSexyJuneDay","trendMapped":"i+kon+sexy+june+day","trendVolume":209964},{"stateName":"TX","trendName":"5SOS DAY","placeID":"2487796","placeName":"San Antonio","searchUrl":"http:\/\/twitter.com\/search?q=%225SOS+DAY%22","trendMapped":"5SOS+DAY","trendVolume":1090683},{"stateName":"TX","trendName":"Chris Brown","placeID":"2487796","placeName":"San Antonio","searchUrl":"http:\/\/twitter.com\/search?q=%22Chris+Brown%22","trendMapped":"Chris+Brown","trendVolume":306652},{"stateName":"TX","trendName":"D'Angelo","placeID":"2388929","placeName":"Dallas-Ft. Worth","searchUrl":"http:\/\/twitter.com\/search?q=D%27Angelo","trendMapped":"d'+angelo","trendVolume":428627},{"stateName":"TX","trendName":"D'Angelo Russell","placeID":"2388929","placeName":"Dallas-Ft. Worth","searchUrl":"http:\/\/twitter.com\/search?q=%22D%27Angelo+Russell%22","trendMapped":"D'Angelo+Russell","trendVolume":363190},{"stateName":"TX","trendName":"Ecuador","placeID":"2424766","placeName":"Houston","searchUrl":"http:\/\/twitter.com\/search?q=Ecuador","trendMapped":"ecuador","trendVolume":158703},{"stateName":"TX","trendName":"Kehlani","placeID":"2487796","placeName":"San Antonio","searchUrl":"http:\/\/twitter.com\/search?q=Kehlani","trendMapped":"kehlani","trendVolume":760472},{"stateName":"TX","trendName":"Kyrie","placeID":"2487796","placeName":"San Antonio","searchUrl":"http:\/\/twitter.com\/search?q=Kyrie","trendMapped":"kyrie","trendVolume":199753},{"stateName":"TX","trendName":"LET'S GO HARMOS","placeID":"2487796","placeName":"San Antonio","searchUrl":"http:\/\/twitter.com\/search?q=%22LET%27S+GO+HARMOS%22","trendMapped":"LET'S+GO+HARMOS","trendVolume":257429},{"stateName":"TX","trendName":"M\u00e9xico","placeID":"2424766","placeName":"Houston","searchUrl":"http:\/\/twitter.com\/search?q=M%C3%A9xico","trendMapped":"m\u00e9xico","trendVolume":275863},{"stateName":"TX","trendName":"Trump","placeID":"2397816","placeName":"El Paso","searchUrl":"http:\/\/twitter.com\/search?q=Trump","trendMapped":"trump","trendVolume":1397198},{"stateName":"UT","trendName":"#GOPTownHall","placeID":"2487610","placeName":"Salt Lake City","searchUrl":"http:\/\/twitter.com\/search?q=%23GOPTownHall","trendMapped":"gop+town+hall","trendVolume":205418},{"stateName":"UT","trendName":"#ToneDownForWhat","placeID":"2487610","placeName":"Salt Lake City","searchUrl":"http:\/\/twitter.com\/search?q=%23ToneDownForWhat","trendMapped":"tone+down+for+what","trendVolume":186383},{"stateName":"UT","trendName":"5SOS DAY","placeID":"2487610","placeName":"Salt Lake City","searchUrl":"http:\/\/twitter.com\/search?q=%225SOS+DAY%22","trendMapped":"5SOS+DAY","trendVolume":1029039},{"stateName":"UT","trendName":"D'Angelo Russell","placeID":"2487610","placeName":"Salt Lake City","searchUrl":"http:\/\/twitter.com\/search?q=%22D%27Angelo+Russell%22","trendMapped":"D'Angelo+Russell","trendVolume":387179},{"stateName":"UT","trendName":"LET'S GO HARMOS","placeID":"2487610","placeName":"Salt Lake City","searchUrl":"http:\/\/twitter.com\/search?q=%22LET%27S+GO+HARMOS%22","trendMapped":"LET'S+GO+HARMOS","trendVolume":251826},{"stateName":"UT","trendName":"Spring","placeID":"2487610","placeName":"Salt Lake City","searchUrl":"http:\/\/twitter.com\/search?q=Spring","trendMapped":"spring","trendVolume":356604},{"stateName":"VA","trendName":"#DolanTwinsNewVideo","placeID":"2512636","placeName":"Virginia Beach","searchUrl":"http:\/\/twitter.com\/search?q=%23DolanTwinsNewVideo","trendMapped":"dolan+twins+new+video","trendVolume":252097},{"stateName":"VA","trendName":"#EgyptAir","placeID":"2512636","placeName":"Virginia Beach","searchUrl":"http:\/\/twitter.com\/search?q=%23EgyptAir","trendMapped":"egypt+air","trendVolume":207865},{"stateName":"VA","trendName":"#GOPTownHall","placeID":"2512636","placeName":"Virginia Beach","searchUrl":"http:\/\/twitter.com\/search?q=%23GOPTownHall","trendMapped":"gop+town+hall","trendVolume":205418},{"stateName":"VA","trendName":"5SOS DAY","placeID":"2512636","placeName":"Virginia Beach","searchUrl":"http:\/\/twitter.com\/search?q=%225SOS+DAY%22","trendMapped":"5SOS+DAY","trendVolume":1121915},{"stateName":"VA","trendName":"Chris Brown","placeID":"2512636","placeName":"Virginia Beach","searchUrl":"http:\/\/twitter.com\/search?q=%22Chris+Brown%22","trendMapped":"Chris+Brown","trendVolume":303887},{"stateName":"VA","trendName":"D'Angelo Russell","placeID":"2512636","placeName":"Virginia Beach","searchUrl":"http:\/\/twitter.com\/search?q=%22D%27Angelo+Russell%22","trendMapped":"D'Angelo+Russell","trendVolume":372853},{"stateName":"VA","trendName":"Donald Trump","placeID":"2480894","placeName":"Richmond","searchUrl":"http:\/\/twitter.com\/search?q=%22Donald+Trump%22","trendMapped":"Donald+Trump","trendVolume":332498},{"stateName":"VA","trendName":"Ecuador","placeID":"2512636","placeName":"Virginia Beach","searchUrl":"http:\/\/twitter.com\/search?q=Ecuador","trendMapped":"ecuador","trendVolume":161221},{"stateName":"VA","trendName":"HARMOS GO CRAZY","placeID":"2512636","placeName":"Virginia Beach","searchUrl":"http:\/\/twitter.com\/search?q=%22HARMOS+GO+CRAZY%22","trendMapped":"HARMOS+GO+CRAZY","trendVolume":249537},{"stateName":"VA","trendName":"Kehlani","placeID":"2480894","placeName":"Richmond","searchUrl":"http:\/\/twitter.com\/search?q=Kehlani","trendMapped":"kehlani","trendVolume":680596},{"stateName":"VA","trendName":"LET'S GO HARMOS","placeID":"2512636","placeName":"Virginia Beach","searchUrl":"http:\/\/twitter.com\/search?q=%22LET%27S+GO+HARMOS%22","trendMapped":"LET'S+GO+HARMOS","trendVolume":252576},{"stateName":"WA","trendName":"#EgyptAir","placeID":"2490383","placeName":"Seattle","searchUrl":"http:\/\/twitter.com\/search?q=%23EgyptAir","trendMapped":"egypt+air","trendVolume":207865},{"stateName":"WA","trendName":"#GOPTownHall","placeID":"2490383","placeName":"Seattle","searchUrl":"http:\/\/twitter.com\/search?q=%23GOPTownHall","trendMapped":"gop+town+hall","trendVolume":197182},{"stateName":"WA","trendName":"5SOS DAY","placeID":"2490383","placeName":"Seattle","searchUrl":"http:\/\/twitter.com\/search?q=%225SOS+DAY%22","trendMapped":"5SOS+DAY","trendVolume":683278},{"stateName":"WA","trendName":"D'Angelo Russell","placeID":"2490383","placeName":"Seattle","searchUrl":"http:\/\/twitter.com\/search?q=%22D%27Angelo+Russell%22","trendMapped":"D'Angelo+Russell","trendVolume":387179},{"stateName":"WA","trendName":"Ecuador","placeID":"2490383","placeName":"Seattle","searchUrl":"http:\/\/twitter.com\/search?q=Ecuador","trendMapped":"ecuador","trendVolume":161221},{"stateName":"WA","trendName":"Kehlani","placeID":"2490383","placeName":"Seattle","searchUrl":"http:\/\/twitter.com\/search?q=Kehlani","trendMapped":"kehlani","trendVolume":707238},{"stateName":"WA","trendName":"LET'S GO HARMOS","placeID":"2490383","placeName":"Seattle","searchUrl":"http:\/\/twitter.com\/search?q=%22LET%27S+GO+HARMOS%22","trendMapped":"LET'S+GO+HARMOS","trendVolume":255492},{"stateName":"WI","trendName":"#GOPTownHall","placeID":"2451822","placeName":"Milwaukee","searchUrl":"http:\/\/twitter.com\/search?q=%23GOPTownHall","trendMapped":"gop+town+hall","trendVolume":193779},{"stateName":"WI","trendName":"5SOS DAY","placeID":"2451822","placeName":"Milwaukee","searchUrl":"http:\/\/twitter.com\/search?q=%225SOS+DAY%22","trendMapped":"5SOS+DAY","trendVolume":1146612},{"stateName":"WI","trendName":"Chris Brown","placeID":"2451822","placeName":"Milwaukee","searchUrl":"http:\/\/twitter.com\/search?q=%22Chris+Brown%22","trendMapped":"Chris+Brown","trendVolume":298835},{"stateName":"WI","trendName":"Ecuador","placeID":"2451822","placeName":"Milwaukee","searchUrl":"http:\/\/twitter.com\/search?q=Ecuador","trendMapped":"ecuador","trendVolume":160642},{"stateName":"WI","trendName":"LET'S GO HARMOS","placeID":"2451822","placeName":"Milwaukee","searchUrl":"http:\/\/twitter.com\/search?q=%22LET%27S+GO+HARMOS%22","trendMapped":"LET'S+GO+HARMOS","trendVolume":252576},{"stateName":"XX","trendName":"#GOPTownHall","placeID":"23424977","placeName":"United States","searchUrl":"http:\/\/twitter.com\/search?q=%23GOPTownHall","trendMapped":"gop+town+hall","trendVolume":195865},{"stateName":"XX","trendName":"#iKONSexyJuneDay","placeID":"23424977","placeName":"United States","searchUrl":"http:\/\/twitter.com\/search?q=%23iKONSexyJuneDay","trendMapped":"i+kon+sexy+june+day","trendVolume":212476},{"stateName":"XX","trendName":"5SOS DAY","placeID":"23424977","placeName":"United States","searchUrl":"http:\/\/twitter.com\/search?q=%225SOS+DAY%22","trendMapped":"5SOS+DAY","trendVolume":993257},{"stateName":"XX","trendName":"D'Angelo Russell","placeID":"23424977","placeName":"United States","searchUrl":"http:\/\/twitter.com\/search?q=%22D%27Angelo+Russell%22","trendMapped":"D'Angelo+Russell","trendVolume":300510}]